{"type": "FeatureCollection", "features": [{"type": "Feature", "properties": {"district_id": "Bathurst"}, "geometry": {"type": "MultiPolygon", "coordinates": [[[[-65.61134066191286, 47.678379340520706], [-65.60997551433886, 47.67767126269584], [-65.60963365659592, 47.67771018872601], [-65.60944738221517, 47.67773142216914], [-65.60871138517628, 47.677979399164606], [-65.60659649976928, 47.67862562304305], [-65.60541690483015, 47.678925471335546], [-65.60450032253982, 47.67918650746808], [-65.60278193339776, 47.679622382646215], [-65.60173491349283, 47.679963244925986], [-65.60101594105579, 47.68017180501895], [-65.60006225003096, 47.68044845322215], [-65.59821147720152, 47.68087954441766], [-65.59748963302553, 47.681008452936], [-65.5961725608803, 47.68124365983166], [-65.5952007672515, 47.681402736330455], [-65.5929882981809, 47.68188902119957], [-65.59270952120194, 47.681936306305055], [-65.59194272777712, 47.68214696929213], [-65.59095109723128, 47.68238896174769], [-65.59038842532168, 47.68250947475253], [-65.58948819929594, 47.68267904908018], [-65.58927898100453, 47.68278578518985], [-65.58809090531005, 47.683388227786004], [-65.58765704872941, 47.683599234609005], [-65.58721462708732, 47.683804685806784], [-65.58676008144454, 47.6840101296682], [-65.58642861674213, 47.68417633820401], [-65.58520481995693, 47.6847303501156], [-65.58471620319108, 47.684925623177115], [-65.58430798830518, 47.6850851030439], [-65.58316693079247, 47.685481808196606], [-65.58096739090544, 47.68615792522494], [-65.58038879730127, 47.68632476379764], [-65.5800087240594, 47.68642724843318], [-65.57902827188433, 47.68666203242183], [-65.57698532455561, 47.687091437005805], [-65.57564246417665, 47.68732267438579], [-65.56728460601897, 47.66922318334594], [-65.56720040111686, 47.66905251230859], [-65.56719808332647, 47.6690478093926], [-65.56617588021123, 47.66697375905683], [-65.56609038287695, 47.66680127865509], [-65.56363787505005, 47.66182496847648], [-65.56296800571712, 47.660465757839944], [-65.5629679646188, 47.66046567296043], [-65.56231355405562, 47.65913782925048], [-65.56111095810421, 47.65669767740337], [-65.56106859853894, 47.65660918906816], [-65.5609793808941, 47.656423181486055], [-65.56094216225007, 47.6563450783153], [-65.56042489902065, 47.655252212764644], [-65.56026195201201, 47.65490794105018], [-65.55997439085174, 47.654300383995945], [-65.55928639987252, 47.65288346160661], [-65.55339021222606, 47.64088777501394], [-65.55231516752737, 47.6387006172814], [-65.55222271617811, 47.63851277615372], [-65.55178427065186, 47.6376191861348], [-65.55170284263635, 47.637447627483844], [-65.5510201663879, 47.63601026369138], [-65.54615524966754, 47.6257672611788], [-65.54591881245598, 47.62526629782017], [-65.54524540202192, 47.62383943752589], [-65.54321063193998, 47.61960512926813], [-65.54218945493388, 47.617479813517335], [-65.54224710379312, 47.61745510593519], [-65.54231883227403, 47.617424218665306], [-65.54238988749906, 47.617393775506336], [-65.54246160764438, 47.61736333960359], [-65.54253331961974, 47.61733335061603], [-65.54259083507095, 47.6173089403771], [-65.54274113783217, 47.617245999632296], [-65.5427484631453, 47.617242936422855], [-65.54282017479584, 47.61721294725517], [-65.54289255136491, 47.6171829653404], [-65.54296425472022, 47.61715342574058], [-65.54303662297832, 47.61712389429214], [-65.54310898985837, 47.61709436098825], [-65.54318135935051, 47.617064825861895], [-65.54325372738322, 47.61703529337665], [-65.54196574311825, 47.6155819185208], [-65.54147519849454, 47.615711876241214], [-65.54049688337071, 47.61376410081828], [-65.54012802498082, 47.612979420775005], [-65.53963791277522, 47.61202373121418], [-65.53842192980782, 47.60943805073863], [-65.53676626424885, 47.60613452786498], [-65.535551880137, 47.60365855496072], [-65.53554652531801, 47.60347274481306], [-65.53546148712454, 47.60347386556725], [-65.53535891186887, 47.603264336804735], [-65.53301187757752, 47.59848122251536], [-65.54604764929078, 47.59738504983164], [-65.54570189456756, 47.59564905555003], [-65.54568060928484, 47.595542181863095], [-65.54531848927991, 47.593722739759414], [-65.54523317826688, 47.593294928159686], [-65.54514655517279, 47.592860539555], [-65.54459244198411, 47.59007753729649], [-65.54450790043228, 47.58965281427873], [-65.54392137519413, 47.586706216494754], [-65.54379636899931, 47.586078280229444], [-65.54377289732393, 47.58596037744283], [-65.54375376152856, 47.58586424954484], [-65.54361496825628, 47.58516706278111], [-65.5436090310999, 47.58513723525438], [-65.54352349116523, 47.58470755004861], [-65.54351332580026, 47.584656485463285], [-65.54351270536124, 47.58465337089748], [-65.54341744904647, 47.584174870606525], [-65.54326604651537, 47.58341434299906], [-65.54310001281998, 47.58258031228967], [-65.54282716737185, 47.58120974264796], [-65.54272265500353, 47.58068475413911], [-65.55271850275923, 47.57971675496955], [-65.55278128897135, 47.57971067507496], [-65.5527945802345, 47.579710783892324], [-65.55255508572617, 47.57941403325961], [-65.55202729561496, 47.5787600644446], [-65.5492872434657, 47.57663283791617], [-65.54559053152464, 47.57376009511138], [-65.54254540033466, 47.57139269082429], [-65.54201219521237, 47.570978156399974], [-65.54496935722399, 47.56912153728057], [-65.55193752267844, 47.564746657924054], [-65.55205277955606, 47.56467429598334], [-65.55247609730539, 47.56440852066036], [-65.55261787563077, 47.56431950590185], [-65.55285217266668, 47.564161033496056], [-65.55289106083791, 47.56413473039571], [-65.55319377083015, 47.563929985793976], [-65.553194501281, 47.56392949076987], [-65.55485420783296, 47.5628069078407], [-65.55694203662364, 47.56150780527385], [-65.55772717395473, 47.56101927202188], [-65.55867919169974, 47.56042662908685], [-65.56087053882592, 47.55907140291934], [-65.56158348831028, 47.55861846086415], [-65.5622950983529, 47.558165503542966], [-65.56247868452867, 47.55804061651613], [-65.56145731350982, 47.55722686190374], [-65.56117420337725, 47.55696911364816], [-65.56077392469606, 47.55657504874232], [-65.56038003538788, 47.556192138213014], [-65.55926656703174, 47.55510970309947], [-65.55914891664213, 47.55500080990346], [-65.55912997529686, 47.55498775114821], [-65.55760572840288, 47.55393689160407], [-65.55744711988477, 47.55382754145219], [-65.55803969935388, 47.553454143955534], [-65.55977588097731, 47.552378289124384], [-65.56401362037954, 47.549752302431976], [-65.56490574011944, 47.54919933601449], [-65.56496436997881, 47.549162986624005], [-65.56506882259812, 47.5490982515725], [-65.56886293865003, 47.5467464279417], [-65.56886950519878, 47.546742354038955], [-65.57277291034512, 47.544322804968324], [-65.57277530757499, 47.54432131937327], [-65.57420732070297, 47.54343367782056], [-65.57565548309815, 47.54253602581913], [-65.57588569132676, 47.5423933295539], [-65.57692446806291, 47.54174945217632], [-65.57712477475656, 47.541625446838324], [-65.5771995180526, 47.54157917541851], [-65.57721518887509, 47.541569473737475], [-65.57723381659436, 47.541557941837375], [-65.57725733062745, 47.54154339791519], [-65.57727496486703, 47.5415324679231], [-65.60876184096948, 47.532357456624375], [-65.62885980848563, 47.53914374644526], [-65.62982172792863, 47.539667875030794], [-65.63431902437206, 47.54211835246612], [-65.63432004610732, 47.540387786964644], [-65.63432174863088, 47.53734501749601], [-65.6343217664625, 47.53731251713781], [-65.64666923359637, 47.53730804571443], [-65.64694939544309, 47.53731416030305], [-65.6477959372966, 47.537327597554636], [-65.64842387545892, 47.538836581252575], [-65.64842516018754, 47.53883929361118], [-65.64901539626557, 47.5402580498155], [-65.6492536568204, 47.540830427880806], [-65.64981953487687, 47.54218984989932], [-65.6502605809396, 47.5432493833564], [-65.65046991173361, 47.54375234710645], [-65.65137412697933, 47.54592492329257], [-65.65145093618104, 47.54610959917259], [-65.65152891511782, 47.54629708809985], [-65.65185091578833, 47.54707169496167], [-65.65250267254441, 47.54863956211979], [-65.65250552289764, 47.54864641893059], [-65.6530429766841, 47.549939321325134], [-65.65346059179721, 47.55099295164351], [-65.65387532646226, 47.55181179919207], [-65.65393715582256, 47.55193367895062], [-65.65400299822655, 47.552053789097975], [-65.65407284067146, 47.552173028994886], [-65.6541480259988, 47.552290508991945], [-65.65422721144603, 47.55240711692357], [-65.6542909146851, 47.55249483059232], [-65.65413237341319, 47.552438805833596], [-65.6541945041379, 47.55254179711745], [-65.65423868927668, 47.55260373519845], [-65.6542445441457, 47.55261142164279], [-65.65436286852996, 47.55277329237083], [-65.65444796160483, 47.552894440631206], [-65.65485211718438, 47.55342043358411], [-65.6549009249389, 47.55348420049141], [-65.6549829069558, 47.55359228698639], [-65.65506756070417, 47.553699489875356], [-65.65515623608793, 47.55380447701534], [-65.65524891170702, 47.55390859203715], [-65.65534425907003, 47.55401182522967], [-65.65570646917608, 47.55437785414666], [-65.65580975353895, 47.5544833971202], [-65.65591570974145, 47.55458805643476], [-65.65602301636905, 47.554691376308135], [-65.65610670548307, 47.55477027877689], [-65.65613166617673, 47.55479381181141], [-65.65624298790019, 47.55489536004127], [-65.65635442447842, 47.55498971870086], [-65.65646854716749, 47.555082297015474], [-65.65658401316257, 47.55517398194882], [-65.65670216518689, 47.55526389192024], [-65.65682166050574, 47.55535290939927], [-65.65694382045726, 47.55544149734105], [-65.65706989493756, 47.555534611883374], [-65.65719731991972, 47.555626383334264], [-65.65732743096093, 47.555716380683364], [-65.65746021392337, 47.55580549338598], [-65.65759435439209, 47.555892822292854], [-65.65800953574103, 47.556146343467155], [-65.65810362818317, 47.55620369261977], [-65.65824180647242, 47.55628789843387], [-65.65838265659372, 47.556371225857546], [-65.65847089258008, 47.556420890270346], [-65.65850907853591, 47.55644275154939], [-65.65852487148295, 47.55645231078394], [-65.65866977247956, 47.556531617946575], [-65.65881602389655, 47.55660958555337], [-65.65896496852096, 47.5566853274998], [-65.65998979787331, 47.55721361277227], [-65.66111649358463, 47.55779919108039], [-65.6611423722839, 47.55781263770721], [-65.66118470129454, 47.5578346324678], [-65.66121535354779, 47.55785055932778], [-65.66132192882284, 47.55790593745804], [-65.66134328582424, 47.55791703424374], [-65.66134383540034, 47.55791731975951], [-65.66317283605211, 47.55871939472907], [-65.66317552174169, 47.55871761344008], [-65.66322494780698, 47.55874315588533], [-65.66338707043437, 47.558826630974224], [-65.66431796955561, 47.559304526899], [-65.66433053130393, 47.55931097593334], [-65.6653418544725, 47.55983015850117], [-65.66638444232575, 47.560370606520664], [-65.66672915545907, 47.56054713380893], [-65.66678319867094, 47.56057495481355], [-65.66685042398875, 47.56060961848195], [-65.66691697927243, 47.5606447297128], [-65.66698352500369, 47.560680285168566], [-65.66704940774157, 47.5607158403084], [-65.66711529055381, 47.560751396309925], [-65.66718116651532, 47.56078739385821], [-65.667246379454, 47.56082339289116], [-65.66731158277274, 47.56085984064735], [-65.66737611611622, 47.56089673237345], [-65.66744065079351, 47.56093362946914], [-65.6675045116086, 47.56097096421201], [-65.66756837382825, 47.56100829982835], [-65.66763223606738, 47.56104563990603], [-65.66769542574497, 47.56108341944107], [-65.66775860972331, 47.56112165222704], [-65.66782112943227, 47.56115988109817], [-65.66788364219919, 47.561198557815246], [-65.66794549070991, 47.56123722971958], [-65.66800734063965, 47.561275901600155], [-65.6680685166231, 47.56131501653026], [-65.66812968688234, 47.56135458651215], [-65.66819085864637, 47.56139415107481], [-65.66820269566581, 47.56140187889579], [-65.66826319606096, 47.5614418928181], [-65.66832369390417, 47.56148190579006], [-65.66838352184469, 47.5615223582459], [-65.6684426854685, 47.56156280949207], [-65.66850184915442, 47.56160326250642], [-65.66856100590398, 47.56164416337021], [-65.66861949269422, 47.56168550731805], [-65.66857024830304, 47.561775099242276], [-65.66874362629287, 47.56190451815698], [-65.66888287016741, 47.562007610854245], [-65.66910758999433, 47.562174606885065], [-65.66910870521663, 47.56217543520191], [-65.66930452262284, 47.562320952831925], [-65.66942664201406, 47.56241447216387], [-65.66954874907138, 47.56250889073206], [-65.66969316176237, 47.56262146204152], [-65.66983087510374, 47.5627375793201], [-65.6699645591677, 47.56285637128695], [-65.67009160287718, 47.5629751100547], [-65.67009184759085, 47.562975351965754], [-65.67021330136495, 47.563095609248954], [-65.67032052764367, 47.56320701172549], [-65.6704237386428, 47.563320184217055], [-65.67052427847523, 47.563434238713334], [-65.67062751850091, 47.56354561230305], [-65.67072810147513, 47.56365696494772], [-65.67082732793953, 47.56377010849024], [-65.67092522606464, 47.56388324242125], [-65.67102045295174, 47.56399726017611], [-65.67111709347563, 47.564105887631406], [-65.67120973404592, 47.56421538400085], [-65.67129836054984, 47.56432665044964], [-65.67138164416667, 47.56443967926716], [-65.67146225646185, 47.56455359194118], [-65.67152235375168, 47.564641790545515], [-65.67154540017945, 47.5646756142032], [-65.67162721549339, 47.56479762688619], [-65.67170770239436, 47.5649196299929], [-65.67179196519436, 47.56505515193294], [-65.67187357083338, 47.56519065478146], [-65.67195250526537, 47.565327036102055], [-65.6720196775923, 47.565450742569666], [-65.67208152096079, 47.565575310309676], [-65.67228188878315, 47.566020174777314], [-65.67248872141344, 47.56647678340123], [-65.6725265947028, 47.56656204850558], [-65.67366069124891, 47.566659204199894], [-65.673804687289, 47.56667192385802], [-65.67412720726861, 47.56669944583542], [-65.67865210533454, 47.567085568216164], [-65.68222129639182, 47.567390137746344], [-65.68753501995803, 47.56784357339835], [-65.68779781830135, 47.56786610448097], [-65.68754933874322, 47.56924997057191], [-65.68752781929122, 47.56935325677491], [-65.68728310527825, 47.57075064352151], [-65.68722188167467, 47.57110279601406], [-65.68711263441489, 47.571726251637976], [-65.6869385241405, 47.57272207134744], [-65.6869115776051, 47.57287569041045], [-65.68661800686742, 47.57455290884208], [-65.68659539082005, 47.57468406825408], [-65.68656870504604, 47.57483701978362], [-65.68653117693268, 47.57505212285019], [-65.68646130418736, 47.57545260604159], [-65.68643435479954, 47.57560622664197], [-65.68642221269971, 47.57567554216983], [-65.68629885835063, 47.576379701098524], [-65.68629083561392, 47.57642596830227], [-65.68620305107501, 47.57692824848967], [-65.68616307190057, 47.57715699404592], [-65.68612542980901, 47.57737237575366], [-65.68595713720902, 47.57833315721552], [-65.68591318703922, 47.578617665878404], [-65.68585954833085, 47.57896489258984], [-65.68580730827058, 47.579303063502685], [-65.6857430063325, 47.57972445042216], [-65.68569875555939, 47.58000881734838], [-65.68569871408184, 47.58001151541238], [-65.6856840969363, 47.58018410730838], [-65.6855643963108, 47.580966237563565], [-65.68556436865381, 47.580968036272296], [-65.68545747038374, 47.58174012132246], [-65.68541631945844, 47.5820373413565], [-65.68541336925418, 47.58205620726571], [-65.68536393278985, 47.58238387650555], [-65.68536233847067, 47.582394447324376], [-65.68528267779224, 47.58292245161031], [-65.68527349690692, 47.58298330228883], [-65.68527330740955, 47.58298455928653], [-65.68527117272191, 47.58299871240857], [-65.68526534034314, 47.5830373657249], [-65.6853292976245, 47.58302792391292], [-65.68536129505341, 47.58302185125098], [-65.68541134366049, 47.58300916158582], [-65.68541601678099, 47.583007844410524], [-65.68542203163528, 47.58300563812971], [-65.68550623180704, 47.58297654991218], [-65.68553564673178, 47.582965513840094], [-65.68557449344543, 47.58294645089079], [-65.6855758283161, 47.58294600786311], [-65.68558585294697, 47.58294248152145], [-65.68563463440839, 47.58292573531056], [-65.68565793765093, 47.58292320097543], [-65.6856785271094, 47.58292424444059], [-65.6857138211925, 47.58291999558477], [-65.68573914461695, 47.58291567654886], [-65.6857657294806, 47.5829158636401], [-65.6857883555535, 47.58291422666272], [-65.68580427886255, 47.58291613492096], [-65.6858706165935, 47.58292469768391], [-65.68587723516288, 47.58292654315738], [-65.68587987982598, 47.582927461217416], [-65.6859639343315, 47.58295098773159], [-65.68599302564694, 47.5829610872663], [-65.68599501093712, 47.58296191883466], [-65.68602142472204, 47.58297297992621], [-65.68604913154543, 47.582986666611255], [-65.68607544003488, 47.583004840707865], [-65.6860997325863, 47.583024351592705], [-65.68612993348425, 47.58304884651644], [-65.68615158966755, 47.5830669878696], [-65.68619340699338, 47.58311405435918], [-65.68623454597834, 47.58316201371369], [-65.68624624667295, 47.58317918647599], [-65.6862829254463, 47.58321452482694], [-65.68630344870985, 47.58326323771605], [-65.6863284987067, 47.583320078392774], [-65.68633752582691, 47.583338130894184], [-65.68635012889351, 47.583383192069434], [-65.68635895012231, 47.583414734884414], [-65.68636022410075, 47.583418342546345], [-65.68636334000298, 47.58343185622147], [-65.68636219181943, 47.58346332892838], [-65.68636569603694, 47.58349483435152], [-65.68636524011421, 47.58352451302414], [-65.6863619322493, 47.58356676395307], [-65.68636434208277, 47.583582971014806], [-65.68637051864653, 47.58361359577797], [-65.68637662317062, 47.58363238146207], [-65.68637813500436, 47.58363703505854], [-65.68638460170925, 47.583648773393335], [-65.68639248057161, 47.58365512495292], [-65.68641467738726, 47.5836813651108], [-65.686438203488, 47.58370761461104], [-65.68646573119032, 47.58373299459073], [-65.68648242732085, 47.5837459705333], [-65.68649008455442, 47.58375117372784], [-65.68652629720248, 47.58377119556574], [-65.68659832777784, 47.583798685495836], [-65.68660336474144, 47.58380094704685], [-65.6866227534517, 47.5838096506181], [-65.68666452864971, 47.58381624044209], [-65.68669168193017, 47.583822727469766], [-65.68671290875893, 47.583825575030296], [-65.68675012821438, 47.58382583664501], [-65.68679532117636, 47.58382317350946], [-65.6868978163643, 47.58385241902455], [-65.6870077456917, 47.583951385438155], [-65.68711768350218, 47.58395749071586], [-65.68711884707281, 47.58395755555605], [-65.68751884137319, 47.583979966800385], [-65.687622426665, 47.58398577064595], [-65.68800648934864, 47.58399476276839], [-65.68914944590932, 47.58406034316113], [-65.69051542112892, 47.58414726066788], [-65.71518495419127, 47.58552293521404], [-65.71508575285154, 47.58638573259125], [-65.71487530712942, 47.588160714271105], [-65.71479571324335, 47.58883150556698], [-65.71478486076833, 47.58892553210305], [-65.71467739021318, 47.58985723267532], [-65.7146231368381, 47.59032757203982], [-65.71446449668154, 47.59170039824053], [-65.7115628990323, 47.591950497847435], [-65.71174998638416, 47.59313769257614], [-65.71177549619415, 47.59329976666671], [-65.71191879962838, 47.59420674034487], [-65.71192008144546, 47.594216387537024], [-65.71198618955194, 47.59464963848994], [-65.71213028053042, 47.59559397079556], [-65.71216067357828, 47.59579351552084], [-65.7122688052334, 47.59650343009507], [-65.7123184800359, 47.596829560753314], [-65.71236954115032, 47.59716480047223], [-65.7124102706738, 47.59743219753933], [-65.71244513973963, 47.597668885412745], [-65.71252984599808, 47.59823206454007], [-65.71258923203646, 47.59860714397214], [-65.71261982208789, 47.59880797590481], [-65.71270159844532, 47.59934486287051], [-65.71275611071647, 47.59970275740646], [-65.71279878825952, 47.599981690120764], [-65.71280457452272, 47.60001950343432], [-65.71283416614243, 47.600212912499806], [-65.71290593855754, 47.60066267292895], [-65.71296071558466, 47.60104605383718], [-65.71297218609853, 47.60112633704383], [-65.71301967721304, 47.601435420138564], [-65.71313244670401, 47.60216935664366], [-65.71313267708209, 47.60217085668278], [-65.71317831944911, 47.60246790956281], [-65.71323785344394, 47.60285906124031], [-65.71324676265104, 47.602917650374145], [-65.71331504320948, 47.60336185659243], [-65.71331590255139, 47.603367389511305], [-65.71331646587956, 47.60337091645893], [-65.7133177197584, 47.60337862691294], [-65.71340450371169, 47.60391265302262], [-65.71342467585589, 47.60403678641664], [-65.71355659609655, 47.604848548519605], [-65.71357478755503, 47.6049604926321], [-65.71372624315102, 47.60589246974773], [-65.7137360356296, 47.60595272784865], [-65.71382188882275, 47.60648102726793], [-65.7138611900478, 47.60672286636651], [-65.71386721638852, 47.60676234423302], [-65.7139381559776, 47.60722707659457], [-65.71428966523723, 47.60953023464956], [-65.71438590893561, 47.61016994078647], [-65.71454233250014, 47.61123594023739], [-65.71455147967964, 47.61129176762579], [-65.71458479705285, 47.61151145719915], [-65.71466659262143, 47.61204786372033], [-65.71470299237903, 47.61228577968284], [-65.71478714799989, 47.61280636014344], [-65.71478716138893, 47.6128064438822], [-65.71481995003485, 47.61300927147653], [-65.71486809687823, 47.6133055156198], [-65.71488945273008, 47.613447603784216], [-65.7148904926524, 47.61345452483214], [-65.71496730436039, 47.61397042300832], [-65.71504234917096, 47.61447102397895], [-65.7150599273231, 47.614586269644306], [-65.71507803326773, 47.614800457214415], [-65.71507986159965, 47.61481171260565], [-65.71528076091704, 47.616109616402284], [-65.71531038036476, 47.616301800652245], [-65.71541439292261, 47.616976668410224], [-65.71541422776275, 47.616976682581125], [-65.71551863184864, 47.61765106793552], [-65.71551875838365, 47.61765105710041], [-65.71627256113597, 47.617587947529415], [-65.72167962006985, 47.617135262812575], [-65.7257274089663, 47.61679637670932], [-65.72783441201213, 47.616619975613425], [-65.73051637868849, 47.6163954382137], [-65.73143799943641, 47.61631827905422], [-65.7317470649946, 47.6162924033463], [-65.74708087292734, 47.61500863801718], [-65.74713134047569, 47.61500441335166], [-65.7535682827829, 47.61446550450512], [-65.75400642776914, 47.61442875228634], [-65.75482715087033, 47.61419209423574], [-65.7552184807058, 47.61407903179159], [-65.75686833870148, 47.613605439112334], [-65.75786952591228, 47.613318047533014], [-65.76183594500199, 47.61217864130066], [-65.76217180575685, 47.61208274781248], [-65.76313111323135, 47.611822622332845], [-65.7634649244057, 47.61173030619931], [-65.76543966974876, 47.61128414320397], [-65.76696915547363, 47.61081264141218], [-65.76809080225947, 47.61049594255834], [-65.77053391861932, 47.609836788777486], [-65.77315079076509, 47.6091112170419], [-65.77819740068517, 47.60771269557807], [-65.77825485422902, 47.60788844421536], [-65.78507738933867, 47.61938825108442], [-65.78545257868703, 47.62002511635244], [-65.78563413447854, 47.62032304998915], [-65.7859280916105, 47.620819104141354], [-65.78674952733861, 47.62220389508651], [-65.7870222923037, 47.62266421774313], [-65.78733098406629, 47.62318516134271], [-65.78756839503463, 47.623585069455345], [-65.78771560954212, 47.623829013668846], [-65.78771731442099, 47.62382847280779], [-65.78773091259258, 47.62381996690567], [-65.78780605301105, 47.62391500721902], [-65.78782952364995, 47.62390327642145], [-65.78798359713832, 47.623823275360074], [-65.78807750442401, 47.62376538987091], [-65.7881377911711, 47.623734280513695], [-65.78819825934656, 47.62368968075948], [-65.78825219695709, 47.62363604649756], [-65.78827245377943, 47.623613685248294], [-65.7883158699081, 47.62355099194168], [-65.78836061622026, 47.62348830679558], [-65.78842821919217, 47.6234077734967], [-65.78849564053627, 47.623340730523], [-65.78859607081216, 47.6232428599708], [-65.78867087477131, 47.62317091538771], [-65.78871797862107, 47.62313073039095], [-65.78883204353077, 47.62305767779772], [-65.78894612021259, 47.622983725731366], [-65.78908035609989, 47.62289460701638], [-65.789214591535, 47.62280548814172], [-65.78931544902419, 47.62272515850895], [-65.78942918611041, 47.62267638798295], [-65.78952544838276, 47.622641001573534], [-65.78962304079147, 47.62260562324713], [-65.78968320456566, 47.622583506649], [-65.78978617817972, 47.622543664045004], [-65.78989048190137, 47.622503829509206], [-65.78994399413989, 47.62248167197009], [-65.79003100423127, 47.622441731222956], [-65.7901582839707, 47.622375054395924], [-65.79021862823745, 47.6223394471406], [-65.79033937684282, 47.622263735741484], [-65.79043345970622, 47.62219235791874], [-65.79051423978775, 47.622120898482095], [-65.79056152219103, 47.62206722233652], [-65.7906225893266, 47.621977653351955], [-65.79065665341568, 47.621917600130146], [-65.79069072948406, 47.62185664753829], [-65.79072482958634, 47.62179389621762], [-65.79075185643573, 47.62176258168453], [-65.79077809287958, 47.62174070634364], [-65.7908192137913, 47.621700034107526], [-65.7909468523172, 47.62160637652686], [-65.79100054398063, 47.621570728107706], [-65.7911615582926, 47.621468279491054], [-65.79128883426571, 47.6214016013885], [-65.79138920413052, 47.62135724424928], [-65.79143600319614, 47.62133954208376], [-65.79149604434414, 47.62132641811691], [-65.79161606634592, 47.62130466688385], [-65.79175598153623, 47.62128753441124], [-65.7919023672526, 47.62128393284188], [-65.79199572418975, 47.6212665152546], [-65.79209567205746, 47.62125363506378], [-65.79219555972101, 47.62124525158162], [-65.79224183744536, 47.621244815008914], [-65.79231131390316, 47.621244159581735], [-65.79242841031545, 47.621242178037264], [-65.79249474148041, 47.62125607498048], [-65.79259714525749, 47.62125849972209], [-65.79270086725343, 47.62126183186061], [-65.79285366359903, 47.62127625691174], [-65.79295984180193, 47.62129489417663], [-65.79306602008016, 47.62131353134424], [-65.79317229455071, 47.621324973541284], [-65.79327855705496, 47.621337315000005], [-65.79343788484964, 47.621360773480845], [-65.79354418351406, 47.621370416618376], [-65.79365305864224, 47.62138637140777], [-65.79376325206741, 47.621403233570206], [-65.7938495973422, 47.62141275468288], [-65.79393594264846, 47.62142227573118], [-65.79403547034872, 47.62144087143904], [-65.79414812051778, 47.621473038568666], [-65.79421439244437, 47.62149143132355], [-65.79431990046047, 47.62151051206669], [-65.79436041874109, 47.62151480742469], [-65.79443999318322, 47.621533281143144], [-65.79455923503987, 47.621569985211146], [-65.79471826440175, 47.62161592591304], [-65.79485356543195, 47.62164553206517], [-65.79499018487301, 47.621676045520736], [-65.79507641099507, 47.62169455931229], [-65.79520889621138, 47.621735839618786], [-65.79534156129158, 47.62176363028298], [-65.79546769504154, 47.62178238671875], [-65.79559382888168, 47.621801143017166], [-65.79570654063127, 47.62182881183388], [-65.7957793450802, 47.621856237756106], [-65.79586557177507, 47.621874750960124], [-65.7959517972004, 47.62189326409188], [-65.7961044766298, 47.62191667844975], [-65.79615756694488, 47.62192599560452], [-65.79620388639901, 47.62194426588844], [-65.79636950977653, 47.62199474156028], [-65.79648863443644, 47.62204043723527], [-65.79658127380685, 47.622076977519185], [-65.79672652574084, 47.62215880899965], [-65.79675295153265, 47.62217246103173], [-65.79686149463322, 47.622213594869486], [-65.79697136816057, 47.62225473668465], [-65.79703087127174, 47.62228208102436], [-65.79712357118017, 47.62231412407619], [-65.7971832536387, 47.62232797794599], [-65.79723616537076, 47.622350784997835], [-65.7973572952002, 47.62241039805902], [-65.79742643708595, 47.622474319436265], [-65.7974339727174, 47.62248240339729], [-65.79747255271204, 47.62253255602401], [-65.79751912631644, 47.62258185771666], [-65.7975715608369, 47.62264063899012], [-65.79759079845114, 47.62269472163947], [-65.79764916817426, 47.62280750479876], [-65.79766876408833, 47.62283460665208], [-65.79769477262236, 47.622879736044474], [-65.79770789628635, 47.62289330714492], [-65.79777992734793, 47.62297919016133], [-65.7978060554114, 47.62301532593381], [-65.79783889457875, 47.62304700525097], [-65.79787808679765, 47.6231012088864], [-65.79789780228599, 47.62311931710586], [-65.797963779243, 47.623160191694744], [-65.79804953154107, 47.62321467764257], [-65.79814864650251, 47.62326474738981], [-65.79818831639967, 47.62328297654625], [-65.79824794058668, 47.62330132666247], [-65.79837401941363, 47.62332457673016], [-65.79847373114771, 47.62332967823359], [-65.79858009432694, 47.62333481995625], [-65.7986464893594, 47.62334421657871], [-65.7987127652046, 47.62336260675656], [-65.79884525743942, 47.62340388379511], [-65.79892495680804, 47.62341336084454], [-65.79899788427548, 47.623431791144014], [-65.79907093094444, 47.62344122780388], [-65.79919724872936, 47.62344648978825], [-65.79927041457148, 47.62344693272845], [-65.79934340175883, 47.623460866013524], [-65.79935194502688, 47.623463819291366], [-65.79936988842759, 47.62347002064854], [-65.79950903289651, 47.62351133718717], [-65.79954881061204, 47.62352147164287], [-65.79959526360643, 47.62352984761281], [-65.79967472051118, 47.62353032836281], [-65.79973494408097, 47.62353069270614], [-65.79986815163223, 47.62351800700834], [-65.79987302077018, 47.62351701020768], [-65.79989358051452, 47.6235128028974], [-65.7999581398556, 47.6234995912465], [-65.79997487232399, 47.62349616666633], [-65.80012150159588, 47.623474567530145], [-65.80025409729858, 47.623457830247865], [-65.80027478219121, 47.623453008415446], [-65.8004079299593, 47.623444818893034], [-65.80050107391928, 47.623443582934065], [-65.80058135695266, 47.623441743024195], [-65.80067404705754, 47.62344192978252], [-65.80078658669422, 47.623483084047095], [-65.80087429734982, 47.6234912131263], [-65.80095268273033, 47.62349847813391], [-65.80106844167588, 47.62349738008822], [-65.80118555471269, 47.623494487640954], [-65.80127849682736, 47.623508540170945], [-65.80132487882769, 47.62352231160553], [-65.80141788040476, 47.62353186722532], [-65.80151088201585, 47.623541422770444], [-65.80151283898427, 47.62354223237481], [-65.80154396119326, 47.62355511384355], [-65.80161035703809, 47.623564508767444], [-65.80166356869921, 47.62356482980141], [-65.8017234911689, 47.62356069413679], [-65.80181013814183, 47.623547725324066], [-65.80189611399373, 47.62353520211471], [-65.80195010350154, 47.623526983110686], [-65.8020161085697, 47.62351810079959], [-65.80204606239708, 47.62351407027626], [-65.80214336339901, 47.62350026602232], [-65.80228339966746, 47.62347412724601], [-65.80241140390824, 47.62345241294712], [-65.80254073833304, 47.62343070652169], [-65.80267007265249, 47.62340899995136], [-65.80279675811994, 47.62338637964986], [-65.80292347907582, 47.62336105753191], [-65.80297679718139, 47.62335328372208], [-65.80305009326104, 47.623343831313306], [-65.8031392934946, 47.6233389735607], [-65.8032298595785, 47.623331422069334], [-65.80336294739219, 47.62332772594574], [-65.80348200206632, 47.62332889210154], [-65.80352256986987, 47.623329585915776], [-65.80368209766696, 47.623338640546315], [-65.80372853932897, 47.62334791421947], [-65.80388770039072, 47.62338484872945], [-65.80404684851507, 47.6234226823728], [-65.8040799874283, 47.62343187592279], [-65.80423945649756, 47.62344542658653], [-65.80431908463072, 47.623460296077305], [-65.8044319345842, 47.62347806344164], [-65.80451169286965, 47.623483039838426], [-65.80457148499528, 47.62348879566032], [-65.8046844414725, 47.62349846853726], [-65.8047973743562, 47.623509940024405], [-65.80491030728948, 47.623521411401484], [-65.80502331115571, 47.62352748650715], [-65.80512962815473, 47.62353621965488], [-65.80522271313436, 47.623539476697964], [-65.8053158099348, 47.623541834305925], [-65.80536242918708, 47.62353761692024], [-65.8054557148959, 47.623525584651404], [-65.8054822734991, 47.62352934172874], [-65.80558204536104, 47.6235299403101], [-65.80566869135413, 47.6235169686064], [-65.80572189120063, 47.62351818713509], [-65.80583726073905, 47.623546761412214], [-65.80595393709922, 47.62357714227129], [-65.80598041318082, 47.623587194756816], [-65.80604680986808, 47.62359658713801], [-65.80613587007967, 47.6236025176105], [-65.80622623435768, 47.623610254692444], [-65.8063458428755, 47.62361996581459], [-65.80643888092342, 47.62362681932168], [-65.80649076041689, 47.623631645298154], [-65.80653189541928, 47.623635471474856], [-65.80661172486926, 47.62363505026308], [-65.80671149694885, 47.62363564787147], [-65.80674414352346, 47.62363179595759], [-65.80675145291966, 47.62363228944903], [-65.80678476919816, 47.62362799181901], [-65.80681162253707, 47.62360926458043], [-65.80691245493371, 47.62352891957329], [-65.8070196924244, 47.623467500874476], [-65.80715373433064, 47.62339095218867], [-65.80726756248747, 47.623334069862835], [-65.80738116669883, 47.62329427527544], [-65.80742791507537, 47.62328016408953], [-65.80750796764562, 47.623262654405856], [-65.80755045913831, 47.62325908242138], [-65.80764781236375, 47.62325089890006], [-65.80780106576675, 47.62323112852941], [-65.80795431905634, 47.62321135795541], [-65.80807409166722, 47.623208476241174], [-65.80817394526422, 47.623202778860495], [-65.80820218586673, 47.623200912230104], [-65.80827381064576, 47.62319617843533], [-65.80834038361841, 47.62319207909008], [-65.80835307125787, 47.62318975881697], [-65.80850708048357, 47.623161594940484], [-65.80858719128724, 47.623139587704074], [-65.80870055906992, 47.623117779032874], [-65.80873576907317, 47.62310718803952], [-65.8088207661535, 47.623081620192295], [-65.80888079327075, 47.62306938657084], [-65.80895420539238, 47.62305093680962], [-65.80899404332096, 47.62305657122033], [-65.8090139975262, 47.6230566903377], [-65.8090471370817, 47.62306588246845], [-65.8091464501245, 47.62310155305244], [-65.80920589005697, 47.62313428730985], [-65.80929154826622, 47.623196859208], [-65.80933787339528, 47.6232151242427], [-65.80939090867858, 47.62322893213794], [-65.80943745690686, 47.623230109274814], [-65.80945742291739, 47.623229328954906], [-65.80951075168454, 47.623220652771344], [-65.80951672622778, 47.623221587841215], [-65.80967037410308, 47.623222504263595], [-65.80972371456285, 47.62321292862077], [-65.80981308997747, 47.62319457530791], [-65.8099038308533, 47.62317352817605], [-65.80994390357993, 47.62316117503928], [-65.8100107696095, 47.62313459070645], [-65.81006536603378, 47.62312020234237], [-65.81011089261897, 47.62310820455036], [-65.81021758485697, 47.623088153471244], [-65.81032426529099, 47.623069001654535], [-65.81035787088672, 47.62305766577438], [-65.81037396078592, 47.6230522382286], [-65.81045789117762, 47.62302392675764], [-65.8105212647864, 47.623012430867014], [-65.81057790934803, 47.623002155866395], [-65.8107179870546, 47.622972409422864], [-65.81085836918211, 47.62291927941657], [-65.81099876274047, 47.622865249877016], [-65.81109902527636, 47.62282807052552], [-65.8111992876717, 47.62279089108634], [-65.81130890866632, 47.62275016951692], [-65.81141984805976, 47.62271035511745], [-65.81153293445219, 47.62266614886764], [-65.81155356573359, 47.62265808405401], [-65.81168729484413, 47.622604913473], [-65.81182773351738, 47.62254728547184], [-65.81188118988098, 47.62252871521468], [-65.8119472662022, 47.62251156909497], [-65.81195458849666, 47.62251116470283], [-65.81198131079513, 47.62250232922864], [-65.81211462849826, 47.62248063579586], [-65.81224794742315, 47.622458942217], [-65.81231819364861, 47.6224399993135], [-65.81239480265948, 47.622419340273815], [-65.81254829734675, 47.62238067430893], [-65.81266794599632, 47.622335964466046], [-65.81269532738946, 47.622327581556945], [-65.81281576357715, 47.62227343221102], [-65.81285595176189, 47.62225208354194], [-65.81301617862631, 47.622207164501305], [-65.81309640288704, 47.62217616051043], [-65.81315001022384, 47.622145897059795], [-65.81322347794743, 47.6221229486682], [-65.81331706289204, 47.622087526638836], [-65.81334383145006, 47.622075092500786], [-65.8134033254679, 47.62205251081628], [-65.81347078932157, 47.622030874002945], [-65.81357751312127, 47.622008122624216], [-65.81363083999143, 47.62199944453392], [-65.81373750532161, 47.62198119071627], [-65.81384420561575, 47.62196023511655], [-65.81397097622701, 47.62193040495923], [-65.81405114121179, 47.62190389711131], [-65.8141181318334, 47.62186741830181], [-65.81416451095797, 47.62184820063717], [-65.81427863621413, 47.62180091281205], [-65.81431866026506, 47.62179215559808], [-65.8143721499714, 47.62177088519579], [-65.81445170898594, 47.62173987632535], [-65.81449246665873, 47.62172572770874], [-65.81455231618244, 47.62172698066617], [-65.81468968899412, 47.62170770796717], [-65.81471224881176, 47.621704543316405], [-65.81476545871531, 47.62170485832322], [-65.81477209831735, 47.62170579616018], [-65.81482501705493, 47.621728595194575], [-65.8148847151733, 47.62174154148753], [-65.81499730891758, 47.621779083630955], [-65.81501056482679, 47.62178276070045], [-65.81509604281324, 47.621859717248014], [-65.81514229895436, 47.62188337524414], [-65.81518185729857, 47.62191059221962], [-65.81522100828164, 47.621969286857954], [-65.81527329894928, 47.62204065214311], [-65.81530608980759, 47.622076823351264], [-65.81536762099411, 47.62211655269772], [-65.81539184666069, 47.622132194975556], [-65.8154714410772, 47.62214975579011], [-65.81556460575251, 47.62214670807908], [-65.81563795610833, 47.622132751774274], [-65.81571128318541, 47.622120592348466], [-65.81576473775243, 47.62210202118985], [-65.81579150574575, 47.622089586484414], [-65.81594583417039, 47.62198616551605], [-65.81597936960742, 47.62196477644985], [-65.81601981204584, 47.62192364250422], [-65.8160741265957, 47.62183851838821], [-65.81610148724884, 47.62178021702849], [-65.81614776192365, 47.621699541628274], [-65.81622895991946, 47.62159298811117], [-65.81625066223724, 47.621560737688895], [-65.81631145294237, 47.62148914227563], [-65.81634494142124, 47.62147135144804], [-65.81639184849384, 47.62144464554782], [-65.81648554631322, 47.6214002273147], [-65.8165392206248, 47.621364567003425], [-65.81661186669014, 47.62130203574129], [-65.81668717305617, 47.62123952013733], [-65.81676774212715, 47.621181531803835], [-65.81686832257033, 47.62111916526031], [-65.81696744483375, 47.621066683767815], [-65.81705594827201, 47.621012340675954], [-65.8170840490596, 47.62099367058117], [-65.81711633099232, 47.62097222251882], [-65.81712546205213, 47.62096699132993], [-65.81715639078227, 47.62094927151052], [-65.81717238788667, 47.62094010623545], [-65.81722355016203, 47.620910794261654], [-65.8173172463391, 47.620866375342914], [-65.81747361379837, 47.62081063330033], [-65.81753508838965, 47.62078895970324], [-65.81757781219008, 47.620777069271774], [-65.81761918834846, 47.62076652002676], [-65.81766185989697, 47.62075867849588], [-65.81774854484664, 47.62074209846816], [-65.81779121637972, 47.6207342550907], [-65.81780741785616, 47.620732234215545], [-65.81783252289077, 47.62072910194675], [-65.81787382937065, 47.62072395058673], [-65.81792177538935, 47.62071973596904], [-65.81797237027767, 47.62071643457163], [-65.81812139006458, 47.62071461513664], [-65.81815603382253, 47.62071032205866], [-65.81822534451045, 47.620699936246226], [-65.81838666064385, 47.62067300571905], [-65.81844132722104, 47.6206634320746], [-65.81851723097252, 47.62065758296414], [-65.81859451125868, 47.62064814418236], [-65.81867977282418, 47.62063875412676], [-65.8188477280932, 47.62061275966868], [-65.81884905831423, 47.62061276749656], [-65.81894770306678, 47.62059715638178], [-65.81899700223579, 47.62059115221716], [-65.81904626671624, 47.62058784252356], [-65.81921397996993, 47.6205807341672], [-65.81921530886, 47.62058074198307], [-65.81922063107136, 47.620580773285376], [-65.81932444477432, 47.62057688665568], [-65.81943500343745, 47.6205658441407], [-65.81946564474335, 47.62056242836855], [-65.81949098834646, 47.62055717898249], [-65.81951568416159, 47.6205505784346], [-65.8196691905248, 47.62085718484617], [-65.81972568486052, 47.620970022221066], [-65.82082572143639, 47.623167071495], [-65.82088992690204, 47.62334733426079], [-65.82650745291153, 47.634533065148545], [-65.8265073383903, 47.63454205874732], [-65.82190268218311, 47.6356214739287], [-65.82191564225803, 47.635648532631365], [-65.82450380561863, 47.64034067578475], [-65.8214471143596, 47.64105133527132], [-65.82101871075554, 47.64021235849656], [-65.8187625051303, 47.64076574251508], [-65.82141278676833, 47.64580054257214], [-65.82161807135505, 47.646190746066104], [-65.80445652248908, 47.65009180792317], [-65.80444450835662, 47.65009443402195], [-65.79817910169844, 47.651554616413556], [-65.79105391946794, 47.653221588141406], [-65.78412606264123, 47.6548418723722], [-65.78148130026399, 47.65550500526176], [-65.77796686864778, 47.65638616484438], [-65.77761349769855, 47.656283675289416], [-65.77675851141547, 47.656503193982644], [-65.7723782858005, 47.65755371104794], [-65.75508898547498, 47.66149343322695], [-65.75483574632852, 47.661560609765125], [-65.75124029168629, 47.662180055235964], [-65.73882105147356, 47.66502585332011], [-65.73817830132276, 47.66517313630647], [-65.73739183279675, 47.6629297486746], [-65.73668336996273, 47.66119674483872], [-65.73542363284135, 47.661484887023654], [-65.73532211449097, 47.661508051433024], [-65.73353616790662, 47.66191627888567], [-65.73191667832656, 47.66228668204819], [-65.73176287876312, 47.66232185734348], [-65.7316025794563, 47.66235857139262], [-65.73090087707848, 47.66094496411717], [-65.73051426499258, 47.660165790721365], [-65.73043361167103, 47.660003242363764], [-65.72981289490129, 47.65875225690601], [-65.72980893348256, 47.658744274247], [-65.72940379661284, 47.65792776489606], [-65.7293992796127, 47.65792849575027], [-65.72909238488472, 47.65797814929367], [-65.72836375401259, 47.65820795621893], [-65.72776988154297, 47.65830752115423], [-65.72752268177197, 47.65836508961331], [-65.72741304241251, 47.65839062317629], [-65.72741211816457, 47.65839319656069], [-65.72747336124309, 47.658517242803875], [-65.72747417713363, 47.65851889509402], [-65.72744756066399, 47.65851826511341], [-65.7274143475404, 47.65851354640109], [-65.72735437988099, 47.65851764341632], [-65.7272570346722, 47.65852868907699], [-65.72716103380657, 47.65853883880665], [-65.72712762343951, 47.6585476100701], [-65.72704083534512, 47.65856501928669], [-65.72699398186096, 47.65858269502695], [-65.72692709523608, 47.65860473413292], [-65.72683618195876, 47.658631109906], [-65.72674659974848, 47.6586574944961], [-65.72667958134534, 47.65868852682875], [-65.72660590706897, 47.658719514669535], [-65.7265523975064, 47.658737145776456], [-65.7264923637226, 47.65874573902914], [-65.72645242893604, 47.65874547226681], [-65.72640583835233, 47.658745161026715], [-65.72633269039952, 47.658740175212245], [-65.7262331167621, 47.658721521403336], [-65.72609374012484, 47.65869360725311], [-65.72600760993278, 47.65866604884414], [-65.72595442948801, 47.65866119625051], [-65.72582783782082, 47.6586693442385], [-65.72576786986683, 47.65867344043103], [-65.72572786926861, 47.658677670103636], [-65.72566004827434, 47.658690654915695], [-65.72561439146332, 47.6586993969172], [-65.72555046451951, 47.65870974091092], [-65.72548094618496, 47.65872099006885], [-65.72540107666438, 47.65872045583299], [-65.7253740034293, 47.65871792183561], [-65.72535454538512, 47.65871609985219], [-65.72534984587517, 47.65872191737514], [-65.72534902656324, 47.65872513543347], [-65.72534670561465, 47.65872580616841], [-65.72532221537887, 47.65873288000728], [-65.72509741554882, 47.65873821153483], [-65.72504241352573, 47.658721853479605], [-65.72504210273848, 47.65872107699481], [-65.7249210175223, 47.6588723566658], [-65.72485852827889, 47.658950675849994], [-65.72476976701523, 47.65907592290468], [-65.7247671691247, 47.659079589557344], [-65.72471578790929, 47.659152090891695], [-65.72468823442132, 47.65921531946973], [-65.72466735002779, 47.65927768607285], [-65.72465983663982, 47.659336098383925], [-65.72465238919915, 47.65939001401069], [-65.72465152499953, 47.6594489250488], [-65.72465073342467, 47.65950288523837], [-65.72465659775877, 47.659556889092805], [-65.72466246209129, 47.659610893845226], [-65.72567073659692, 47.66356529007774], [-65.7256907317673, 47.663643709591945], [-65.72570678229494, 47.66370666142442], [-65.72289086167926, 47.66433898291545], [-65.72306202766643, 47.66474127240039], [-65.72321776763398, 47.66510613473331], [-65.72323899549292, 47.665156643015834], [-65.72379112187971, 47.66645461636403], [-65.72382136648159, 47.66652587166759], [-65.7244749537534, 47.668079956881705], [-65.72459654161065, 47.668323616792016], [-65.72459664635278, 47.66832382885748], [-65.72458785456824, 47.66832580358554], [-65.72266862168657, 47.66876875285584], [-65.71500792616223, 47.67053680323554], [-65.71019657162697, 47.67160984110406], [-65.70702870894837, 47.672316276542546], [-65.70680517864217, 47.67236610284212], [-65.70375983862805, 47.67312761317065], [-65.70363124791722, 47.6731598277625], [-65.70347632581772, 47.67319851684383], [-65.70065452449651, 47.67390409970327], [-65.70031446022995, 47.673989086022694], [-65.69946068396676, 47.6742025568044], [-65.69844775647984, 47.67445576630452], [-65.69844703195623, 47.67445594747054], [-65.69836012393696, 47.674477672314175], [-65.69835997754274, 47.674477754047714], [-65.69834609930835, 47.674481223296304], [-65.69833882936592, 47.67448299520464], [-65.69829406662332, 47.674494185368395], [-65.69829356266402, 47.67449431139668], [-65.69828133800277, 47.6744973666572], [-65.69828120298403, 47.67449740080002], [-65.69818815240346, 47.67452066147985], [-65.6981879291611, 47.67452071749733], [-65.69809698256323, 47.67454345211741], [-65.6980966243153, 47.67454354137805], [-65.69800368452863, 47.67456677389551], [-65.69800350539087, 47.67456681942498], [-65.69793840364207, 47.67458309335146], [-65.69793813494891, 47.674583160746195], [-65.69784850887206, 47.674605564334904], [-65.69784844202138, 47.67460558186032], [-65.69776513207668, 47.67462640747206], [-65.69776506523961, 47.67462642409809], [-65.69768212952573, 47.67464715600429], [-65.69761912050258, 47.67419251144858], [-65.6976173908181, 47.67417496343548], [-65.69761159363351, 47.67411825699018], [-65.69760646767318, 47.67406110908042], [-65.69760361005977, 47.674030058324064], [-65.69760067727299, 47.67400395746529], [-65.69759621165935, 47.67394726024094], [-65.69759108706253, 47.67389011233635], [-65.69758662822906, 47.67383296994234], [-65.69758216947312, 47.673775823050356], [-65.69757836960719, 47.67371913403085], [-65.69757391078703, 47.6736619925323], [-65.69757078359848, 47.67360485396253], [-65.69756699191686, 47.67354771528473], [-65.69756386336923, 47.67349057940128], [-65.69756235097798, 47.67345863943507], [-65.69756073613222, 47.67343344532452], [-65.69755827464839, 47.67337631675859], [-65.69755581323777, 47.67331918369485], [-65.69755335177743, 47.673262054227244], [-65.69755089034933, 47.673204922959776], [-65.69754909465641, 47.673147798102576], [-65.6975473002849, 47.673090674152725], [-65.6975461690783, 47.673033550299486], [-65.69754503915058, 47.67297643005163], [-65.69754390925226, 47.67291930800395], [-65.69754344508264, 47.672862192366566], [-65.69754298090002, 47.67280507762735], [-65.69754318579983, 47.672791586811606], [-65.69754406322053, 47.67249507129718], [-65.69755102027827, 47.67219859337881], [-65.6975640560374, 47.67190220791419], [-65.69758316551369, 47.67160597332958], [-65.69763276393995, 47.671058118726286], [-65.69763765330278, 47.67093344400804], [-65.69765287138918, 47.670809149343384], [-65.69767836826198, 47.67068562473218], [-65.69780426009352, 47.66976099033349], [-65.69785296664342, 47.669403358085184], [-65.69788510986629, 47.66921559940755], [-65.69791384005443, 47.66898959696608], [-65.69824037920817, 47.66607322620584], [-65.69876784521131, 47.66223023998522], [-65.69877321843529, 47.662191087387136], [-65.69877680148122, 47.662164984761425], [-65.69889971525194, 47.661269459263536], [-65.69380732825493, 47.66192083423158], [-65.68908634085875, 47.66252421547143], [-65.68910303863156, 47.663735405939484], [-65.68895960902447, 47.663755088307894], [-65.68899145998792, 47.665323461681446], [-65.6889874798833, 47.66532253168454], [-65.68895821846841, 47.6653205324045], [-65.68891834800739, 47.66531575604101], [-65.68888376830701, 47.66531326528419], [-65.68881327072594, 47.665308722279676], [-65.6887560380049, 47.665307419245025], [-65.68870145406959, 47.66530703686215], [-65.68866283894809, 47.66530722054168], [-65.6886268934304, 47.66530696870256], [-65.6886175535651, 47.66530824880473], [-65.68855561287224, 47.66531006337219], [-65.68849367905285, 47.66531143004078], [-65.68843379061248, 47.66530965852434], [-65.68838987097253, 47.66530845400195], [-65.6883885396847, 47.66530844287296], [-65.68837389521492, 47.665308340238525], [-65.6883179799672, 47.66530794834439], [-65.68824348156342, 47.665303828462754], [-65.68818090283779, 47.665303839506656], [-65.68814085284954, 47.66531075414683], [-65.68812204863404, 47.66532141542343], [-65.68811253598918, 47.6653339406888], [-65.68811246690522, 47.665338437331435], [-65.68810972137194, 47.66534381463557], [-65.68810556852867, 47.66535412891293], [-65.6881051609294, 47.665380659104144], [-65.6881115342704, 47.665399142006386], [-65.6881097953553, 47.66542566286374], [-65.68809334975232, 47.665456128028964], [-65.68807271672536, 47.665499155788225], [-65.68805778203014, 47.665517939011465], [-65.68804821406252, 47.66553406158433], [-65.68802645001193, 47.66556403973732], [-65.68800894245847, 47.665576958649844], [-65.68798074976921, 47.66559205120091], [-65.68794460367614, 47.665604839411564], [-65.68790583638068, 47.665614910953835], [-65.68785123831526, 47.66561542749775], [-65.68780999494551, 47.66561333940149], [-65.68777547039548, 47.66560725099993], [-65.68773979423285, 47.66558946198137], [-65.6877121751441, 47.66556723233882], [-65.68769508223258, 47.66555317135204], [-65.68766767054812, 47.66551745177275], [-65.68762820789861, 47.665486144777574], [-65.68762299322113, 47.665478912793944], [-65.6875927185141, 47.665456214779866], [-65.68755984341433, 47.66542945110026], [-65.68753739766291, 47.66541715138703], [-65.68751239990294, 47.66539763836145], [-65.6874873053693, 47.66538442062925], [-65.68745707225848, 47.66535902459402], [-65.68741356750446, 47.66533083715099], [-65.68737006279686, 47.66530264969153], [-65.68734102280453, 47.66528625625179], [-65.68730133923196, 47.66526933839851], [-65.68725780697233, 47.66524294955341], [-65.6872154608329, 47.66522601298393], [-65.68718497204159, 47.66521725445265], [-65.68713848675921, 47.66520973277079], [-65.68709864421835, 47.665203157124594], [-65.68702149035546, 47.665198568102895], [-65.68697494976882, 47.66519464366905], [-65.68696429927117, 47.66519456889601], [-65.68693104413978, 47.665192536567346], [-65.6868977820923, 47.66519095389336], [-65.68685793267706, 47.66518482782862], [-65.68681810402927, 47.66517735275769], [-65.68678749769869, 47.66517623841285], [-65.68675036629025, 47.66516653369515], [-65.68671186206271, 47.665159517601005], [-65.68667609659394, 47.6651475738882], [-65.6866563068692, 47.66513574236814], [-65.68664579480081, 47.665126674282455], [-65.68663147567119, 47.665105437211636], [-65.68662765476618, 47.66509416755574], [-65.6866211920073, 47.665081530205875], [-65.68662166263745, 47.665050953041664], [-65.6866245536475, 47.6650361328248], [-65.68662727163162, 47.66503255421243], [-65.6866263625035, 47.66500511534646], [-65.68661325706269, 47.66499153191447], [-65.68661199496664, 47.66498702592184], [-65.6866107882397, 47.66497892261563], [-65.68660960919755, 47.664969020652684], [-65.68660315337925, 47.66495593363708], [-65.68659267596178, 47.66494461722515], [-65.68657951517365, 47.66493463110271], [-65.68656625748984, 47.66493094027747], [-65.68655437264276, 47.66492456081694], [-65.68653578974242, 47.6649208325826], [-65.68651453731258, 47.66491753530582], [-65.68649062227537, 47.66491421932098], [-65.68646799009, 47.66491406033291], [-65.68641462020277, 47.66492133051696], [-65.68637691442642, 47.66494894780655], [-65.68634566436597, 47.66498965211345], [-65.68633207435789, 47.665007545141464], [-65.686294105372, 47.66505224964091], [-65.68628198511755, 47.6650611587339], [-65.68626983716297, 47.66507186648219], [-65.68626045568345, 47.66507584797652], [-65.68624570049633, 47.66508293969947], [-65.68622820651828, 47.66509495901578], [-65.68619461909518, 47.665114510354584], [-65.68617718741845, 47.665122482685824], [-65.68615846597604, 47.66512774767368], [-65.68611695989489, 47.66514274621234], [-65.68607541223612, 47.665160442720676], [-65.68606200216357, 47.6651666444485], [-65.6860431491006, 47.665180453035724], [-65.68600549142928, 47.66520492255195], [-65.68594884900412, 47.6652517442448], [-65.68594611018241, 47.66525667183308], [-65.68590800214749, 47.6653103694821], [-65.6858957570782, 47.66532737248688], [-65.6858849264449, 47.66533898888048], [-65.68585118633167, 47.665368432726616], [-65.68582304856444, 47.665379927439425], [-65.68580703119724, 47.665382513104916], [-65.68578878767018, 47.665356751211945], [-65.68549638330255, 47.66494311783896], [-65.68542328292325, 47.66483970937312], [-65.68535103904686, 47.66486213654399], [-65.68524354977292, 47.6647093773947], [-65.68523963906694, 47.66470395332593], [-65.68523637321313, 47.66469988293261], [-65.68520381869797, 47.6646524340325], [-65.68512350086867, 47.664678244558104], [-65.68511656563479, 47.66468047310359], [-65.68497019094544, 47.66472751103657], [-65.68496831741646, 47.664728127448875], [-65.68496797879611, 47.664727637576895], [-65.68496096754026, 47.66472987367286], [-65.68469286624548, 47.66432954170175], [-65.68460690907526, 47.66420526543146], [-65.68459511603533, 47.664188215623064], [-65.68454751418867, 47.66411939364597], [-65.68452095230782, 47.66408098909316], [-65.68424646871915, 47.66412042949543], [-65.68373032505362, 47.66419450563034], [-65.68367895371459, 47.66420187948322], [-65.68347617704356, 47.664265023305816], [-65.68271755466459, 47.66450125053132], [-65.68270029732624, 47.66450662423138], [-65.6833943085172, 47.66482991693582], [-65.68337262935258, 47.66485019991807], [-65.6829983338774, 47.665200385762446], [-65.68284377902525, 47.66534500226451], [-65.68275529141057, 47.66542757472295], [-65.68203249920617, 47.666103336965946], [-65.68111243341369, 47.66696343118646], [-65.679406713431, 47.66846823804684], [-65.67754969024745, 47.67010595925442], [-65.67719730559126, 47.67041690569951], [-65.67685504275444, 47.67071892875202], [-65.67557372621887, 47.67184893564104], [-65.67437135106057, 47.67290888613117], [-65.67413437573376, 47.67311811144898], [-65.67368723267265, 47.6735250593632], [-65.67147187442828, 47.67253128852279], [-65.67140099721573, 47.672499481490505], [-65.67013804552906, 47.671932885622844], [-65.66659062111017, 47.67546908113848], [-65.664808249508, 47.67459089710547], [-65.66464168963103, 47.67450882956118], [-65.66403742412015, 47.67421109542195], [-65.66367482702367, 47.674032439632555], [-65.66246489680768, 47.673436304657045], [-65.66119686254972, 47.67281152193725], [-65.66108338586533, 47.672737305147905], [-65.66108217325298, 47.67281367462747], [-65.66108020863743, 47.67293740416967], [-65.66119966305467, 47.673138391404535], [-65.66132040852285, 47.67324971520269], [-65.66148140001326, 47.67340953942236], [-65.66162841515259, 47.673804012048414], [-65.66167200357305, 47.67394299004484], [-65.66174515680729, 47.67417622941889], [-65.6616780916809, 47.67470639086541], [-65.66167088240896, 47.674716427524366], [-65.66164536537038, 47.674751949063946], [-65.66153653421638, 47.674903449944026], [-65.66142069567783, 47.67512303315778], [-65.66138413210075, 47.6751923415696], [-65.66119182669456, 47.67562990299083], [-65.66109481416667, 47.67582886976988], [-65.66092958520777, 47.67625844563423], [-65.66088565955316, 47.67629405578536], [-65.66073882472301, 47.67641309463443], [-65.6605774443475, 47.67648684712187], [-65.66017193929126, 47.676674573608295], [-65.66017135836464, 47.676674842820724], [-65.66011472043009, 47.67670106315591], [-65.65938326480239, 47.676964234605464], [-65.65903417820272, 47.67722568129375], [-65.65898050875803, 47.67729256848076], [-65.65893493343798, 47.67750351213425], [-65.65905834806341, 47.67772130784898], [-65.65893535453817, 47.677811657685126], [-65.65870802436918, 47.677978649454765], [-65.65870559879625, 47.67798043068307], [-65.65867658606749, 47.67800174674068], [-65.65856680106872, 47.67808240550073], [-65.65848649466473, 47.67814927881266], [-65.65839352321659, 47.67821695946363], [-65.65830592820609, 47.67828153202831], [-65.65815595678237, 47.67818425683929], [-65.65812375807045, 47.67816337204057], [-65.65808645414809, 47.67813917622172], [-65.65799131719285, 47.67820899942725], [-65.65776826331434, 47.67837286076172], [-65.65776618264843, 47.678374389941546], [-65.65772319497452, 47.67840597089034], [-65.65767477258093, 47.67844153721846], [-65.65628090455034, 47.679297077821865], [-65.63853772688876, 47.691897532363996], [-65.63775864736759, 47.691361977276976], [-65.63731067661885, 47.691058954981564], [-65.63658061099252, 47.690541655199695], [-65.63611695311494, 47.6903108246712], [-65.63552049038526, 47.690014872488604], [-65.6352174503333, 47.68987598845047], [-65.63479369629378, 47.68968196692587], [-65.6345171582986, 47.68955182347267], [-65.6340062271727, 47.689304891246], [-65.63305083170384, 47.68884452616198], [-65.63265708949878, 47.68864901239367], [-65.63198573100286, 47.68830885888143], [-65.63153045251362, 47.68800018247546], [-65.63122597940772, 47.68785903565236], [-65.63092764543842, 47.687712034078494], [-65.63063569743613, 47.687559299402864], [-65.63035037694041, 47.68740095801768], [-65.63007191999999, 47.68723714095371], [-65.62964324645824, 47.687012662804726], [-65.6292281217669, 47.68674071996544], [-65.62880702360869, 47.68647299890175], [-65.62838004619708, 47.68620955945497], [-65.62794728505538, 47.685950460508465], [-65.62766183256899, 47.68588643079069], [-65.62740339734961, 47.685735090022156], [-65.6270817338149, 47.68554108923386], [-65.62652392360717, 47.685249878181075], [-65.62642484467813, 47.68520038224068], [-65.62620607796639, 47.685091161092515], [-65.62589081359312, 47.68497779354093], [-65.62582196066714, 47.684953079433136], [-65.6252721701391, 47.684749436683376], [-65.62522530632744, 47.6847320836609], [-65.62473851930838, 47.68454465405732], [-65.62452494087022, 47.68446029298391], [-65.62413163093525, 47.68431485083534], [-65.62343886064501, 47.684051565521116], [-65.62312603310703, 47.683952599576834], [-65.62272359165854, 47.6838281299835], [-65.6221510700092, 47.683639230513755], [-65.6210093370547, 47.683239322273614], [-65.62025225579211, 47.68295259428769], [-65.61946843241677, 47.68263264910779], [-65.61850840235509, 47.68220135800676], [-65.61698765443136, 47.68145206596667], [-65.61642951631873, 47.6811541615968], [-65.61617989514154, 47.6810209265943], [-65.61598707173466, 47.68091566136591], [-65.61570190723533, 47.68075734427327], [-65.61494506165262, 47.680325235657854], [-65.61457238450204, 47.680104366473856], [-65.614280000041, 47.67992440437999], [-65.61403079028152, 47.67976698761515], [-65.61381300536539, 47.67962591046762], [-65.61352584222163, 47.67944463722665], [-65.61326692627804, 47.67931826463257], [-65.61264386312651, 47.67899545568052], [-65.61134066191286, 47.678379340520706]]]]}}]}