{"type": "FeatureCollection", "features": [{"type": "Feature", "geometry": {"type": "Polygon", "coordinates": [[[-96.8888741897375, 50.126347262415], [-96.889955892511, 50.1268059385332], [-96.8902399509339, 50.1269263269411], [-96.8904933750268, 50.1270338348567], [-96.8909068281405, 50.1272091034974], [-96.8909683639545, 50.1272352274928], [-96.8914932188741, 50.1274577625696], [-96.8930091597031, 50.1281004526774], [-96.8934255121547, 50.12827702413], [-96.8939013490045, 50.1284787797695], [-96.8998083100142, 50.1309827710567], [-96.9030136482518, 50.1323413845699], [-96.9030201060582, 50.1323441097542], [-96.9048608813286, 50.1331241959199], [-96.9048788767451, 50.1331318965423], [-96.9052222282983, 50.1332773342987], [-96.9054606059256, 50.1333784209836], [-96.9091316581154, 50.1349339784836], [-96.9211603635868, 50.1400296505031], [-96.9294032267602, 50.1435202383456], [-96.9299959542675, 50.1437765594294], [-96.9473204994428, 50.1512659139545], [-96.9480334091171, 50.1515739979847], [-96.9664767321096, 50.1595414153553], [-96.9668337374756, 50.1596955855156], [-96.9662263636011, 50.1600865557166], [-96.9649748569982, 50.1608921499833], [-96.9643665063574, 50.16128373385], [-96.9633471486101, 50.1619397491774], [-96.9631446006829, 50.1620700389376], [-96.9624881344869, 50.1624926106004], [-96.9621347040596, 50.1627200932129], [-96.961534035159, 50.1627226814242], [-96.9615337557895, 50.1627457032508], [-96.9615245958804, 50.1636192089421], [-96.9615143723858, 50.1645966759014], [-96.9615028363908, 50.1656839463412], [-96.9614968764311, 50.1662485360369], [-96.9614930925453, 50.1666106007331], [-96.9605444197586, 50.1666124706692], [-96.9597360753862, 50.166614010362], [-96.9589277311288, 50.1666155444259], [-96.9564690891397, 50.1666201509549], [-96.9562804469536, 50.166620518586], [-96.9554436286493, 50.1666165800391], [-96.954365718136, 50.1666115363149], [-96.9510811724827, 50.1665959880717], [-96.9489838810802, 50.1665860339251], [-96.9474495562675, 50.1665787093714], [-96.9448415245338, 50.1665663066837], [-96.9433007620721, 50.1665589032652], [-96.9415061722696, 50.1665502177171], [-96.9408527655732, 50.1665470868219], [-96.9384277315668, 50.1665353565937], [-96.936121564459, 50.1665241595165], [-96.9345318065202, 50.1665163983629], [-96.932938127915, 50.1665086355754], [-96.9319796560507, 50.1665038910792], [-96.9303791190334, 50.1664960609333], [-96.9298927415276, 50.1664936867], [-96.9296111934679, 50.1664922645647], [-96.9280163990876, 50.1664844142751], [-96.9258341479742, 50.1664736048803], [-96.9248338140854, 50.1664686831574], [-96.9236035973046, 50.1664625203348], [-96.9227681908488, 50.1664583713599], [-96.9221068101454, 50.1664550821797], [-96.9179401541789, 50.1664340495366], [-96.9171914145996, 50.1664302451589], [-96.9168209647752, 50.1664283665148], [-96.9152788270508, 50.166420476336], [-96.9137431270106, 50.1664126813327], [-96.9111838652472, 50.166399588809], [-96.9104516509502, 50.1663957683829], [-96.9100292588746, 50.1663936528439], [-96.9096091095996, 50.1663914861976], [-96.907554982885, 50.1663809306216], [-96.9060120124214, 50.1663729022571], [-96.903956070225, 50.166362250218], [-96.9008750291672, 50.1663462557734], [-96.8988197916568, 50.1663355254527], [-96.8983871875066, 50.1663331827195], [-96.8929844991657, 50.1663047951677], [-96.8929776118783, 50.1663467662287], [-96.8929443349963, 50.1665493567141], [-96.8929235210801, 50.1666755369719], [-96.8928198615735, 50.167306625518], [-96.8927169841629, 50.1679326010398], [-96.8926188357346, 50.1685305982354], [-96.8924187870275, 50.1697480219127], [-96.892285657002, 50.1705583824109], [-96.8921823539368, 50.171187317813], [-96.8920815672509, 50.171800377833], [-96.8919832180428, 50.172399360023], [-96.8919296943427, 50.1727244524773], [-96.8918832070985, 50.1730073967417], [-96.8918699984578, 50.1730879308925], [-96.891784306036, 50.1736092470221], [-96.8917171280744, 50.1740185532724], [-96.8916165078904, 50.17463071623], [-96.8915129942384, 50.1752608162588], [-96.8913540234794, 50.1762278463311], [-96.8911255928878, 50.1776206009918], [-96.8845835618662, 50.1748658318338], [-96.8842912317725, 50.1747427626409], [-96.8832202434554, 50.174291758607], [-96.8817534289901, 50.1736739548747], [-96.8735620651869, 50.1702235526547], [-96.868910782783, 50.1682639170452], [-96.866499036754, 50.1672475458852], [-96.8660032261457, 50.1670386571688], [-96.8656150526348, 50.1668750105715], [-96.8650400730211, 50.1666328203014], [-96.8647820756752, 50.1665240048206], [-96.8642818828617, 50.1663132290697], [-96.8640799625059, 50.1662282006347], [-96.8629766509508, 50.165763099948], [-96.8605476947229, 50.1647394503874], [-96.8566248303761, 50.1630860686635], [-96.8562474806881, 50.1625341388653], [-96.8554958188789, 50.1616113093477], [-96.8537223421666, 50.159778185586], [-96.8529996191357, 50.1588930329481], [-96.8511280069374, 50.1572490837126], [-96.8507320751617, 50.1567730293441], [-96.8503987416215, 50.1560758856331], [-96.8502347903197, 50.1547631414906], [-96.8505270371151, 50.1533361359962], [-96.8508730246102, 50.1522954030867], [-96.8519394171436, 50.1509374861087], [-96.852606978864, 50.1503010108554], [-96.8541974413676, 50.1490583405534], [-96.8547913132212, 50.1486549935026], [-96.8559381537414, 50.148029901163], [-96.8579407551534, 50.147028208956], [-96.8626881581417, 50.1449663158855], [-96.8652630358604, 50.1436896956085], [-96.8675187772828, 50.1423042213361], [-96.868355596594, 50.1418596395044], [-96.8687348513761, 50.141524718752], [-96.8695311905482, 50.1411448469087], [-96.870832634864, 50.1399733606492], [-96.8710853732268, 50.1396399282993], [-96.8712858484354, 50.1390781224508], [-96.8712538711785, 50.1383847870577], [-96.8711453158087, 50.1381042976342], [-96.8708897959531, 50.1376891119085], [-96.8706088410627, 50.137408043153], [-96.8701861515743, 50.1370532305216], [-96.8691902025505, 50.136452349779], [-96.8677668792628, 50.1358795358983], [-96.8658677768404, 50.1353433629665], [-96.8638003891443, 50.1348415492806], [-96.8610272961514, 50.1342498628935], [-96.8595039433406, 50.133775324237], [-96.8584911545712, 50.1332596969239], [-96.8574499081816, 50.1325792486343], [-96.8567799152185, 50.1320514624584], [-96.8562997522487, 50.1315763734238], [-96.8560188279343, 50.1311794065919], [-96.8556823811899, 50.1304614740417], [-96.8556072720448, 50.1296865038733], [-96.8558409198655, 50.1286420442536], [-96.8559781985401, 50.1283816875547], [-96.8564647929586, 50.1275954765795], [-96.85749021775, 50.1265668079892], [-96.8582597717886, 50.1260696501873], [-96.8586149229989, 50.1259202955247], [-96.8595789508635, 50.1255818312903], [-96.8608403934506, 50.1252468257292], [-96.8630323958299, 50.1249404611506], [-96.8657204279639, 50.1248595634469], [-96.8687486618604, 50.125043087747], [-96.8717089041746, 50.1254059319778], [-96.8787622411246, 50.1266935726283], [-96.8802286751058, 50.1268715721758], [-96.8825455360341, 50.127118511254], [-96.8840147057091, 50.1271594648228], [-96.8856208492599, 50.1270798026867], [-96.8875371758026, 50.1268005594379], [-96.8886225115544, 50.1264663058419], [-96.8888741897375, 50.126347262415]]]}, "properties": {"district_id": "Selkirk", "muni_name": "CITY OF SELKIRK"}}]}