{
"type": "FeatureCollection",
"name": "wards",
"crs": { "type": "name", "properties": { "name": "urn:ogc:def:crs:OGC:1.3:CRS84" } },
"features": [
{ "type": "Feature", "properties": { "OBJECTID": 1, "WARD_DESC": "North Ward", "COUNCILOR": "Steve Lee", "WARD_TEXT": "01", "PHONE_NO": "905-430-4300 x2203", "PREFIX": "010-", "WARD": 1, "MOBILE": "905-706-0214", "EMAIL": "lees@whitby.ca", "IMAGE": "https://whitby.maps.arcgis.com/sharing/rest/content/items/7a739a79059147cfa96b4b323b1ddd80/data", "WEBSITE": "https://whitby.ca/council", "REGIONAL_COUNCILLOR": "Rhonda Mulcahy", "RC_PHONE_NO": "905-430-4300 x2203", "RC_MOBILE": "905-706-0482", "RC_EMAIL": "mulcahyr@whitby.ca", "RC_IMAGE": "https://whitby.maps.arcgis.com/sharing/rest/content/items/4fe2752d0620479f93835dec5e665a66/data", "RC_WEBSITE": "https://whitby.ca/council", "EMAIL_MAILTO": "mailto:lees@whitby.ca", "RC_EMAIL_MAILTO": "mailto:mulcahyr@whitby.ca" }, "geometry": { "type": "Polygon", "coordinates": [ [ [ -78.947835176459606, 43.91747684886424 ], [ -78.95751787600814, 43.915346789932144 ], [ -79.001309253223923, 43.905037720411855 ], [ -79.002322745646026, 43.907538632436612 ], [ -79.003130223335759, 43.909566446498566 ], [ -79.003674880467855, 43.910937950482463 ], [ -79.003964267773028, 43.911660835240482 ], [ -79.005210439385152, 43.91479570730835 ], [ -79.005808547148504, 43.916290919596726 ], [ -79.006382807741474, 43.91772091548895 ], [ -79.006728069556189, 43.918570012585 ], [ -79.006868645684847, 43.918899265560384 ], [ -79.007152604494422, 43.91955215225709 ], [ -79.007510449551788, 43.920340448313318 ], [ -79.008245585068536, 43.921883372661448 ], [ -79.008678163623614, 43.922782530514276 ], [ -79.010178988546016, 43.925897225922775 ], [ -79.011240156282184, 43.92809185235874 ], [ -79.012083498286273, 43.929844425818182 ], [ -79.013147351106056, 43.932040969021735 ], [ -79.014480052173838, 43.934801323543503 ], [ -79.014942151914425, 43.935761418112641 ], [ -79.015166047276921, 43.936260229467052 ], [ -79.015907744707491, 43.937931668541552 ], [ -79.01648715046683, 43.939296153170986 ], [ -79.016910031010269, 43.940279733169909 ], [ -79.017021357221054, 43.940448280037813 ], [ -79.017696685110494, 43.941991379583023 ], [ -79.018242977643254, 43.943257662400093 ], [ -79.019582547092469, 43.946297645619083 ], [ -79.020664745758481, 43.948745670602449 ], [ -79.022880209957137, 43.953765355787674 ], [ -79.02401026139853, 43.956276511546697 ], [ -79.025168822928819, 43.958847416492119 ], [ -79.02711392940995, 43.963187962465597 ], [ -79.028858804200254, 43.967066935470569 ], [ -79.030670636579984, 43.97110287602716 ], [ -79.032693927683951, 43.975574538341952 ], [ -79.034529445957418, 43.979700548297053 ], [ -79.036863411402351, 43.984982662793236 ], [ -79.039061290774313, 43.989974037996909 ], [ -79.042370984048446, 43.997685221278886 ], [ -79.047311513725106, 44.009250742711579 ], [ -79.032559640603424, 44.012523653099471 ], [ -79.025621213403539, 44.014094606933085 ], [ -79.003071816917071, 44.019054308504636 ], [ -78.995776740172687, 44.020722682300345 ], [ -78.983291468432483, 44.023471079489951 ], [ -78.9805920311438, 44.024067296357813 ], [ -78.978133333515302, 44.024618976535635 ], [ -78.97440430024561, 44.025403671009698 ], [ -78.973306840952844, 44.025527270092276 ], [ -78.972265201880674, 44.025710410529975 ], [ -78.971860537381772, 44.025785924858134 ], [ -78.971557197128391, 44.025877637178262 ], [ -78.97123112235623, 44.026016924170889 ], [ -78.970867050444923, 44.026160998342789 ], [ -78.970579685219235, 44.026237164127721 ], [ -78.970191324044336, 44.02632089679453 ], [ -78.963515114312088, 44.027836159356873 ], [ -78.958570423336539, 44.02887045223153 ], [ -78.958525317929016, 44.028780077046044 ], [ -78.956113459807895, 44.023356055221164 ], [ -78.955997032522987, 44.023091903557471 ], [ -78.953362811697318, 44.01713288317287 ], [ -78.953013040503379, 44.016343142441805 ], [ -78.952606705288687, 44.015535679203857 ], [ -78.952267623338571, 44.014679942723582 ], [ -78.952045700721726, 44.014221916470895 ], [ -78.951929357495047, 44.013736567423763 ], [ -78.951526369476269, 44.012907330722271 ], [ -78.951274260599106, 44.012232963549671 ], [ -78.943428831959636, 43.99412361806997 ], [ -78.941592704654937, 43.98990602480329 ], [ -78.94071636949073, 43.98789287251239 ], [ -78.940304639851789, 43.986929372753501 ], [ -78.93960611120967, 43.985298731772467 ], [ -78.938874483595242, 43.983614778924093 ], [ -78.935972799987852, 43.976935163636405 ], [ -78.935801256954065, 43.976736033127807 ], [ -78.935456898930326, 43.975951569398646 ], [ -78.934939499525498, 43.974775692971306 ], [ -78.932331993765246, 43.968849803632502 ], [ -78.931719598088932, 43.967476009847296 ], [ -78.93074568014022, 43.965261259708043 ], [ -78.928860934557093, 43.960975337496976 ], [ -78.928631260559484, 43.960707362686868 ], [ -78.927741281942204, 43.95867748203797 ], [ -78.927013320852367, 43.957025758342049 ], [ -78.926164165485574, 43.955100884894904 ], [ -78.92608704214058, 43.954900689535179 ], [ -78.925619143062434, 43.953826575108579 ], [ -78.924689681027417, 43.951755015250882 ], [ -78.924347899646477, 43.950981609351871 ], [ -78.923977581505554, 43.950115429813167 ], [ -78.923601547494926, 43.949250643224296 ], [ -78.923192880341475, 43.948312806460578 ], [ -78.921843853032286, 43.945225314984 ], [ -78.920730630488308, 43.942691539012102 ], [ -78.920778919164277, 43.942682238839609 ], [ -78.92067831127585, 43.942440567408752 ], [ -78.920412090794471, 43.941839702748339 ], [ -78.92011549669914, 43.94117026293992 ], [ -78.91950978007948, 43.939802678554088 ], [ -78.919083298840548, 43.938834828093356 ], [ -78.917949282649303, 43.93634949367366 ], [ -78.916835392178811, 43.933905821760582 ], [ -78.916776950812746, 43.933793807187079 ], [ -78.916197088552721, 43.932467522901213 ], [ -78.915904731112335, 43.931814400632263 ], [ -78.915464085617899, 43.930897587497824 ], [ -78.915427239103025, 43.930819023132855 ], [ -78.915345794393247, 43.93064536852313 ], [ -78.915112050140408, 43.929971393250995 ], [ -78.915083140173579, 43.9299078751407 ], [ -78.914367740585021, 43.928335983732943 ], [ -78.91422085591735, 43.928007946037631 ], [ -78.913373149043011, 43.926105423976864 ], [ -78.913051822642714, 43.925383529712292 ], [ -78.913320884567341, 43.925323126694252 ], [ -78.913534721976006, 43.925275121236432 ], [ -78.913489871828702, 43.92516320186315 ], [ -78.937561292064075, 43.919663348609248 ], [ -78.947835176459606, 43.91747684886424 ] ] ] } },
{ "type": "Feature", "properties": { "OBJECTID": 2, "WARD_DESC": "East Ward", "COUNCILOR": "Victoria Bozinovski", "WARD_TEXT": "04", "PHONE_NO": "905-430-4300 x2203", "PREFIX": "040-", "WARD": 4, "MOBILE": "289-387-9108", "EMAIL": "bozinovskiv@whitby.ca", "IMAGE": "https://whitby.maps.arcgis.com/sharing/rest/content/items/692c188a043e4f0f945fa3acb1312803/data", "WEBSITE": "https://whitby.ca/council", "REGIONAL_COUNCILLOR": "Maleeha Shahid", "RC_PHONE_NO": "905-430-4300 x2203", "RC_MOBILE": "905-706-0514", "RC_EMAIL": "shahidm@whitby.ca", "RC_IMAGE": "https://whitby.maps.arcgis.com/sharing/rest/content/items/73f215f6f1454a60813f5d46cde2b76f/data", "RC_WEBSITE": "https://whitby.ca/council", "EMAIL_MAILTO": "mailto:bozinovskiv@whitby.ca", "RC_EMAIL_MAILTO": "mailto:shahidm@whitby.ca" }, "geometry": { "type": "Polygon", "coordinates": [ [ [ -78.947835176459606, 43.91747684886424 ], [ -78.937561292064075, 43.919663348609248 ], [ -78.913489871828702, 43.92516320186315 ], [ -78.913404598629612, 43.924959647552363 ], [ -78.913018594211707, 43.924084695930731 ], [ -78.91290510117588, 43.923827432632365 ], [ -78.912795555318084, 43.923579107885907 ], [ -78.91266050533099, 43.923272996825041 ], [ -78.9125912817521, 43.923116078342289 ], [ -78.912421633123927, 43.922731505708185 ], [ -78.912126589244011, 43.922062683116373 ], [ -78.9120637664101, 43.92192027412252 ], [ -78.912088483454554, 43.921913895958177 ], [ -78.912011590256128, 43.921749239831101 ], [ -78.911963817823789, 43.921646942340296 ], [ -78.911916044336067, 43.921544643908511 ], [ -78.911772723670268, 43.921237745780317 ], [ -78.911582138296126, 43.920828426731426 ], [ -78.911446506130204, 43.920518612985177 ], [ -78.911226396949075, 43.920013893616591 ], [ -78.910915390015944, 43.919298582881886 ], [ -78.910818797911418, 43.919074803097629 ], [ -78.910625022053495, 43.918625880130456 ], [ -78.910524878691319, 43.918393876232962 ], [ -78.910411747402875, 43.918131780252025 ], [ -78.910296892170166, 43.917902833757985 ], [ -78.910284147043001, 43.917877421664031 ], [ -78.910208629182847, 43.91772715883188 ], [ -78.910151253163207, 43.917612991201302 ], [ -78.910093872282516, 43.91749882615229 ], [ -78.91004217709434, 43.917395946434169 ], [ -78.909991169316356, 43.917294462192324 ], [ -78.909940170387756, 43.917192978988645 ], [ -78.909889167892786, 43.917091495695587 ], [ -78.909838169299789, 43.916990012449837 ], [ -78.909787172119323, 43.916888529205842 ], [ -78.909721718970616, 43.916758294617779 ], [ -78.909697037966438, 43.91670917864262 ], [ -78.909656271077111, 43.916628060086197 ], [ -78.909591239239262, 43.916498649738159 ], [ -78.909526207264591, 43.916369251052849 ], [ -78.909191998130254, 43.915628527985405 ], [ -78.909091622146889, 43.915406050389613 ], [ -78.908603187946809, 43.914323481576702 ], [ -78.908556956283363, 43.914221005494653 ], [ -78.908545270727757, 43.914195111105514 ], [ -78.908487352472349, 43.914066741484127 ], [ -78.908420905681865, 43.913919459759725 ], [ -78.908354157368649, 43.913771515223431 ], [ -78.908252313632872, 43.913545778634465 ], [ -78.908168686205642, 43.91336042272377 ], [ -78.907920811759269, 43.912811010988818 ], [ -78.907783175146093, 43.912505926759991 ], [ -78.90759503083882, 43.91208888075947 ], [ -78.907494348879183, 43.911860180095545 ], [ -78.907427511295083, 43.911705528500988 ], [ -78.907388794844849, 43.911618143357153 ], [ -78.907285852896621, 43.911385743905171 ], [ -78.907274663403641, 43.911360472497606 ], [ -78.907221375066726, 43.911240188345715 ], [ -78.907210990607439, 43.91121675127085 ], [ -78.90716542316359, 43.911113896905626 ], [ -78.907118852123702, 43.911008767876893 ], [ -78.907074297094127, 43.910908198181801 ], [ -78.907028871751308, 43.910805317550711 ], [ -78.906938240220214, 43.910599499022787 ], [ -78.906892948611002, 43.910496582069349 ], [ -78.906847656931106, 43.910393671397649 ], [ -78.90681887782857, 43.910328269914942 ], [ -78.906802365622184, 43.910290754410987 ], [ -78.906757067988138, 43.910187844491809 ], [ -78.906711776853314, 43.910084931071019 ], [ -78.906662235816057, 43.909972345705746 ], [ -78.906621193821096, 43.909879103257005 ], [ -78.906575898158437, 43.909776189695144 ], [ -78.906556924113261, 43.909733064023044 ], [ -78.906530607624191, 43.909673276207926 ], [ -78.906118905482856, 43.908747995511199 ], [ -78.906072995011343, 43.908645224422692 ], [ -78.906027088299297, 43.908542456984634 ], [ -78.905981178258187, 43.908439682262951 ], [ -78.905918548532767, 43.908299483512401 ], [ -78.905866458368877, 43.908182858926928 ], [ -78.905840882069199, 43.908125616271882 ], [ -78.905689040127058, 43.907785684065502 ], [ -78.905860424721638, 43.907745302874616 ], [ -78.905970852538019, 43.907719279016547 ], [ -78.905839672262786, 43.907429680335866 ], [ -78.905708637051376, 43.907126572723314 ], [ -78.905623021034174, 43.90692850151688 ], [ -78.905543871651886, 43.906745362141031 ], [ -78.905488265853421, 43.906616692945036 ], [ -78.905432669957079, 43.90648803200444 ], [ -78.90536964103012, 43.906342193056503 ], [ -78.905306488867467, 43.906195580217961 ], [ -78.90525101740289, 43.906066659464152 ], [ -78.905195552548648, 43.905937734300721 ], [ -78.905140086553686, 43.905808812688619 ], [ -78.905084495456805, 43.905679913962544 ], [ -78.9050286471048, 43.905551078014582 ], [ -78.904972801568022, 43.90542223938774 ], [ -78.904916955018322, 43.905293400712807 ], [ -78.904861266766204, 43.905164528898247 ], [ -78.90480565034261, 43.905035639464693 ], [ -78.904649095578051, 43.904672858639216 ], [ -78.904583555134124, 43.904520980473322 ], [ -78.904518015010439, 43.904369102272661 ], [ -78.904452369401241, 43.904216974501999 ], [ -78.904388902814446, 43.904069898873061 ], [ -78.904356347916305, 43.903998947059272 ], [ -78.904293641062083, 43.903862276161746 ], [ -78.904226733381321, 43.903716441897068 ], [ -78.904107868037215, 43.903457376150186 ], [ -78.903976851118372, 43.903171820702298 ], [ -78.90385529541777, 43.902898005415999 ], [ -78.903764852042897, 43.902689970063776 ], [ -78.903690249970595, 43.902518354304163 ], [ -78.903609911747225, 43.902333575548674 ], [ -78.903524757244853, 43.90213770344841 ], [ -78.903416057384888, 43.901887647761328 ], [ -78.903302292974047, 43.901625958407578 ], [ -78.903228348440194, 43.901455866967403 ], [ -78.90318853060765, 43.901364273470733 ], [ -78.903157766199271, 43.901293509917238 ], [ -78.903076585205454, 43.901106757941108 ], [ -78.902970718417805, 43.900863214664078 ], [ -78.902874635128711, 43.900643376856792 ], [ -78.902692539912266, 43.900239095606182 ], [ -78.902266289480636, 43.89927835184664 ], [ -78.902174365595258, 43.89906657673307 ], [ -78.902119061855259, 43.898939165491733 ], [ -78.902070993556933, 43.89882842190967 ], [ -78.902023740896155, 43.898719559697469 ], [ -78.901992656815409, 43.898647940010363 ], [ -78.901961053884833, 43.898575142138974 ], [ -78.901930170278249, 43.898503987091338 ], [ -78.901898589713838, 43.898431230127535 ], [ -78.90186769012567, 43.898360037854019 ], [ -78.901773271013454, 43.898142527291391 ], [ -78.901742572450303, 43.898072177793644 ], [ -78.90171173507575, 43.898002130953373 ], [ -78.901679298507659, 43.897928448853101 ], [ -78.90160214409957, 43.897745069471966 ], [ -78.901536410123512, 43.897588840808055 ], [ -78.901470673155387, 43.89743260034367 ], [ -78.901453908412606, 43.897392751075799 ], [ -78.90140494158922, 43.897276357236414 ], [ -78.901379815605509, 43.897216641328093 ], [ -78.901339205122824, 43.897120121200835 ], [ -78.901305719453035, 43.8970405323671 ], [ -78.901230913496249, 43.896864650703655 ], [ -78.901183584483206, 43.896759887775879 ], [ -78.901154681800037, 43.896695905919962 ], [ -78.90115313358767, 43.896692484979098 ], [ -78.901001381154416, 43.896356554199492 ], [ -78.90085724653423, 43.896037486173405 ], [ -78.900737126579571, 43.895782589201254 ], [ -78.900383660147895, 43.89498269471256 ], [ -78.899352649560512, 43.892652455155549 ], [ -78.898775360637174, 43.891346540522619 ], [ -78.898402053883231, 43.890503854760055 ], [ -78.898196909650636, 43.890040761627169 ], [ -78.898174630163226, 43.889990471715336 ], [ -78.898248955287826, 43.889963431661535 ], [ -78.898110528598096, 43.889629123064083 ], [ -78.897783209911452, 43.888914021857168 ], [ -78.897762057473145, 43.888867810450662 ], [ -78.897696284819745, 43.888724115974703 ], [ -78.897636546329778, 43.888593944045795 ], [ -78.897577088156453, 43.888463702514315 ], [ -78.897517205606249, 43.8883335701832 ], [ -78.897457319670025, 43.888203435055139 ], [ -78.897351391787851, 43.887973237137338 ], [ -78.897237230409203, 43.887725154365022 ], [ -78.897186575148396, 43.887736862688485 ], [ -78.897016229442073, 43.887292607434645 ], [ -78.896949427585753, 43.887118371876426 ], [ -78.896631527252097, 43.88654382314725 ], [ -78.896615067691911, 43.886509337581906 ], [ -78.896188773728383, 43.885616354653045 ], [ -78.896139269724557, 43.88551264694226 ], [ -78.896089758897489, 43.885408925577785 ], [ -78.896040193314434, 43.885305102343303 ], [ -78.895995789351986, 43.885200174901755 ], [ -78.89595284532993, 43.885094941205992 ], [ -78.895904527778981, 43.884976547210634 ], [ -78.895856210252958, 43.884858157695135 ], [ -78.895807894122626, 43.884739769083417 ], [ -78.895756700889379, 43.884614323667108 ], [ -78.89570132618212, 43.884493233591229 ], [ -78.895653684200141, 43.884389051262417 ], [ -78.895606047227517, 43.884284872605988 ], [ -78.895558410636696, 43.884180687632892 ], [ -78.89551077270832, 43.88407650981663 ], [ -78.895463126390226, 43.883972327322773 ], [ -78.895415490184291, 43.883868144993961 ], [ -78.895320213117841, 43.883659784688447 ], [ -78.895272572510876, 43.883555599513663 ], [ -78.895224936944857, 43.883451417111509 ], [ -78.895177301633893, 43.883347231991735 ], [ -78.895129666261042, 43.883243053151986 ], [ -78.895034387635874, 43.883034685359597 ], [ -78.89496292734971, 43.882878414612158 ], [ -78.894857695228879, 43.882642625098001 ], [ -78.894822907676698, 43.88256468756191 ], [ -78.894424615048123, 43.881678464741611 ], [ -78.894354381916244, 43.881522181092791 ], [ -78.894220130669382, 43.881223459393681 ], [ -78.894182619657741, 43.881139982937128 ], [ -78.894006412157339, 43.880750220679317 ], [ -78.893383285234577, 43.879373680987875 ], [ -78.891736894062419, 43.875800175039529 ], [ -78.891199333663209, 43.87462907882778 ], [ -78.891152047459613, 43.874526069704842 ], [ -78.890655583481461, 43.873444456752679 ], [ -78.890499480160244, 43.873104354790264 ], [ -78.890101317360134, 43.872204296084988 ], [ -78.889879139035088, 43.871681706912405 ], [ -78.889195628963847, 43.870073987853594 ], [ -78.889001709267859, 43.869617830682998 ], [ -78.888670940163664, 43.868822837308521 ], [ -78.888575882783257, 43.868594357682703 ], [ -78.888243768786396, 43.867796100457767 ], [ -78.88753393061252, 43.86609849835056 ], [ -78.883176789137693, 43.855795695429045 ], [ -78.882500877016994, 43.854191637340634 ], [ -78.881771394152778, 43.85246007533982 ], [ -78.881991557868133, 43.852518507271519 ], [ -78.882250066127085, 43.852523452269551 ], [ -78.882617021647832, 43.852603613372821 ], [ -78.88297307639543, 43.852738063082199 ], [ -78.883347661160286, 43.85278021005 ], [ -78.883715165123249, 43.852857650629915 ], [ -78.884082119912264, 43.852937805210153 ], [ -78.884454529864243, 43.852990809685011 ], [ -78.884829662374386, 43.853030242881843 ], [ -78.885212968602801, 43.853028953035839 ], [ -78.885590827550388, 43.853054808328473 ], [ -78.885963234779496, 43.853107807831883 ], [ -78.886335647591579, 43.85316080892499 ], [ -78.886708056230432, 43.853213806025153 ], [ -78.887082108092528, 43.853258659839319 ], [ -78.887458331974841, 43.853292652974204 ], [ -78.887764526344796, 43.853316449131164 ], [ -78.888353945419667, 43.853334687064965 ], [ -78.889107041059205, 43.853267762915252 ], [ -78.889855241706712, 43.853179180914395 ], [ -78.890597311774584, 43.853063523449492 ], [ -78.891342440237892, 43.852961403035685 ], [ -78.891552072912219, 43.852926372998667 ], [ -78.891742572685658, 43.852924305071319 ], [ -78.891798187558209, 43.852915303403414 ], [ -78.891921593165762, 43.852862726199398 ], [ -78.892084508969532, 43.852845731361249 ], [ -78.892616580820018, 43.852738834444189 ], [ -78.892790071892378, 43.852680471783707 ], [ -78.892872915686638, 43.852874409944491 ], [ -78.89298436279482, 43.852834468884012 ], [ -78.893178837843095, 43.852764773742201 ], [ -78.893335100423045, 43.852708775537948 ], [ -78.893383714324415, 43.85269135266941 ], [ -78.89349136287494, 43.852652772614704 ], [ -78.893620448796284, 43.852606514327064 ], [ -78.893803840059377, 43.852540789553061 ], [ -78.893988626980331, 43.852474567111145 ], [ -78.894132370668018, 43.852423121461534 ], [ -78.894477993020772, 43.852299425398961 ], [ -78.894823275299046, 43.852175841764264 ], [ -78.894995448949572, 43.852114220108241 ], [ -78.895253699944035, 43.852021790561729 ], [ -78.895684262298033, 43.851867687144889 ], [ -78.89584720566819, 43.851784292984263 ], [ -78.896010137018479, 43.85170090917201 ], [ -78.896173052777186, 43.85161753114064 ], [ -78.896335983227715, 43.851534146843079 ], [ -78.896498923554788, 43.851450751688773 ], [ -78.896661863273707, 43.851367360790611 ], [ -78.896824782332871, 43.851283978281145 ], [ -78.896987700784024, 43.851200600027873 ], [ -78.897150634211499, 43.851117207410354 ], [ -78.897313577135719, 43.851033814733249 ], [ -78.897583131041941, 43.850893466069465 ], [ -78.897533030693154, 43.850774771069489 ], [ -78.897451399963714, 43.850580936868447 ], [ -78.897386134809551, 43.850425975708774 ], [ -78.897691870033057, 43.850215949336508 ], [ -78.897786911356434, 43.850162837432592 ], [ -78.897915788109145, 43.850123203280361 ], [ -78.898053732743477, 43.850080781791213 ], [ -78.898231552612771, 43.849811289181027 ], [ -78.898349468782229, 43.849741201125177 ], [ -78.898974783192145, 43.84927787225115 ], [ -78.900112434968307, 43.848323055893047 ], [ -78.900297777362908, 43.848155920367148 ], [ -78.900518519729275, 43.847898216214979 ], [ -78.900635736431099, 43.84757880783333 ], [ -78.900629424976671, 43.8473749138481 ], [ -78.900726565300076, 43.847099203106559 ], [ -78.900730525690534, 43.846878821596718 ], [ -78.900467985379834, 43.846644827760443 ], [ -78.900608902475938, 43.846312901603838 ], [ -78.900705338349155, 43.846182452074181 ], [ -78.900781970824056, 43.846204023692636 ], [ -78.90091366599566, 43.84610233085823 ], [ -78.901293583921586, 43.845888370912036 ], [ -78.901403167216557, 43.845825484208881 ], [ -78.901810359593796, 43.845584912245663 ], [ -78.902170662107906, 43.845444274623404 ], [ -78.902681549416627, 43.845722856792619 ], [ -78.903284718841547, 43.845887560677234 ], [ -78.903978203437475, 43.845960119194999 ], [ -78.90436168805283, 43.846039244233609 ], [ -78.904913658116357, 43.846130864175549 ], [ -78.905415418053494, 43.846183849634201 ], [ -78.90580309127246, 43.84617762591003 ], [ -78.905908112707436, 43.846175721100018 ], [ -78.905908112675945, 43.846175721999778 ], [ -78.905908113887705, 43.846175722922347 ], [ -78.905909310219144, 43.846175699835733 ], [ -78.905909315994478, 43.846175712546504 ], [ -78.930216681577733, 43.901991939835348 ], [ -78.940110560488549, 43.899762953529539 ], [ -78.947835176459606, 43.91747684886424 ] ] ] } },
{ "type": "Feature", "properties": { "OBJECTID": 3, "WARD_DESC": "West Ward", "COUNCILOR": "Matt Cardwell", "WARD_TEXT": "02", "PHONE_NO": "905-430-4300 x2203", "PREFIX": "020-", "WARD": 2, "MOBILE": "289-387-9106", "EMAIL": "cardwellm@whitby.ca", "IMAGE": "https://whitby.maps.arcgis.com/sharing/rest/content/items/891d4615efbe483983e6f3661b8cc36e/data", "WEBSITE": "https://whitby.ca/council", "REGIONAL_COUNCILLOR": "Chris Leahy", "RC_PHONE_NO": "905-430-4300 x2203", "RC_MOBILE": "905-706-0720", "RC_EMAIL": "leahyc@whitby.ca", "RC_IMAGE": "https://whitby.maps.arcgis.com/sharing/rest/content/items/247277b195c34382a37b80e52c353085/data", "RC_WEBSITE": "https://whitby.ca/council", "EMAIL_MAILTO": "mailto:cardwellm@whitby.ca", "RC_EMAIL_MAILTO": "mailto:leahyc@whitby.ca" }, "geometry": { "type": "Polygon", "coordinates": [ [ [ -79.001309253223923, 43.905037720411855 ], [ -78.95751787600814, 43.915346789932144 ], [ -78.947835176459606, 43.91747684886424 ], [ -78.940110560488549, 43.899762953529539 ], [ -78.95961178904507, 43.895405399550746 ], [ -78.95214030853127, 43.878438838415612 ], [ -78.951981795187749, 43.877670470322023 ], [ -78.939410139315214, 43.848440734099761 ], [ -78.939510426042546, 43.848337471233201 ], [ -78.939544024986489, 43.848308791559695 ], [ -78.939611185765358, 43.848228266389668 ], [ -78.939684404178138, 43.848152462930685 ], [ -78.939776720925693, 43.848072594847814 ], [ -78.939862042882893, 43.848006248959713 ], [ -78.939927780953468, 43.84795311002015 ], [ -78.93997418334537, 43.847908609657871 ], [ -78.940035998454348, 43.84784940537515 ], [ -78.940059739060274, 43.847837701255898 ], [ -78.940131531975908, 43.847789287479998 ], [ -78.940203084110891, 43.847745443098823 ], [ -78.940268351802303, 43.847701433138781 ], [ -78.940333848738334, 43.847652857093578 ], [ -78.94038749205275, 43.847590258612748 ], [ -78.94046165429431, 43.847496199942128 ], [ -78.940535103524581, 43.84741583710916 ], [ -78.94061674692253, 43.847299121726024 ], [ -78.940709062460982, 43.847219249251395 ], [ -78.940750123765241, 43.847156325641151 ], [ -78.940828912218507, 43.847094382802787 ], [ -78.940901414900068, 43.847032277087678 ], [ -78.940979730906747, 43.846979462388688 ], [ -78.941089254158996, 43.846932028783591 ], [ -78.94114846880484, 43.846883294015846 ], [ -78.94124541569181, 43.846835531854957 ], [ -78.941311151330638, 43.846782389360257 ], [ -78.941453304957989, 43.846712950043766 ], [ -78.94153233750508, 43.846646440930648 ], [ -78.941653481595296, 43.84661759594821 ], [ -78.941749721424401, 43.846583528459362 ], [ -78.941807033600611, 43.846571304314615 ], [ -78.941856869657656, 43.846581737830739 ], [ -78.941881554794236, 43.846591519215856 ], [ -78.941938626553267, 43.846583860855162 ], [ -78.942022049712236, 43.846554032471559 ], [ -78.942080308137932, 43.84652355351313 ], [ -78.942138331309934, 43.846497634166063 ], [ -78.942228039839051, 43.84646796747689 ], [ -78.942305168473339, 43.846437975078615 ], [ -78.942421453407817, 43.846381573841931 ], [ -78.942524213240276, 43.846343106073654 ], [ -78.942588760480717, 43.846312789640834 ], [ -78.942691049479407, 43.846283450004165 ], [ -78.942774702278342, 43.846249054121181 ], [ -78.942909851551008, 43.84619314516587 ], [ -78.94303195166323, 43.846146034302755 ], [ -78.943096979058481, 43.846106585862543 ], [ -78.943174816277491, 43.846062902288566 ], [ -78.943271049410768, 43.846028833390662 ], [ -78.943317206409318, 43.845988893812567 ], [ -78.943420674578917, 43.845936730140011 ], [ -78.943497801919492, 43.84590673780837 ], [ -78.943549298092265, 43.845885221800934 ], [ -78.943581218320773, 43.845876910858721 ], [ -78.94362013483358, 43.8458550666234 ], [ -78.943677686221903, 43.84583827566 ], [ -78.943773207991654, 43.845817901377536 ], [ -78.943848913714177, 43.845815295309436 ], [ -78.943930194297295, 43.845826545096045 ], [ -78.943998899006729, 43.845837467644976 ], [ -78.944091814806967, 43.845867300192964 ], [ -78.944165854141559, 43.845896648898758 ], [ -78.944245719969885, 43.845935285991182 ], [ -78.944324869113018, 43.845987617076432 ], [ -78.944423355340817, 43.846031305159812 ], [ -78.944490640493129, 43.84606961756073 ], [ -78.944575605237659, 43.846131239398417 ], [ -78.944650126891617, 43.846151452502149 ], [ -78.94475538301991, 43.846186178462517 ], [ -78.944861818827349, 43.846198080039635 ], [ -78.94496220545345, 43.846205256595056 ], [ -78.945025096886937, 43.846206884063946 ], [ -78.94508193274828, 43.846203790068486 ], [ -78.945157403879435, 43.846205745494196 ], [ -78.945440649345102, 43.846208519930698 ], [ -78.94585785612685, 43.846178202659225 ], [ -78.946060288907262, 43.846160597893366 ], [ -78.946167910245322, 43.846149674058502 ], [ -78.94623175042922, 43.84613304709405 ], [ -78.946327506879996, 43.846108107411808 ], [ -78.946396923747841, 43.846105334374677 ], [ -78.946468550165392, 43.846105565871525 ], [ -78.946535279800443, 43.846108921752752 ], [ -78.946629389632918, 43.846106837343633 ], [ -78.946722421234213, 43.846097491952087 ], [ -78.946783478671577, 43.846082412784241 ], [ -78.946879998290953, 43.84605654098597 ], [ -78.946986093828059, 43.846018504591463 ], [ -78.947115064429852, 43.845933263208543 ], [ -78.94719961330928, 43.845907035560209 ], [ -78.947237302790256, 43.845893179364914 ], [ -78.947356749369149, 43.845869958323128 ], [ -78.947438484755153, 43.845856003950203 ], [ -78.947557904532019, 43.845828192225376 ], [ -78.947708857190406, 43.845814077607407 ], [ -78.947897497716809, 43.845786109047843 ], [ -78.948079844127463, 43.845758151367988 ], [ -78.948268419017182, 43.845716413744434 ], [ -78.948421605184734, 43.84569465289961 ], [ -78.948717205369235, 43.845701963669001 ], [ -78.948898530128403, 43.845748575035586 ], [ -78.949172847021131, 43.845779280756524 ], [ -78.949450751487234, 43.845768037124621 ], [ -78.949608292095007, 43.845748400248915 ], [ -78.949737996298055, 43.845737689335465 ], [ -78.949980387740737, 43.845724537533208 ], [ -78.950146696509151, 43.845705466923498 ], [ -78.950352615445027, 43.845668410983521 ], [ -78.950537750850188, 43.845656394217293 ], [ -78.950721924999527, 43.845661073128227 ], [ -78.950919713456869, 43.845633468955576 ], [ -78.951099625446943, 43.845613772122803 ], [ -78.951271624690477, 43.845584137274024 ], [ -78.951389317230948, 43.845544209644089 ], [ -78.951514082327932, 43.84549660267264 ], [ -78.951556705757667, 43.845471804220239 ], [ -78.951738783231079, 43.845383011728295 ], [ -78.951848061809031, 43.845308554640937 ], [ -78.952009526543037, 43.845263729945771 ], [ -78.952193555629577, 43.845218272312806 ], [ -78.952333033661475, 43.845178700021833 ], [ -78.952422129262288, 43.8451519431595 ], [ -78.95255634317644, 43.845176696385018 ], [ -78.95274915361226, 43.845078793109586 ], [ -78.952967355534341, 43.845015530855683 ], [ -78.953024576775121, 43.844988471551154 ], [ -78.953091109055038, 43.844965605428534 ], [ -78.95320293147239, 43.844961745059656 ], [ -78.953308800176046, 43.844951151324942 ], [ -78.953494925620518, 43.844954189666474 ], [ -78.953616206259298, 43.844966807301539 ], [ -78.953782746444901, 43.844934398625007 ], [ -78.95384160649246, 43.844931578716526 ], [ -78.953905375285828, 43.844919485744889 ], [ -78.954002380106459, 43.84489357698606 ], [ -78.954086122551857, 43.844882908563761 ], [ -78.95420259897918, 43.844862336309767 ], [ -78.954399341814678, 43.844840412898968 ], [ -78.95453998318294, 43.844796799952022 ], [ -78.954741026356984, 43.844741898345511 ], [ -78.954896068530374, 43.844708968859145 ], [ -78.954959572315644, 43.844685616158564 ], [ -78.955119029773797, 43.844633231383256 ], [ -78.955338819860401, 43.844596073498167 ], [ -78.955459579258402, 43.844566083311143 ], [ -78.955535068643044, 43.844543496717691 ], [ -78.955692169384577, 43.844491648787503 ], [ -78.955865380329129, 43.844435231521139 ], [ -78.955973224272114, 43.844396125008679 ], [ -78.95604608416113, 43.844351628687839 ], [ -78.956121629911635, 43.844311461547001 ], [ -78.956213829268293, 43.844279773801908 ], [ -78.956335887420039, 43.844239479787454 ], [ -78.956513800096502, 43.844149490500875 ], [ -78.956686688622256, 43.844083482871518 ], [ -78.956767444748337, 43.844031583278287 ], [ -78.956932586736059, 43.843965598781686 ], [ -78.957073686463715, 43.843891647244668 ], [ -78.957280292983938, 43.84378483452403 ], [ -78.957432720888576, 43.843725278250552 ], [ -78.957507570348923, 43.843683519419308 ], [ -78.957624741670941, 43.843627941407902 ], [ -78.957672521728682, 43.843605280251595 ], [ -78.957741490160856, 43.843556898476805 ], [ -78.957945009990425, 43.84344940721801 ], [ -78.958058012952833, 43.843402692038048 ], [ -78.958295571196302, 43.843314804197981 ], [ -78.958357037841907, 43.843288254754199 ], [ -78.958487679404939, 43.843231816363044 ], [ -78.958571524335596, 43.843181586814033 ], [ -78.958704292163532, 43.843102042625645 ], [ -78.958832730384685, 43.843017252900047 ], [ -78.958923907095411, 43.842974379417655 ], [ -78.959067597455217, 43.842894867894032 ], [ -78.959266181859846, 43.842801884391157 ], [ -78.959333061292767, 43.842767309938836 ], [ -78.95943572918128, 43.842716443613917 ], [ -78.959581803090884, 43.842660094152173 ], [ -78.95979305999434, 43.842569466307957 ], [ -78.959951961525505, 43.842471538521615 ], [ -78.960062767047702, 43.842423280314975 ], [ -78.960151019908466, 43.84237668379896 ], [ -78.960268882513105, 43.842326807423376 ], [ -78.960333365550596, 43.842290938102686 ], [ -78.960374287590071, 43.842278034721737 ], [ -78.960404214149548, 43.842251848394099 ], [ -78.960503011052865, 43.842211617174449 ], [ -78.960573074242205, 43.842186734398481 ], [ -78.960935152475614, 43.84194588651129 ], [ -78.961066864456185, 43.841862947084671 ], [ -78.961186140102541, 43.841807580319092 ], [ -78.961330461409219, 43.841729203524608 ], [ -78.961449645540213, 43.841655473967549 ], [ -78.961718619900594, 43.841469199880301 ], [ -78.961777666530025, 43.841415501200167 ], [ -78.961888149011727, 43.841325161986944 ], [ -78.961950901427755, 43.841236568655319 ], [ -78.962026041091136, 43.841162943145768 ], [ -78.962120094524664, 43.841098453235091 ], [ -78.962201612436886, 43.841043174423369 ], [ -78.962325810712471, 43.840995498642691 ], [ -78.96243558436197, 43.840941933740311 ], [ -78.962612041593189, 43.840826500071429 ], [ -78.962723231460188, 43.840737747370305 ], [ -78.962910405056547, 43.840606822912399 ], [ -78.963017563327227, 43.840522175662549 ], [ -78.963104789673423, 43.840431906754681 ], [ -78.963219394285119, 43.840303740300833 ], [ -78.963245878179876, 43.840251996557647 ], [ -78.963377008122166, 43.840167458534921 ], [ -78.963452410540853, 43.840097460672233 ], [ -78.963549296784493, 43.839999706130712 ], [ -78.963611686996359, 43.83992895399151 ], [ -78.963812425297505, 43.839809124484809 ], [ -78.963887665550402, 43.839758453105524 ], [ -78.964050558975686, 43.839620351245877 ], [ -78.964163415379971, 43.83954204479852 ], [ -78.964270032622863, 43.839472937599815 ], [ -78.964338917309775, 43.839408505117596 ], [ -78.964558193032019, 43.839224366505128 ], [ -78.964658466181135, 43.839146091055248 ], [ -78.964733688172615, 43.839090826086895 ], [ -78.964846472266302, 43.838998750375282 ], [ -78.96495292046977, 43.838897504133989 ], [ -78.965003000049578, 43.838846894286434 ], [ -78.965103179911921, 43.838750253185665 ], [ -78.965215888554994, 43.838644408466173 ], [ -78.965272212622907, 43.8385845964767 ], [ -78.965372437681253, 43.838497137735772 ], [ -78.96546638961162, 43.838414287731347 ], [ -78.965535202438673, 43.838336085940078 ], [ -78.965637912116051, 43.838249317663703 ], [ -78.965694959547051, 43.838190560050684 ], [ -78.965807529979386, 43.838105005323435 ], [ -78.965913615924734, 43.837992837640691 ], [ -78.965963543626501, 43.837953274687166 ], [ -78.966026038021297, 43.837812471106467 ], [ -78.966121709317918, 43.837723768258812 ], [ -78.966183452001701, 43.837663929833546 ], [ -78.966280399495062, 43.837613577589771 ], [ -78.966329436339166, 43.837560167393548 ], [ -78.966401978857235, 43.837501361137569 ], [ -78.96648761838739, 43.837460624862992 ], [ -78.966557933183324, 43.837407045015006 ], [ -78.966688801597869, 43.837327829467469 ], [ -78.966752389872354, 43.837285436403363 ], [ -78.966949934034247, 43.837133476586793 ], [ -78.967036583585994, 43.837049683188518 ], [ -78.967163050022648, 43.836946656350527 ], [ -78.967281948191129, 43.836842025325723 ], [ -78.967420498901546, 43.836723396722633 ], [ -78.967528885612154, 43.836610892095344 ], [ -78.967640340291979, 43.836499931127761 ], [ -78.967757912543178, 43.836392060847707 ], [ -78.967866296887237, 43.836279552248847 ], [ -78.968076952248268, 43.83605145393242 ], [ -78.968166535617172, 43.835938556607566 ], [ -78.968255283366432, 43.83584597972316 ], [ -78.968369876412567, 43.835735552830428 ], [ -78.968465122961604, 43.835616979313968 ], [ -78.968560377828965, 43.835498405863213 ], [ -78.968650345376858, 43.835370763591747 ], [ -78.968825267913743, 43.835153748350081 ], [ -78.968930299597559, 43.835039553063623 ], [ -78.96903226617475, 43.83492381670181 ], [ -78.969108759019363, 43.83480687558724 ], [ -78.969191042788623, 43.834731873179827 ], [ -78.969296442403675, 43.83461760485644 ], [ -78.969395403177558, 43.834500601952946 ], [ -78.969481492160114, 43.834378152624218 ], [ -78.969570800979483, 43.834257059666164 ], [ -78.969666544232155, 43.834138697420975 ], [ -78.969837130463688, 43.833960240372555 ], [ -78.970254096489484, 43.833678028493438 ], [ -78.970549185926345, 43.83344790798435 ], [ -78.970651335739092, 43.833384412803944 ], [ -78.972711618495595, 43.838245165256247 ], [ -78.978781083372596, 43.852469825300979 ], [ -78.986565212874609, 43.870792384031404 ], [ -78.989795689167124, 43.878229161017074 ], [ -78.991104971844081, 43.881261611570061 ], [ -78.991862000906096, 43.882998908918154 ], [ -78.992239768364982, 43.883890226670417 ], [ -78.992654264195778, 43.884933416146133 ], [ -78.993942166022734, 43.888377372315901 ], [ -78.994210432509533, 43.889028753310747 ], [ -78.994704531608605, 43.890194312766148 ], [ -78.9957741028405, 43.892594905113675 ], [ -78.997495784169544, 43.896443573637072 ], [ -78.999538267441025, 43.901023720465872 ], [ -79.001309253223923, 43.905037720411855 ] ] ] } },
{ "type": "Feature", "properties": { "OBJECTID": 4, "WARD_DESC": "Centre Ward", "COUNCILOR": "Niki Lundquist", "WARD_TEXT": "03", "PHONE_NO": "905-430-4300 x2203", "PREFIX": "030-", "WARD": 3, "MOBILE": "289-387-9107", "EMAIL": "lundquistn@whitby.ca", "IMAGE": "https://whitby.maps.arcgis.com/sharing/rest/content/items/e2a49118bbaa441188027072b2b3e9d5/data", "WEBSITE": "https://whitby.ca/council", "REGIONAL_COUNCILLOR": "Steve Yamada", "RC_PHONE_NO": "905-430-4300 x2203", "RC_MOBILE": "905-706-1587", "RC_EMAIL": "yamadas@whitby.ca", "RC_IMAGE": "https://whitby.maps.arcgis.com/sharing/rest/content/items/ccf55274bbaa4b088648cddc2cae8eee/data", "RC_WEBSITE": "https://whitby.ca/council", "EMAIL_MAILTO": "mailto:lundquistn@whitby.ca", "RC_EMAIL_MAILTO": "mailto:yamadas@whitby.ca" }, "geometry": { "type": "Polygon", "coordinates": [ [ [ -78.940110560488549, 43.899762953529539 ], [ -78.930216681577733, 43.901991939835348 ], [ -78.905909315994478, 43.846175712546504 ], [ -78.905909310219144, 43.846175699835733 ], [ -78.905991150580803, 43.846173961526581 ], [ -78.906317751186194, 43.846164041509788 ], [ -78.906944643352318, 43.846141491856216 ], [ -78.907409934293668, 43.846184498813578 ], [ -78.908002788855001, 43.846415974880436 ], [ -78.908571889873841, 43.846554893646761 ], [ -78.909108509454683, 43.846583151736482 ], [ -78.909540565743953, 43.846679885927131 ], [ -78.909788412416489, 43.846710141551917 ], [ -78.909992156634345, 43.846735013267462 ], [ -78.910363225226661, 43.846814198905797 ], [ -78.910561669537714, 43.846895629893481 ], [ -78.910762858675525, 43.84700079174798 ], [ -78.911013333904492, 43.847114200514071 ], [ -78.911307246732704, 43.847247275213796 ], [ -78.911388927316267, 43.847268612392348 ], [ -78.911707167807023, 43.847352510762285 ], [ -78.91199112519827, 43.847413272851377 ], [ -78.912082158517265, 43.84742871032693 ], [ -78.913065488115663, 43.847733334412474 ], [ -78.91321329595506, 43.847764489302293 ], [ -78.913606269022438, 43.847968879186041 ], [ -78.913697663043962, 43.847985104365939 ], [ -78.914146863597225, 43.84806422537487 ], [ -78.914410712957391, 43.848128900845886 ], [ -78.914771725787077, 43.84821767086855 ], [ -78.915076222293536, 43.848311291142892 ], [ -78.915399826042986, 43.848406029988261 ], [ -78.915814848846239, 43.84852105873977 ], [ -78.916240353367328, 43.848672525278666 ], [ -78.9167150858637, 43.848818399197363 ], [ -78.917118887636207, 43.848893823749215 ], [ -78.917529058044039, 43.849005052851346 ], [ -78.918100114660632, 43.849185466812216 ], [ -78.918441160107818, 43.849282142743476 ], [ -78.917861298547891, 43.847905481816014 ], [ -78.922983834274419, 43.849519995550807 ], [ -78.924188762528559, 43.849846458954012 ], [ -78.924593929125152, 43.850807704792416 ], [ -78.925209335224551, 43.850940595958996 ], [ -78.925230193956381, 43.850937920822702 ], [ -78.925411348159528, 43.850976492927792 ], [ -78.925433713039155, 43.850990120734494 ], [ -78.925471371892272, 43.850990804644255 ], [ -78.925566357637308, 43.851005070568391 ], [ -78.926089023235662, 43.851092919166184 ], [ -78.926330695157304, 43.851104744276988 ], [ -78.926574023848488, 43.851101723365019 ], [ -78.926657673816706, 43.851093325196459 ], [ -78.926722346607306, 43.851081523151713 ], [ -78.926833189980826, 43.851070067418462 ], [ -78.926943459276146, 43.85105140916329 ], [ -78.92699401334437, 43.851042410131946 ], [ -78.927022657966958, 43.851039624761881 ], [ -78.927059118240393, 43.851041939439945 ], [ -78.927081734294333, 43.851051022913779 ], [ -78.927141226071527, 43.851045081529712 ], [ -78.927182794418442, 43.851031787654286 ], [ -78.927194439752654, 43.851017886877649 ], [ -78.927308854574534, 43.850991393015647 ], [ -78.927189229219366, 43.850510262292417 ], [ -78.927265022059359, 43.850487809795617 ], [ -78.927102068845628, 43.849951527819755 ], [ -78.927222073779689, 43.849915595365758 ], [ -78.927683229673292, 43.85172104922038 ], [ -78.928984261280746, 43.851568340161471 ], [ -78.928949511610554, 43.851529396659728 ], [ -78.928457661851269, 43.850963758604372 ], [ -78.928419054876187, 43.850914105551965 ], [ -78.928213087354962, 43.849903519447516 ], [ -78.928357732196545, 43.849932663415942 ], [ -78.928559067842784, 43.850927942147848 ], [ -78.92857196946855, 43.850930999595889 ], [ -78.929054736678253, 43.851479057934434 ], [ -78.929160619056248, 43.851479236162 ], [ -78.933162956355488, 43.851228661971874 ], [ -78.93328635251379, 43.851193357127066 ], [ -78.93384752644431, 43.851143595621458 ], [ -78.934235534296633, 43.851080976218498 ], [ -78.934437891705841, 43.851080799920297 ], [ -78.934637406525283, 43.851057407658629 ], [ -78.935109837117253, 43.851010854084976 ], [ -78.935373459652581, 43.850998599714117 ], [ -78.93552353424127, 43.851000909567937 ], [ -78.935647992711225, 43.850985025712568 ], [ -78.935710886983642, 43.850973584385713 ], [ -78.935834515596099, 43.850940786656658 ], [ -78.935949976313267, 43.850902831661621 ], [ -78.936189667889721, 43.850804001988294 ], [ -78.936383342294491, 43.850713056814456 ], [ -78.9366229464962, 43.850586741454137 ], [ -78.936746956626635, 43.85050312574819 ], [ -78.936870740766238, 43.850424068799917 ], [ -78.936949065900862, 43.850371260672908 ], [ -78.937039962797769, 43.850318777665365 ], [ -78.937136683899624, 43.850275586034876 ], [ -78.937259268337542, 43.850219351586745 ], [ -78.937355511274248, 43.850185292392879 ], [ -78.937414487957909, 43.850141118275545 ], [ -78.937491865696643, 43.850106563477183 ], [ -78.937692301971182, 43.850006650015004 ], [ -78.93785238348093, 43.849955963665472 ], [ -78.937962394725105, 43.849899405147887 ], [ -78.9381265160754, 43.849771121702474 ], [ -78.938347004663015, 43.849648878383206 ], [ -78.938471727604252, 43.849551561310776 ], [ -78.938654205026907, 43.849462236997873 ], [ -78.938941310912227, 43.84922117877958 ], [ -78.938990107279949, 43.849140533330988 ], [ -78.939298063537464, 43.848550959104905 ], [ -78.939410139315214, 43.848440734099761 ], [ -78.951981795187749, 43.877670470322023 ], [ -78.95214030853127, 43.878438838415612 ], [ -78.95961178904507, 43.895405399550746 ], [ -78.940110560488549, 43.899762953529539 ] ] ] } }
]
}
