{"type": "FeatureCollection", "features": [{"type": "Feature", "properties": {"district_id": "Lloydminster"}, "geometry": {"type": "Polygon", "coordinates": [[[-109.95488193576561, 53.311687026886666], [-109.9548860123585, 53.31433155147811], [-109.96692046912304, 53.31435036686046], [-109.96692420182482, 53.32077867760201], [-109.96692455012638, 53.3215756747308], [-109.97879154481285, 53.32159660577885], [-109.97889736951885, 53.321596786033986], [-109.97897146794409, 53.321596835683245], [-109.97927330844765, 53.321597345858564], [-109.97927404862567, 53.320885066781614], [-109.97928097627133, 53.31436835813627], [-109.97928389405718, 53.31189853850249], [-109.97928900278633, 53.30721134290356], [-109.98061336012084, 53.3072100910817], [-109.9821806312299, 53.30720864284197], [-109.98309818500444, 53.30720774725366], [-109.99131819598122, 53.30719988058878], [-109.99405810327872, 53.307222026464935], [-109.99634205212365, 53.30724043397864], [-110.00060124497156, 53.30727464875723], [-110.00334463566726, 53.307296469972584], [-110.0036464527095, 53.30729889697969], [-110.00474398662729, 53.307296564907], [-110.00535110302481, 53.307295235346444], [-110.00565316085283, 53.30729458752273], [-110.00565334547998, 53.30722312910593], [-110.00565361933081, 53.307042241254095], [-110.00565492081483, 53.30313507743431], [-110.00565575104109, 53.29980673725649], [-110.00565581070094, 53.299564419780545], [-110.00565643606265, 53.297000719809226], [-110.00565652299166, 53.29665024066528], [-110.0056571458774, 53.294148216654726], [-110.00565758947238, 53.29257574286791], [-110.00565725387314, 53.292397310231365], [-110.00565479520097, 53.29076799585845], [-110.00565463561541, 53.29058721610816], [-110.00565219211562, 53.28895799096895], [-110.00565203304438, 53.28877721118405], [-110.00564959422216, 53.287147985731735], [-110.00564943566515, 53.28696720591221], [-110.00564718276264, 53.28547434349643], [-110.00564698339934, 53.285341670429766], [-110.00564718715701, 53.28516141528215], [-110.00564710831085, 53.28515817902074], [-110.0056479374421, 53.284488541146914], [-110.00564828928991, 53.284282633093866], [-110.00564930830886, 53.283530017982905], [-110.00564959901762, 53.28334921923311], [-110.0056504739807, 53.282626126321375], [-110.0056506050194, 53.282445244294955], [-110.00565148093885, 53.28172215131572], [-110.00565177212209, 53.281541352532216], [-110.00565367677085, 53.27991572334885], [-110.00565398940721, 53.27973510362556], [-110.0056561971492, 53.27810946156546], [-110.00565647879013, 53.277928573167735], [-110.00565576391276, 53.27711366890332], [-110.00565561860778, 53.27693297844085], [-110.00565519777854, 53.276210299817016], [-110.0056550990799, 53.27617484856508], [-110.00565506321487, 53.27602969888436], [-110.00565448351513, 53.275306936931365], [-110.00565427835207, 53.27512444920791], [-110.00565265993235, 53.27259053546095], [-110.00565251589603, 53.27240984491238], [-110.00565118986934, 53.27070516131817], [-110.00565118884549, 53.27054876159441], [-110.00564924786109, 53.268734947866136], [-110.00564911539462, 53.268554346791156], [-110.00564779030624, 53.26718801917136], [-110.00564464983799, 53.26362677131909], [-110.00564449297032, 53.263458769608015], [-110.00565369682569, 53.25997844118014], [-110.0056551851625, 53.25943088912259], [-110.00565849292552, 53.258201418346566], [-110.00566396035637, 53.25622495280145], [-110.00566381713178, 53.25604346120162], [-110.00566206162576, 53.25372776418193], [-110.0056619227842, 53.25354707327643], [-110.00566028025044, 53.251493066621265], [-110.00566025408128, 53.251258197922404], [-110.00565869488376, 53.24921381633393], [-110.00565839200668, 53.24899452726062], [-110.00565825449372, 53.24881383626492], [-110.00565829325174, 53.2487385143103], [-110.00565100166023, 53.24158239962653], [-110.00535462202411, 53.24158272716779], [-110.00516203232367, 53.24158291477327], [-110.00374418751828, 53.24158454327763], [-110.00344263797624, 53.24158427369163], [-110.00086492826915, 53.24158232870608], [-109.99136762869539, 53.241574668089015], [-109.9792906155658, 53.241564006758026], [-109.9792960109304, 53.24872119990865], [-109.97899427256631, 53.248675881420226], [-109.97896870685454, 53.24879499724566], [-109.9789299175522, 53.248975687139435], [-109.9789213854853, 53.249015305845894], [-109.97890550102683, 53.2490153409626], [-109.97890554704756, 53.24908921867944], [-109.97890429081887, 53.25184852731589], [-109.97890395003498, 53.25260965478808], [-109.97890359488292, 53.25337683898712], [-109.97890233098632, 53.25620708447678], [-109.9789014145703, 53.25797420453125], [-109.97890085904561, 53.25931258623348], [-109.97890056034254, 53.260035113431414], [-109.97889916440022, 53.26343428065853], [-109.9671097590117, 53.26341472350172], [-109.96712053747348, 53.26686014030155], [-109.96712344610799, 53.26784636474416], [-109.96735186538011, 53.267846094669004], [-109.96736073633338, 53.270640445994545], [-109.96713217302921, 53.27063999292961], [-109.96713785107089, 53.272316327613225], [-109.96714092298576, 53.27322190152311], [-109.96714445788561, 53.27426375371758], [-109.9671474321717, 53.27513934532419], [-109.96714842487178, 53.27543414570321], [-109.96717248101126, 53.276630109938665], [-109.96719133569653, 53.27756738125068], [-109.9671927329855, 53.27763714367824], [-109.96719325011341, 53.27766277732707], [-109.96719545876337, 53.277772846966], [-109.96719777674001, 53.277887861314525], [-109.96715463292655, 53.27806693679947], [-109.967132792515, 53.27986091690312], [-109.96711242788729, 53.28153633159825], [-109.96710908211944, 53.28181031911739], [-109.96708704510486, 53.28362076564715], [-109.96708288935916, 53.2839628259637], [-109.96706725662567, 53.285247482093396], [-109.96705255459935, 53.28608315523936], [-109.96705185207182, 53.28612270676334], [-109.96703428111148, 53.28712085378085], [-109.96701144082795, 53.28842163026284], [-109.96694743911641, 53.292067902106005], [-109.96694307372292, 53.29231643878152], [-109.96694180882749, 53.29238822002545], [-109.96694030711568, 53.29247862941393], [-109.96693799354027, 53.29381871865425], [-109.96692849969436, 53.299711446274124], [-109.96692350382054, 53.30280530811937], [-109.96691883358802, 53.30571517634601], [-109.96691840925783, 53.30598057652832], [-109.96691752440421, 53.306533686995905], [-109.96691707723429, 53.306812214481006], [-109.96691683009837, 53.30696675174694], [-109.95487493700853, 53.30691894897549], [-109.95487518508929, 53.30709972096138], [-109.95488193576561, 53.311687026886666]]]}}]}