{"type": "FeatureCollection", "features": [{"type": "Feature", "properties": {"district_id": "Township of Langley"}, "geometry": {"type": "Polygon", "coordinates": [[[-122.46199269, 49.16458194], [-122.46197412, 49.16427632], [-122.46178242, 49.16088018], [-122.46176235, 49.15961307], [-122.46176262, 49.15959121], [-122.46175971, 49.15937198], [-122.46175359, 49.15905906], [-122.46173913, 49.15814616], [-122.46173739, 49.15803774], [-122.4616905, 49.15507835], [-122.46168002, 49.154607], [-122.46168146, 49.15450633], [-122.4616759, 49.15436021], [-122.46148882, 49.15139206], [-122.46122361, 49.1471653], [-122.46121339, 49.14698169], [-122.46112803, 49.14393518], [-122.46111582, 49.14351515], [-122.46106412, 49.14258854], [-122.46101186, 49.14165843], [-122.46096403, 49.14079489], [-122.46090634, 49.13976094], [-122.460768, 49.13731059], [-122.46070099, 49.13614464], [-122.46049881, 49.13251305], [-122.46049322, 49.13242317], [-122.46043016, 49.13077071], [-122.46041298, 49.1303196], [-122.46038819, 49.12969017], [-122.46036721, 49.12914467], [-122.46029166, 49.12706565], [-122.46024759, 49.12591519], [-122.46022458, 49.12525623], [-122.46022449, 49.12525368], [-122.46019917, 49.12451079], [-122.46016353, 49.12341235], [-122.4601066, 49.12160381], [-122.46000126, 49.11808353], [-122.45999718, 49.11794853], [-122.46000891, 49.11072454], [-122.45990976, 49.10684193], [-122.45987129, 49.10540183], [-122.45986144, 49.10505755], [-122.45982376, 49.10359118], [-122.45969097, 49.09987268], [-122.45967981, 49.09956065], [-122.45957255, 49.09658121], [-122.45956043, 49.09624357], [-122.45948982, 49.09417915], [-122.45945358, 49.09314537], [-122.45944213, 49.09282875], [-122.45941543, 49.09214973], [-122.45937729, 49.09114265], [-122.45944334, 49.08580556], [-122.45947603, 49.08493479], [-122.45950462, 49.08404653], [-122.45955825, 49.08225829], [-122.45956643, 49.08225827], [-122.45956674, 49.08225059], [-122.45971697, 49.07860575], [-122.45978964, 49.07684233], [-122.45983964, 49.07133106], [-122.45981394, 49.06774485], [-122.45980266, 49.0661602], [-122.45980103, 49.06593132], [-122.45978803, 49.06412158], [-122.45978803, 49.0641211], [-122.45978802, 49.06412062], [-122.45977783, 49.06275749], [-122.4597752, 49.06230823], [-122.45977401, 49.0621891], [-122.45977212, 49.06188774], [-122.45976829, 49.06147957], [-122.45976638, 49.06117439], [-122.45976448, 49.0609684], [-122.45976449, 49.06082726], [-122.45976258, 49.06058692], [-122.45968793, 49.05303549], [-122.45957567, 49.04599213], [-122.45957517, 49.04581141], [-122.45957912, 49.04499703], [-122.45957926, 49.04487926], [-122.45958895, 49.04319032], [-122.45959223, 49.04256679], [-122.45961763, 49.03867216], [-122.45963506, 49.03686084], [-122.45965408, 49.0349254], [-122.45967947, 49.03234205], [-122.45968623, 49.03153038], [-122.45969331, 49.02415484], [-122.45969581, 49.02234177], [-122.45970028, 49.01681397], [-122.45967933, 49.01507018], [-122.45965836, 49.01326856], [-122.45961561, 49.00964741], [-122.45954144, 49.00223466], [-122.47634097, 49.00217803], [-122.48495431, 49.0022168], [-122.49697993, 49.00224819], [-122.51503368, 49.00225719], [-122.52392138, 49.00220425], [-122.53978184, 49.00217865], [-122.55919625, 49.00225445], [-122.57997872, 49.00224202], [-122.60226514, 49.00223104], [-122.62523519, 49.00221798], [-122.64000124, 49.00226499], [-122.6472482, 49.00219742], [-122.66908291, 49.00212643], [-122.68013816, 49.00212124], [-122.68001553, 49.00927901], [-122.67999122, 49.0104135], [-122.67997161, 49.01133009], [-122.67986309, 49.01640661], [-122.67986278, 49.01676748], [-122.68002972, 49.02265638], [-122.6800479, 49.0232649], [-122.68006499, 49.02384709], [-122.68027001, 49.03101449], [-122.68039541, 49.04566466], [-122.6805396, 49.06013593], [-122.6805452, 49.06751087], [-122.68054193, 49.07462744], [-122.68053639, 49.07480816], [-122.6800904, 49.08215294], [-122.68002285, 49.08319616], [-122.67997213, 49.08399051], [-122.67982692, 49.08399523], [-122.6790308, 49.08399994], [-122.67774303, 49.08400588], [-122.67728043, 49.0840092], [-122.67683982, 49.08400921], [-122.67682462, 49.08401298], [-122.67644503, 49.08400921], [-122.67629044, 49.08400967], [-122.6757492, 49.08400916], [-122.67259596, 49.08400919], [-122.67261692, 49.08365824], [-122.67240071, 49.08365823], [-122.67225789, 49.08365837], [-122.67145734, 49.08366205], [-122.66987608, 49.08366203], [-122.66987618, 49.08366067], [-122.66915448, 49.08366135], [-122.66893954, 49.08366261], [-122.66904537, 49.08216065], [-122.65809034, 49.08206579], [-122.64713547, 49.08196981], [-122.64701138, 49.08400251], [-122.64689704, 49.08399677], [-122.64670753, 49.08399391], [-122.64651331, 49.0839899], [-122.64621925, 49.08398628], [-122.64612957, 49.08398302], [-122.64574584, 49.08397615], [-122.64554889, 49.08397242], [-122.64536211, 49.08396927], [-122.64526932, 49.08396728], [-122.64498974, 49.08396214], [-122.64497838, 49.08396239], [-122.64464134, 49.08395525], [-122.64459464, 49.0839555], [-122.64419843, 49.08394839], [-122.64413071, 49.08394814], [-122.64382843, 49.08394179], [-122.64375119, 49.08393932], [-122.64345847, 49.08393519], [-122.64325048, 49.08393037], [-122.6430885, 49.08392859], [-122.64274566, 49.08392136], [-122.64271736, 49.08392143], [-122.64266874, 49.08391998], [-122.64244652, 49.08391762], [-122.64232254, 49.08391762], [-122.64195758, 49.08390731], [-122.64150238, 49.08390236], [-122.64149205, 49.0841147], [-122.64147954, 49.08444408], [-122.64140315, 49.08616914], [-122.64139746, 49.08629419], [-122.64137648, 49.08684729], [-122.64135553, 49.08691863], [-122.6413051, 49.08755619], [-122.64124264, 49.08952677], [-122.64123423, 49.08963933], [-122.63791461, 49.08962456], [-122.63787267, 49.09414482], [-122.64013478, 49.09415626], [-122.64060216, 49.09484289], [-122.6405945, 49.09527322], [-122.638769, 49.09524384], [-122.63870114, 49.09698609], [-122.63868919, 49.09726759], [-122.63859904, 49.09960381], [-122.63858427, 49.09995097], [-122.63848543, 49.10246448], [-122.63843583, 49.1037143], [-122.63839892, 49.10453047], [-122.64280997, 49.10460718], [-122.64257813, 49.1047802], [-122.64240124, 49.10491351], [-122.63792319, 49.10834221], [-122.64369977, 49.11157286], [-122.64498511, 49.11229026], [-122.64526129, 49.1124498], [-122.64421979, 49.11325897], [-122.64709391, 49.11488419], [-122.66861936, 49.11529881], [-122.66876926, 49.11542517], [-122.66931565, 49.11542451], [-122.67182711, 49.11542969], [-122.67217202, 49.11543024], [-122.67217211, 49.11542487], [-122.67218321, 49.11477852], [-122.67478371, 49.11478233], [-122.67479703, 49.11316487], [-122.67479513, 49.11312296], [-122.67480086, 49.11241725], [-122.67480093, 49.11236761], [-122.67481082, 49.11150233], [-122.67703205, 49.1125003], [-122.67739396, 49.11266313], [-122.67845151, 49.11313914], [-122.67987991, 49.11378333], [-122.67988308, 49.11409807], [-122.67984344, 49.11783234], [-122.67970294, 49.12633149], [-122.67956041, 49.13351771], [-122.67950107, 49.14097551], [-122.67949025, 49.14269458], [-122.67948327, 49.14451955], [-122.67944508, 49.14813145], [-122.67943933, 49.1482257], [-122.67911062, 49.16289613], [-122.6791118, 49.16298336], [-122.67920135, 49.16633666], [-122.67922522, 49.16724238], [-122.67930954, 49.17023784], [-122.67939921, 49.17357543], [-122.67940493, 49.1737794], [-122.67943825, 49.17537656], [-122.67944929, 49.17537387], [-122.6794549, 49.17559132], [-122.67946539, 49.17589559], [-122.67946885, 49.17612873], [-122.67948868, 49.17689294], [-122.67949073, 49.17710523], [-122.67947184, 49.18706198], [-122.6794716, 49.18718967], [-122.67946937, 49.18719082], [-122.67944613, 49.18720286], [-122.67909284, 49.18744355], [-122.67863254, 49.18771842], [-122.67840018, 49.1878409], [-122.67813566, 49.18796623], [-122.67772699, 49.18817844], [-122.67726287, 49.18833226], [-122.67669973, 49.18846898], [-122.67608456, 49.18872534], [-122.67534582, 49.18904436], [-122.67494211, 49.18924802], [-122.67459107, 49.18943602], [-122.67394548, 49.1898348], [-122.6737279, 49.18998434], [-122.67305379, 49.19052982], [-122.67234346, 49.19083744], [-122.67202097, 49.19094996], [-122.67178273, 49.19105249], [-122.6715318, 49.19118068], [-122.67081863, 49.19157945], [-122.66893738, 49.1927098], [-122.66845225, 49.19331841], [-122.66792102, 49.19622643], [-122.66485006, 49.19628898], [-122.66215546, 49.19683051], [-122.65954114, 49.19766937], [-122.6571898, 49.19852817], [-122.6534315, 49.19997802], [-122.64596895, 49.20311413], [-122.64233484, 49.20458385], [-122.63647985, 49.20668319], [-122.63110079, 49.20816722], [-122.62836917, 49.20887648], [-122.62535538, 49.20951595], [-122.62380034, 49.20980221], [-122.62029634, 49.2102722], [-122.6177678, 49.21045165], [-122.61376966, 49.21047017], [-122.60822928, 49.21024656], [-122.60747657, 49.21014609], [-122.60570424, 49.20980506], [-122.60239052, 49.20890923], [-122.60154919, 49.2085304], [-122.59988068, 49.20760608], [-122.5986372, 49.20673447], [-122.59509166, 49.20412105], [-122.5917819, 49.20184516], [-122.59080095, 49.20094648], [-122.5894604, 49.19945248], [-122.58651239, 49.19463296], [-122.58577747, 49.19309093], [-122.58471992, 49.19128407], [-122.58250931, 49.18895606], [-122.57996099, 49.18692656], [-122.57731721, 49.18525597], [-122.57502714, 49.18410805], [-122.57378888, 49.18366797], [-122.5703049, 49.18265109], [-122.56302824, 49.18080389], [-122.55630745, 49.17885271], [-122.55320985, 49.17787713], [-122.55079647, 49.17690155], [-122.54818156, 49.17561634], [-122.54694394, 49.174704], [-122.54487124, 49.17321816], [-122.54265224, 49.171785], [-122.54119098, 49.17104049], [-122.53845735, 49.17014653], [-122.53341338, 49.16916382], [-122.53161362, 49.16872089], [-122.52923949, 49.16811275], [-122.52523178, 49.16758295], [-122.51724279, 49.16722405], [-122.51345109, 49.1672269], [-122.51107133, 49.16735935], [-122.50983527, 49.16730523], [-122.50408022, 49.16745477], [-122.50044694, 49.16767837], [-122.49666271, 49.16781367], [-122.49427187, 49.16800594], [-122.48877747, 49.16832782], [-122.47819163, 49.16979513], [-122.47243118, 49.17019779], [-122.4671702, 49.17046379], [-122.46428683, 49.17081759], [-122.46343957, 49.17098907], [-122.46272173, 49.17112324], [-122.46237826, 49.17118743], [-122.46218102, 49.16777019], [-122.46217952, 49.16775225], [-122.46217029, 49.16759267], [-122.46215392, 49.1673097], [-122.46199269, 49.16458194]]]}}]}