{"type":"FeatureCollection","features":[{"type":"Feature","id":1,"geometry":{"type":"Polygon","coordinates":[[[-78.852817951197878,43.996200777828477],[-78.860233494628687,44.013368433599226],[-78.868060499198094,44.031514928018609],[-78.875092858911913,44.047400362045003],[-78.894671252926045,44.043078211254304],[-78.904468553844907,44.040931381322437],[-78.921011456390744,44.037242437841847],[-78.958576061613797,44.028885379016401],[-78.951229399408845,44.012242814523638],[-78.951486668080477,44.011896840346772],[-78.951239146608756,44.011016148519353],[-78.943902535327311,43.994027069120037],[-78.943432105242692,43.994132284211162],[-78.939714627823633,43.985549627890634],[-78.935976069360109,43.976943827121154],[-78.935804526253676,43.976744696585712],[-78.928864200239545,43.960983998522224],[-78.928634526144606,43.960716023675872],[-78.927696118174396,43.95857714728367],[-78.923966532220277,43.960848231513822],[-78.914829982276331,43.966411675127176],[-78.91217512560074,43.967905931019381],[-78.91053094125563,43.968815702741878],[-78.905926970639328,43.971036647998496],[-78.900928728876409,43.973055100223981],[-78.895760216060339,43.974786471963085],[-78.890861372988482,43.976256487613099],[-78.890712821694294,43.975791182402297],[-78.890480138787794,43.975439655671046],[-78.889933006253983,43.974908894823919],[-78.885860467440679,43.971450756937855],[-78.885160071953337,43.970857128775137],[-78.884853314210829,43.970627426608807],[-78.884029805983076,43.969554824789903],[-78.876735671376736,43.952661677486816],[-78.876669997348344,43.952195392079645],[-78.872415515732385,43.942651698339276],[-78.86941463607927,43.935961162173179],[-78.869133153297682,43.935145587792782],[-78.849471239687603,43.939557038572929],[-78.846500883837606,43.940257172338598],[-78.82977658676603,43.94398404610515],[-78.832261544615733,43.949535648887178],[-78.835920848364438,43.957699931271733],[-78.837529142827918,43.961301020683209],[-78.852817951197878,43.996200777828477]]]},"properties":{"OBJECTID":1,"WARDNUMBER":"1","Shape_Length":39123.607046462996,"Shape_Area":67910554.852476195}},{"type":"Feature","id":2,"geometry":{"type":"Polygon","coordinates":[[[-78.900804645086737,43.90863017438393],[-78.891042900988239,43.910719797144246],[-78.882786618751737,43.912558432457139],[-78.880045905885922,43.913210695567678],[-78.878624450265647,43.913508959285799],[-78.875732989453837,43.914129777038731],[-78.87122589544488,43.915155736301024],[-78.867553204575927,43.915980090040243],[-78.865660316889361,43.916433086669592],[-78.864001292705623,43.916765049547529],[-78.861500689549302,43.917298238329053],[-78.862129375564095,43.919243924701114],[-78.869133153297682,43.935145587792782],[-78.86941463607927,43.935961162173179],[-78.872415515732385,43.942651698339276],[-78.876669997348344,43.952195392079645],[-78.876735671376736,43.952661677486816],[-78.884029805983076,43.969554824789903],[-78.884853314210829,43.970627426608807],[-78.885160071953337,43.970857128775137],[-78.885860467440679,43.971450756937855],[-78.889933006253983,43.974908894823919],[-78.890480138787794,43.975439655671046],[-78.890712821694294,43.975791182402297],[-78.890861372988482,43.976256487613099],[-78.895760216060339,43.974786471963085],[-78.900928728876409,43.973055100223981],[-78.905926970639328,43.971036647998496],[-78.91053094125563,43.968815702741878],[-78.91217512560074,43.967905931019381],[-78.914829982276331,43.966411675127176],[-78.923966532220277,43.960848231513822],[-78.927696118174396,43.95857714728367],[-78.92609030639764,43.954909349626952],[-78.920733891951542,43.942700197216908],[-78.920681572700232,43.942449225572105],[-78.916838650374189,43.933914478586125],[-78.914371697971248,43.928343560376796],[-78.913989494520024,43.927493915509942],[-78.913055080119932,43.925392185244391],[-78.913617793989317,43.925121668133713],[-78.91037166281987,43.918155253665546],[-78.905703754623715,43.907765752259365],[-78.905902475819957,43.907571759778428],[-78.900804645086737,43.90863017438393]]]},"properties":{"OBJECTID":2,"WARDNUMBER":"2","Shape_Length":20297.594742292764,"Shape_Area":24335311.4585425}},{"type":"Feature","id":3,"geometry":{"type":"Polygon","coordinates":[[[-78.819973577456892,43.921674514515942],[-78.82099116500325,43.923985730691115],[-78.824161758699901,43.931195797227069],[-78.825973479496966,43.93532274934914],[-78.827998602233407,43.939935139355583],[-78.82977658676603,43.94398404610515],[-78.846500883837606,43.940257172338598],[-78.849471239687603,43.939557038572929],[-78.869133153297682,43.935145587792782],[-78.862129375564095,43.919243924701114],[-78.861500689549302,43.917298238329053],[-78.857280933223279,43.918326458933976],[-78.851566934930219,43.919662904165527],[-78.851266100818179,43.91871127778905],[-78.844734451107882,43.903877107858555],[-78.843950307755634,43.902167674338862],[-78.843670955930151,43.902000631237961],[-78.839820116850845,43.893162207433789],[-78.825016279821753,43.896431851065067],[-78.822727728734463,43.896892146858455],[-78.820257739465376,43.896924150566804],[-78.81912578625122,43.897133110850874],[-78.81654875305604,43.897335289577647],[-78.815679115306622,43.897519078220867],[-78.813183227553978,43.898421449551556],[-78.811345565312251,43.899110109662345],[-78.810369909953593,43.899383112663806],[-78.815512859920474,43.911385218447521],[-78.816090941765367,43.912696261199372],[-78.817829189738589,43.916737256290403],[-78.819973577456892,43.921674514515942]]]},"properties":{"OBJECTID":3,"WARDNUMBER":"3","Shape_Length":16999.183769489915,"Shape_Area":14588052.532613801}},{"type":"Feature","id":4,"geometry":{"type":"Polygon","coordinates":[[[-78.839820116850845,43.893162207433789],[-78.843670955930151,43.902000631237961],[-78.843950307755634,43.902167674338862],[-78.844734451107882,43.903877107858555],[-78.851266100818179,43.91871127778905],[-78.851566934930219,43.919662904165527],[-78.857280933223279,43.918326458933976],[-78.861500689549302,43.917298238329053],[-78.864001292705623,43.916765049547529],[-78.865660316889361,43.916433086669592],[-78.867553204575927,43.915980090040243],[-78.87122589544488,43.915155736301024],[-78.875732989453837,43.914129777038731],[-78.878624450265647,43.913508959285799],[-78.880045905885922,43.913210695567678],[-78.882786618751737,43.912558432457139],[-78.891042900988239,43.910719797144246],[-78.900804645086737,43.90863017438393],[-78.905902475819957,43.907571759778428],[-78.905851985474357,43.907459282649199],[-78.904724885680665,43.904849593938692],[-78.901173668634357,43.896739381484252],[-78.901000130836508,43.896364082593401],[-78.900386910892109,43.89499134550794],[-78.898200159291775,43.890049410758067],[-78.898127197517184,43.889667069563011],[-78.897109621365132,43.887446382885308],[-78.89408188616234,43.880918621144787],[-78.89316700564585,43.882377476657787],[-78.892474593608739,43.882955569372513],[-78.891821073457393,43.883295111649616],[-78.890967069612472,43.883621999259823],[-78.890005965884114,43.883828405067561],[-78.878164161701704,43.88650507877383],[-78.875140073906422,43.88706956822201],[-78.871325418147606,43.887962062215777],[-78.870339549426063,43.888276354454987],[-78.862331375283674,43.890082223477499],[-78.861740026501266,43.89012974490835],[-78.860330087566311,43.890450069084501],[-78.8594974121403,43.888655518534335],[-78.839820116850845,43.893162207433789]]]},"properties":{"OBJECTID":4,"WARDNUMBER":"4","Shape_Length":15626.154383476471,"Shape_Area":13522735.236871}},{"type":"Feature","id":5,"geometry":{"type":"Polygon","coordinates":[[[-78.805856222409645,43.888937629159855],[-78.806978788068477,43.891338450283641],[-78.807239775124842,43.891937726080229],[-78.807368292338467,43.892337808438491],[-78.808454426539569,43.894909174001306],[-78.808957768023575,43.896163510918925],[-78.810040984087181,43.89864633214215],[-78.810369909953593,43.899383112663806],[-78.811345565312251,43.899110109662345],[-78.813183227553978,43.898421449551556],[-78.815679115306622,43.897519078220867],[-78.81654875305604,43.897335289577647],[-78.81912578625122,43.897133110850874],[-78.820257739465376,43.896924150566804],[-78.822727728734463,43.896892146858455],[-78.825016279821753,43.896431851065067],[-78.839820116850845,43.893162207433789],[-78.8594974121403,43.888655518534335],[-78.860330087566311,43.890450069084501],[-78.861740026501266,43.89012974490835],[-78.862331375283674,43.890082223477499],[-78.870339549426063,43.888276354454987],[-78.871325418147606,43.887962062215777],[-78.875140073906422,43.88706956822201],[-78.878164161701704,43.88650507877383],[-78.890005965884114,43.883828405067561],[-78.890967069612472,43.883621999259823],[-78.891821073457393,43.883295111649616],[-78.892474593608739,43.882955569372513],[-78.89316700564585,43.882377476657787],[-78.89408188616234,43.880918621144787],[-78.891740140352269,43.875808822873083],[-78.890502725817157,43.873113002208399],[-78.890095495999674,43.872191610547929],[-78.887538400301011,43.866110073663371],[-78.887404740914278,43.86604684816718],[-78.886553596893961,43.86409081374277],[-78.88649134871406,43.864104723935867],[-78.885062230301074,43.860738500920164],[-78.883750050143917,43.857623797185326],[-78.883215696270881,43.855888953159493],[-78.881774635204621,43.852468719540951],[-78.881430784011329,43.852384007100532],[-78.881082779428098,43.852275131347284],[-78.880736199892155,43.852163714076383],[-78.880371697000925,43.852065323452663],[-78.879968812693463,43.851989864307463],[-78.879602829914091,43.851918231845751],[-78.879235928981629,43.851849255201216],[-78.878866269891645,43.851788263576957],[-78.878496626519336,43.851727271047864],[-78.878125547889894,43.851660428105056],[-78.877733841508501,43.851593179111532],[-78.877360515490295,43.851545330707452],[-78.876979096215294,43.851527088999788],[-78.876603566113403,43.851487315603158],[-78.876231711694231,43.851434086068494],[-78.876039305109444,43.851394876487966],[-78.875864059830079,43.851370298548424],[-78.875755897758069,43.851342956790774],[-78.875587053223157,43.851301686139522],[-78.875224696646683,43.851220000666338],[-78.874859496149867,43.851146287745813],[-78.87448646219201,43.851079753137569],[-78.874163023066558,43.851040700576938],[-78.873785210942458,43.851011330294121],[-78.873407400608386,43.850981955192843],[-78.873032930723639,43.850939085386948],[-78.872661122462134,43.850885408413873],[-78.872295987225897,43.85080472521102],[-78.871958873180958,43.850721704252678],[-78.871599985708215,43.850630732584072],[-78.871236498002489,43.850547292811648],[-78.870876080152854,43.85045883113257],[-78.869783272584911,43.850109661518907],[-78.869510880168065,43.850141365267724],[-78.869272184392315,43.850366241929038],[-78.86910045054006,43.850611772453469],[-78.868886654864923,43.850838718102523],[-78.86867018780039,43.851013626457259],[-78.868599633907976,43.851073161903031],[-78.868269686463321,43.851208900872912],[-78.867943154714837,43.851349540209895],[-78.867577367524817,43.851433838465141],[-78.86722669486609,43.851481659210528],[-78.867049482614519,43.851517821659598],[-78.866679507061377,43.851579079932975],[-78.866306438170497,43.851632409277265],[-78.865934409039838,43.851688380441374],[-78.865573680138496,43.85177339070318],[-78.865484186615689,43.85180850579696],[-78.865261595791821,43.851899708447014],[-78.865207258098735,43.851914010598605],[-78.865031655771261,43.851962966937975],[-78.864865458374766,43.852024943172047],[-78.864705701560993,43.852094660106772],[-78.864552671332163,43.852172434636103],[-78.864389938196041,43.852238583226153],[-78.864223832262098,43.852300675475469],[-78.864054348485027,43.852358713976223],[-78.863882389201422,43.852412725491178],[-78.86371056633007,43.852466357549424],[-78.863538674075514,43.852519868304],[-78.863366699800224,43.852573193593514],[-78.863265883054311,43.852602700253577],[-78.863091743742018,43.852652255385728],[-78.862917095934279,43.852701060651647],[-78.862741769059895,43.852748840952373],[-78.862630413692187,43.852776358176122],[-78.862452510619804,43.852817287695324],[-78.862274308480238,43.852857422634507],[-78.862095876907347,43.852896973176406],[-78.861917356199115,43.852936295782861],[-78.861738755275027,43.852975419431601],[-78.86156007615206,43.853014322551601],[-78.861379536418156,43.853053443554614],[-78.861197348155031,43.853092835921871],[-78.861094583448633,43.853115142814531],[-78.860915984614067,43.853154386758931],[-78.860737612666497,43.853194237905655],[-78.860585404919746,43.853228267365424],[-78.860559247050091,43.853234114101262],[-78.860413630394362,43.853266241894424],[-78.86023067118812,43.853305655189068],[-78.860037241172165,43.853347001355125],[-78.859858674731996,43.85338783966516],[-78.85968097919077,43.853430202096519],[-78.859503015613782,43.853472085644746],[-78.85932049174167,43.853514666757142],[-78.859142744205613,43.853557209244308],[-78.858964954789158,43.85359966333521],[-78.858801011091543,43.853630874734925],[-78.858628456927164,43.853671691462537],[-78.858449943677186,43.853711094305567],[-78.858271326527145,43.853750230218338],[-78.858156859639919,43.853775407746689],[-78.857978462973378,43.85381494258705],[-78.857800230670648,43.853854849373043],[-78.857622164957604,43.853895135349958],[-78.857444637852964,43.853936634015959],[-78.857267118312649,43.853978157756764],[-78.857144568712172,43.854009156460137],[-78.856972731520202,43.854062161336273],[-78.856799523968888,43.854113122561579],[-78.856758395918988,43.85412380692798],[-78.856580955335318,43.854168376057231],[-78.856413116496384,43.854204599697326],[-78.856232808845178,43.854241285955034],[-78.856045419001788,43.854278595295078],[-78.855854353677131,43.854314928685589],[-78.855745111208748,43.854329739810133],[-78.855529809144571,43.854433897386969],[-78.855461726567242,43.854454110532615],[-78.855335746956882,43.85447220843222],[-78.855175134388318,43.854494476375045],[-78.855035271814998,43.854512466327307],[-78.85500187732687,43.854516763252832],[-78.854898113744881,43.854525781869398],[-78.854719271691479,43.854540527463342],[-78.854528290363675,43.854555013263294],[-78.8543368616604,43.854575169735],[-78.854272686630054,43.854582028679339],[-78.854144684167338,43.854604715053092],[-78.854054989471692,43.854620612049658],[-78.853953938033115,43.854616277278161],[-78.853830730354716,43.854610985932695],[-78.853764518535215,43.854611150050808],[-78.853574649485068,43.85461161692708],[-78.853571017356316,43.854611624306621],[-78.853385532497711,43.854602603451234],[-78.853283698364194,43.85459764924429],[-78.853113814720174,43.854609325726656],[-78.853013385381345,43.854616224651508],[-78.852849245139524,43.854641274415883],[-78.85275445429464,43.854655734879906],[-78.852660307108607,43.854658468628728],[-78.852532380405336,43.85466218068462],[-78.852468345658806,43.854666025085436],[-78.852335322187727,43.854674011388632],[-78.852281596902614,43.854690194309327],[-78.85210947933939,43.854742031428906],[-78.85210405151372,43.854743744468678],[-78.851927266525834,43.854799740489781],[-78.851901567298285,43.854807878944939],[-78.851847894569474,43.854824878364262],[-78.851776193798074,43.854828450361843],[-78.851742463649956,43.854830129911669],[-78.851654125355424,43.854834527876228],[-78.85147663549003,43.854851866109748],[-78.851408815182054,43.854858491915458],[-78.851246089691983,43.854875848199768],[-78.85106455660069,43.854895209346111],[-78.851035168208242,43.854895968278953],[-78.850816199462997,43.85490163453585],[-78.850791778864462,43.854902265387928],[-78.850622647967882,43.854911931040959],[-78.850588387577119,43.854913891084571],[-78.850511212879226,43.854924918606009],[-78.850406287424931,43.854939916592009],[-78.850302563748727,43.854968210925939],[-78.850220799339866,43.85499051426531],[-78.850174401676668,43.855003166079918],[-78.850091220872145,43.855044414798122],[-78.850027428277443,43.85507605252095],[-78.849958115003588,43.8550915943189],[-78.849796242703249,43.855127898006074],[-78.849686530781483,43.855152465961766],[-78.849600377537229,43.855171757405643],[-78.849596210103996,43.85517325996279],[-78.849424124537009,43.855235281059606],[-78.84937369053803,43.855253461220592],[-78.849246431735438,43.855283921592928],[-78.849108593327969,43.855298114106574],[-78.848947023937868,43.85528918791897],[-78.848883163288676,43.855298960573812],[-78.848820649608001,43.855299648840813],[-78.848766827444095,43.855310249723779],[-78.848696515681183,43.855315448562521],[-78.84844449336488,43.85531890404117],[-78.848424933695114,43.855319502596693],[-78.848405372814057,43.855320100225697],[-78.848343428509935,43.85531952136251],[-78.848247492522717,43.855321552416825],[-78.848030547369831,43.855370798562014],[-78.847857410787412,43.855410098824677],[-78.84767653510626,43.855451155437059],[-78.847570152718589,43.855475303304615],[-78.847525676026407,43.855485443153427],[-78.847495695206305,43.855492282663477],[-78.847351561098947,43.855522004261005],[-78.847313970847011,43.855531288822107],[-78.847227067412376,43.85555275397887],[-78.847138388840918,43.855584957372805],[-78.847101259998624,43.855594210944467],[-78.847057961904582,43.855612357106942],[-78.847012630841235,43.855646434401642],[-78.846985137718065,43.855674860582525],[-78.846981714367729,43.855679228469597],[-78.846963563177667,43.855702394425478],[-78.846884689450746,43.855758706464414],[-78.846827270852344,43.855783715330226],[-78.846712818211131,43.855833553851909],[-78.846635270270014,43.855875562576735],[-78.846554151212487,43.855910833250135],[-78.846491690620269,43.855925372188452],[-78.846459368086713,43.855932894758617],[-78.846377240482667,43.855945062279631],[-78.846344395860811,43.855954574645907],[-78.846312296775352,43.855968468645308],[-78.846243532752325,43.855994582315617],[-78.846213728384782,43.856003766618713],[-78.84617465187506,43.856012951652104],[-78.846125392986195,43.856027546637819],[-78.846050963923844,43.856045640217538],[-78.845952075346631,43.856052577280508],[-78.845920808687424,43.856053061784131],[-78.845869619842446,43.856056429844863],[-78.845787241677058,43.856090159140976],[-78.84577066793004,43.85609939386422],[-78.845710930025234,43.856132672235347],[-78.845636884697925,43.856188224538244],[-78.845609198587638,43.856204262463649],[-78.845562368568551,43.856231385433041],[-78.845477164490475,43.856255299636878],[-78.845329997495043,43.856278984961243],[-78.845291690128477,43.856285150928784],[-78.845246234141612,43.856296888437868],[-78.845095402377325,43.856335845349854],[-78.845064135522961,43.856344412034396],[-78.84498937959151,43.856364892777279],[-78.844976219924916,43.856368497095779],[-78.844849186438495,43.85642603655419],[-78.84483828930756,43.85642962682212],[-78.844716661132409,43.85646967982656],[-78.844679436586503,43.856475935345735],[-78.844614266031584,43.856486888256647],[-78.844508387385403,43.856492933177201],[-78.844496099970257,43.85649363497307],[-78.8444697273777,43.856495136987455],[-78.844461723889296,43.856495598194726],[-78.844396821503821,43.856510190744558],[-78.844324125299948,43.856526537709357],[-78.844275470076354,43.856537477971614],[-78.844218948593422,43.856559155858037],[-78.844166835206025,43.856579149528372],[-78.844115509643885,43.856588677099182],[-78.844063823070741,43.856588474980995],[-78.84402607000807,43.856585536767511],[-78.843991871729457,43.856582876317823],[-78.843984045741024,43.856582934785109],[-78.843917576912986,43.856622543361027],[-78.843869803339558,43.85665230474784],[-78.843861224372418,43.85665682101947],[-78.843852980192267,43.856659436673937],[-78.843807681591358,43.856683221427147],[-78.843757377323143,43.856705521535901],[-78.843750481920551,43.856708827099666],[-78.84374362101974,43.856710519891685],[-78.8436867249047,43.856736504906365],[-78.843629315791588,43.856759220050229],[-78.843573415852831,43.856777071167784],[-78.843538067616748,43.856864071577824],[-78.843508301427676,43.856884493128362],[-78.84350618608984,43.856885945068939],[-78.843289119159834,43.856985539904471],[-78.843229715608913,43.857012795455795],[-78.843125793209538,43.857068625621778],[-78.8429971928486,43.857137710087429],[-78.842964778556848,43.857157268476293],[-78.842944338333538,43.857169602597466],[-78.84283816506381,43.857233662385759],[-78.842763692354126,43.857278596845404],[-78.842605743417153,43.85739436062547],[-78.842586222540518,43.857408661297178],[-78.84255476682695,43.857431716614848],[-78.842531582121595,43.857447449856956],[-78.842495849155256,43.857471695662426],[-78.842499232929939,43.857479819482997],[-78.842439496808865,43.857509992666081],[-78.842327444453403,43.857575086170407],[-78.842145408860361,43.857651383179856],[-78.841990904096349,43.857692013259516],[-78.841852026736944,43.857716279259144],[-78.841693748427787,43.85773482234994],[-78.841422597895615,43.857759253513279],[-78.840934343921504,43.857822353480088],[-78.840857241181325,43.857835956214011],[-78.840797275171383,43.857850957839908],[-78.840679501947875,43.857875617729796],[-78.840571351900991,43.85790234564756],[-78.840517700852672,43.857912891843519],[-78.840445757900056,43.857930355295913],[-78.840304046795708,43.857959943608648],[-78.840207404593741,43.857979683279346],[-78.840154407539771,43.85798937823678],[-78.840104485810784,43.858000534961093],[-78.839935054421488,43.858029599558549],[-78.839840576019853,43.858049057511437],[-78.839769432852151,43.858062764106968],[-78.839683781882101,43.858075936982573],[-78.839623958702333,43.858086900834131],[-78.839538350075415,43.858098727481917],[-78.839467984918073,43.858102501569071],[-78.839367427763193,43.858114317252486],[-78.839273944430133,43.858124649631883],[-78.839170666552022,43.858132109117086],[-78.839088695462408,43.858137374981986],[-78.839047351774795,43.858145907844317],[-78.838997663807959,43.858150344713614],[-78.838926674455493,43.858160371273279],[-78.83886843759565,43.858166167936297],[-78.838831940066328,43.858170301475774],[-78.838801916547652,43.858170269139229],[-78.838769641429167,43.858174456436949],[-78.838762219272112,43.858175419832442],[-78.838677509429104,43.858179514451962],[-78.838668790402977,43.858180624369055],[-78.838649343321435,43.858181418752693],[-78.838614978811677,43.858182823114753],[-78.838584871552854,43.858184935564068],[-78.838534952252886,43.858188816842066],[-78.838496018760665,43.858191459122637],[-78.838380485567768,43.858199300024083],[-78.83830513779867,43.858203323036548],[-78.838178245913582,43.858208878877903],[-78.837932463162915,43.858218949518729],[-78.837854598261742,43.858221523650045],[-78.837726798672762,43.858226612534722],[-78.837559684028648,43.858231782629673],[-78.837488665959768,43.858234438409688],[-78.837354269151447,43.858236187742079],[-78.837318199960222,43.858236558253246],[-78.83724399901989,43.858237320512764],[-78.837189015874728,43.858236335285454],[-78.837156972479249,43.858234695866692],[-78.837154012814167,43.858234544390143],[-78.837082061493192,43.858235858736215],[-78.837026821848127,43.85823374314009],[-78.836991531709614,43.858234626191766],[-78.836941406172201,43.858235880156123],[-78.836892409514732,43.858236024639929],[-78.836844269274152,43.858235437132471],[-78.836814886003083,43.858238309212659],[-78.836694764926435,43.858238716492536],[-78.836440098206708,43.85823735052648],[-78.836334389222685,43.858238597620812],[-78.836264770174722,43.858235874355564],[-78.836197769104118,43.85823741606476],[-78.836139185674654,43.858234899067888],[-78.836092926225419,43.85823542818882],[-78.836066703763066,43.858233716864341],[-78.836007727664224,43.858234280551521],[-78.835965606311618,43.85823488981589],[-78.835874525532915,43.858234098821271],[-78.835805567775651,43.858232323265149],[-78.835749716984537,43.85823451263586],[-78.835732199884276,43.858235199934072],[-78.83569350283824,43.858235567860184],[-78.835672591343595,43.858235429140954],[-78.835635278840414,43.858236597579364],[-78.835600422353096,43.858239456576108],[-78.835588898382753,43.858240401466269],[-78.835553733562605,43.85823926516877],[-78.835468142017589,43.858239521426285],[-78.835421139305382,43.858241437130545],[-78.835361721982736,43.858243121157955],[-78.835320516370217,43.858242906613498],[-78.835268175627363,43.858243688397856],[-78.835214979987882,43.858245022075529],[-78.835069987559336,43.858247263882205],[-78.835040624191436,43.858247521274905],[-78.834932291276104,43.858250546843927],[-78.834835143443783,43.858262160250149],[-78.834728898192239,43.85827876731647],[-78.834626758800411,43.858292941049442],[-78.834540662974518,43.858306538297185],[-78.834452620603784,43.858318841692515],[-78.834352531399531,43.858336252980358],[-78.834268433197522,43.858355501558833],[-78.834188001703524,43.858381935940301],[-78.83400120138667,43.85843686069007],[-78.833850669030824,43.858482555583286],[-78.833720232599418,43.85850480100757],[-78.83358538900049,43.858521819015174],[-78.833474332368468,43.858518164087791],[-78.833443161422153,43.858517136203368],[-78.833307962671498,43.858501262875549],[-78.833196215869265,43.858515868927846],[-78.833108143531476,43.858506111316089],[-78.833023928476123,43.858485057230887],[-78.832921452628895,43.858451972846403],[-78.832825721203079,43.858412254722822],[-78.832694807595459,43.858378234444849],[-78.832604833890585,43.858347852135807],[-78.832535650720388,43.858288435517728],[-78.832463165768047,43.858231204370405],[-78.832422847812921,43.858165884428928],[-78.832353111433022,43.858115596623492],[-78.832240734315349,43.858089041223501],[-78.832162843520564,43.858068195656145],[-78.83209927726773,43.858020396307268],[-78.832011558146689,43.85795351663797],[-78.831882535989308,43.857940126764063],[-78.83168945823877,43.857938335472596],[-78.831592814633922,43.857964866336303],[-78.831549478894303,43.858000002632679],[-78.831497366196899,43.858023428941983],[-78.831430150996454,43.858034928827081],[-78.831330349398243,43.85806134909479],[-78.831310579808417,43.858072923161359],[-78.831271209701626,43.858095971854631],[-78.831248877204473,43.858150084561089],[-78.831242844628193,43.858173184570035],[-78.831225019791077,43.858241443572631],[-78.831176436947928,43.858307035174093],[-78.831050343753773,43.858461578652467],[-78.831001053334617,43.858534490066312],[-78.830988814648194,43.858575654720731],[-78.831014229175508,43.858709946852436],[-78.831025678407272,43.859061911750338],[-78.831024032962375,43.859096405204504],[-78.831024626715319,43.859118082424068],[-78.831015631803936,43.859139794554849],[-78.830965420279398,43.85921605935296],[-78.830924298936125,43.859332892601039],[-78.830922498122433,43.859367756745826],[-78.830954408089198,43.859493780986185],[-78.830963476454556,43.859595063022155],[-78.8309415236657,43.859674464600879],[-78.830888179639103,43.859840817087843],[-78.830861701960089,43.859910793426529],[-78.83080923389636,43.859991337859029],[-78.830770957441828,43.860047212170265],[-78.830691298772166,43.860106297216952],[-78.83064122104615,43.860148069419495],[-78.830627031733343,43.860172738642049],[-78.8306441729612,43.860203011512574],[-78.830670788220615,43.860233602058649],[-78.830666086758143,43.860258584723958],[-78.83065020646491,43.860310624784645],[-78.830622813540543,43.860344005298387],[-78.830561421740327,43.8604151137652],[-78.830537833235041,43.860438599675717],[-78.830470324733028,43.860505814065995],[-78.830456496663672,43.860519080934985],[-78.830382807999129,43.860589775675741],[-78.830331181055939,43.86065663618102],[-78.830248996387809,43.860756771951216],[-78.830155644741808,43.860883964329432],[-78.830080981287608,43.861016342000113],[-78.830053464577574,43.861049377889415],[-78.829992050694869,43.861123112831649],[-78.829891191171527,43.86121806050113],[-78.829799310280876,43.861269881904036],[-78.829756746281248,43.861343899215228],[-78.829662483470315,43.861434495489092],[-78.829527124920844,43.861523734591593],[-78.829409124268835,43.861588407896981],[-78.829277354347198,43.861670910974901],[-78.829018091840098,43.861817776754101],[-78.828891308396351,43.861870732951033],[-78.828772387718374,43.86189881243503],[-78.82858203548281,43.861927503881432],[-78.82849441917017,43.861940709307298],[-78.82840241629161,43.861976979176063],[-78.828361650071912,43.861995879418863],[-78.828282654610035,43.862064214721414],[-78.828267317178032,43.862076771061922],[-78.82808278136153,43.862227846489006],[-78.828048778831601,43.862251384158384],[-78.828001891505863,43.862275552853284],[-78.827802304532824,43.862358605873432],[-78.827759279750012,43.862376260986842],[-78.827656329642508,43.86241850654509],[-78.827562284202912,43.862465066559295],[-78.827474703131472,43.862515326519883],[-78.827420520047056,43.862556572633572],[-78.8273975946381,43.862568942216598],[-78.827346794033076,43.862593020003025],[-78.827280406313633,43.862627850331961],[-78.827210171958058,43.862678815484898],[-78.827167116448592,43.862706208834013],[-78.827061138865233,43.862777634104994],[-78.827002129082473,43.862811941066084],[-78.826804089860474,43.862962673783564],[-78.826753937104414,43.86298616669972],[-78.826726991441618,43.863009987690504],[-78.82671633462229,43.863034122190385],[-78.826694959185275,43.863066732091163],[-78.826649138616162,43.863143481829198],[-78.826591716863035,43.863239666266729],[-78.826579957108478,43.863264391102128],[-78.826561560795923,43.863289052683861],[-78.826355017119482,43.863503457325962],[-78.826262711689964,43.863562118507375],[-78.826236932646651,43.863620687928289],[-78.825920672152392,43.863921070217707],[-78.825763525679179,43.864055295459728],[-78.825627176394477,43.864160501168314],[-78.825594179972839,43.864190568550093],[-78.825503534518859,43.864273168494236],[-78.825453073321214,43.864302976288606],[-78.825426559562061,43.86431290564726],[-78.825384699687746,43.864328582365253],[-78.825281622883097,43.864363085775409],[-78.825209943514807,43.864399035908626],[-78.825093359168292,43.864482096928],[-78.825022144762897,43.864532831371996],[-78.824920711899651,43.86459386383666],[-78.824779872675037,43.864644982977723],[-78.824706180200423,43.864663870716115],[-78.824641201195334,43.864700543217744],[-78.824609495541623,43.86474870843589],[-78.824590212034508,43.864770527510643],[-78.824569472085386,43.864794000690239],[-78.824433102918675,43.86480066892458],[-78.824230984485993,43.864917693300548],[-78.82407790002388,43.864994935947713],[-78.823922743266678,43.865069919557051],[-78.823765507384806,43.865142661096648],[-78.823609657702178,43.865216899094641],[-78.823534264833796,43.865253308616609],[-78.823362301637061,43.865189612391191],[-78.823212668161759,43.865256340569061],[-78.822236267255377,43.864148287415659],[-78.822159572024745,43.864184457824003],[-78.820885944413646,43.864805305063456],[-78.820866747831076,43.864815106449129],[-78.820849153956274,43.864824603478674],[-78.820808132815102,43.864843310673336],[-78.82078895030574,43.864853203249226],[-78.820771342276942,43.86486260996206],[-78.82073105193669,43.864882706799534],[-78.820709849796785,43.864892903862064],[-78.820692452390517,43.864902403715277],[-78.820651538029054,43.864921114691199],[-78.820629852051056,43.864930006909923],[-78.82061004555014,43.864938512722134],[-78.820567348808723,43.864957710060324],[-78.820546852204586,43.864965005234474],[-78.820528343606696,43.864971804431782],[-78.820489951657137,43.864987202487299],[-78.82046954778464,43.864994411182998],[-78.820449744047252,43.865003010655897],[-78.820410552081427,43.865021305137489],[-78.820389552597703,43.865031606845804],[-78.820370248981774,43.865041404304314],[-78.820330355896886,43.865062817682364],[-78.820309160270696,43.865073003089734],[-78.8202882488238,43.865083210122201],[-78.820245449676463,43.865102411687488],[-78.820224442683582,43.865112610582507],[-78.820205550732709,43.865123607926456],[-78.820162951515456,43.865142819578296],[-78.820141239689519,43.865151802145277],[-78.820119144921591,43.865159409774932],[-78.820075849331985,43.865177308905643],[-78.820054746374581,43.865187407800121],[-78.820016133846948,43.865207107839126],[-78.819995648180765,43.865218604135507],[-78.819976248415017,43.865228509534035],[-78.819938430840381,43.865245211261353],[-78.819920351334019,43.865253309644686],[-78.81990045031354,43.865261808126931],[-78.819860344570856,43.865277611728445],[-78.819837646543007,43.865283912191913],[-78.819817847670663,43.865292407207242],[-78.81977864391915,43.865310911926329],[-78.819759951213669,43.865322003933855],[-78.819739451649269,43.865333503520013],[-78.819708348764649,43.865357205674115],[-78.819691246795685,43.865367912073829],[-78.819564757610024,43.865457407601063],[-78.819550145502674,43.865469006932457],[-78.819520253010609,43.865495310729621],[-78.81950425246545,43.865508605912062],[-78.81948874820489,43.865523204362738],[-78.819458844334989,43.865549511527689],[-78.819444644230501,43.865562506142993],[-78.819431151838614,43.8655766027846],[-78.819406850665175,43.865607304336834],[-78.819397348089424,43.865622011045609],[-78.819389748216253,43.86563641194553],[-78.819372444520198,43.865665509407144],[-78.819364251191814,43.865678507041558],[-78.819354841067863,43.865693305546117],[-78.819340141372066,43.865719007091961],[-78.819332045182108,43.865732104716038],[-78.819321946813631,43.865745607986433],[-78.819303745998113,43.865772107019346],[-78.819297351619895,43.865784708627423],[-78.819291842009918,43.865800006554949],[-78.819278849115321,43.865829612163346],[-78.819274044936989,43.865846211051725],[-78.819267452745564,43.86586310983234],[-78.819258553559777,43.865893206851467],[-78.819254948552285,43.865908112574125],[-78.819252550641806,43.865925611828679],[-78.819247644185154,43.865956205535419],[-78.819245150393073,43.865973603921134],[-78.819242650239886,43.865991108426073],[-78.819259004477161,43.866007324358542],[-78.819237756876888,43.866026119477397],[-78.81923644289148,43.866041809923047],[-78.819235646129201,43.866058912081364],[-78.819233251610214,43.866090409072292],[-78.819231452184894,43.866104908096155],[-78.819229649953542,43.866119313430389],[-78.819227144705224,43.86615091184661],[-78.819225929992868,43.866166712228612],[-78.819224649500782,43.866182507753315],[-78.819225244939716,43.866197913229485],[-78.819223953254152,43.866213708540407],[-78.819224539213948,43.866228998591296],[-78.819226144130937,43.866275207054343],[-78.819226241159726,43.866285000164496],[-78.819225848792982,43.866297804590431],[-78.819226549824421,43.866323109580676],[-78.819226548109498,43.866337213460604],[-78.819228850521199,43.866352221160405],[-78.81922775051487,43.866377705147293],[-78.819230849514312,43.866389809135072],[-78.819228146631659,43.86641150627856],[-78.819225849150797,43.866438806809143],[-78.819224544791993,43.866454608179943],[-78.819222742602548,43.866473310863235],[-78.819218044924412,43.866509506000021],[-78.819215648846139,43.866526919754328],[-78.819214250189148,43.866547012171814],[-78.819211034557966,43.866567515570658],[-78.819210153244612,43.866588811723204],[-78.819206853054951,43.866609210868013],[-78.819204246028491,43.866631008878308],[-78.819203353420036,43.866652307515977],[-78.819201946833275,43.866672412386343],[-78.819201052946397,43.866693711899806],[-78.819202448472367,43.866715909550557],[-78.819201651738908,43.866737309056376],[-78.819200746591974,43.866758610155308],[-78.819200451234806,43.866781207689307],[-78.819196649617666,43.866800409704297],[-78.819195145901389,43.866820413681751],[-78.81919234695674,43.866860505747582],[-78.819190455036434,43.866879211217785],[-78.819186546557148,43.866898408490876],[-78.819181446888223,43.866937604903349],[-78.819179554961124,43.866956310372984],[-78.819176344406671,43.866976707625732],[-78.819173647676877,43.86699850752278],[-78.81916985236154,43.867017604316125],[-78.81917025481664,43.867037310657615],[-78.819170647661579,43.867056905172731],[-78.819170943232066,43.867076607672743],[-78.819171352014152,43.867096208794443],[-78.819169344706211,43.86711500659684],[-78.819167943207205,43.867135005321764],[-78.819164649140376,43.86715550812027],[-78.819160948160473,43.867174611215631],[-78.819151145229966,43.867211906333466],[-78.819150946950131,43.86723030650824],[-78.819141945285935,43.867264706106418],[-78.819137647283199,43.867282605744698],[-78.819132852662875,43.867299108468778],[-78.819122347028085,43.867311212908398],[-78.819104752103542,43.867320710544057],[-78.819088051686691,43.867327110961178],[-78.819074047610854,43.867335809219298],[-78.819062152390401,43.867349707620036],[-78.81906095016501,43.867365504634371],[-78.819074049006844,43.867378108372463],[-78.819086445238042,43.86738950393574],[-78.819094150357287,43.867403408327156],[-78.819099350755593,43.867420610578989],[-78.819100944037373,43.867438511954788],[-78.819100799452443,43.867438176966772],[-78.819100207062192,43.867455269517365],[-78.819096277124231,43.867469867411735],[-78.819088802391462,43.867488777805313],[-78.819082820943606,43.867507076564216],[-78.819081400604304,43.867522780279735],[-78.819072791490115,43.867536898083138],[-78.8190633105568,43.867554514188285],[-78.819059405569831,43.867566005465754],[-78.81904989733431,43.867587371887119],[-78.819025648646473,43.867632776088541],[-78.819010211220331,43.867668482540431],[-78.819005165064027,43.867685533267363],[-78.819003000665674,43.867697377399608],[-78.818998088767643,43.867713954406959],[-78.818995098563349,43.867726773151041],[-78.818990981910716,43.867743485988605],[-78.818984806691105,43.867757474690016],[-78.818981712555029,43.867767991066891],[-78.81897990043683,43.867775977642793],[-78.818975869897756,43.867785110315957],[-78.818971803305843,43.867792570359278],[-78.81896252489922,43.867807225485173],[-78.818958510428374,43.867818476076671],[-78.81895346111574,43.867829847362344],[-78.818947601278936,43.867837578381156],[-78.818938622203476,43.867844949124496],[-78.818931702872277,43.867857774773825],[-78.818928899011055,43.867863677019919],[-78.818928105501968,43.867868371574616],[-78.818923206839912,43.8678795701681],[-78.818916584836614,43.867892910188864],[-78.818909997369985,43.867908271243557],[-78.818901398427982,43.867926098649967],[-78.818892406988368,43.867942676984825],[-78.818884801716138,43.867954825978728],[-78.818878599490162,43.867971770892133],[-78.818872569762235,43.867986614091699],[-78.818859298124835,43.868000780599964],[-78.818849550475107,43.868014583132357],[-78.818839506580318,43.868033776676654],[-78.818834798238782,43.868044874460203],[-78.818827849943247,43.868050340127333],[-78.818825298625754,43.868059177816967],[-78.818823207532162,43.868068772481642],[-78.818816955240351,43.868078151734302],[-78.818812712748283,43.868094184201453],[-78.81881115502334,43.868104816344719],[-78.818804200796293,43.868117778171879],[-78.818803500284247,43.868120366793043],[-78.818798521010578,43.868134489963502],[-78.818797497415972,43.868153574843667],[-78.818792906637768,43.868171034909167],[-78.818796008459387,43.868188075552474],[-78.818796669289767,43.86820693870024],[-78.818795601123725,43.868226869953943],[-78.818796205221688,43.868248277294306],[-78.818794999516257,43.868267475741455],[-78.81879240000049,43.868288071919018],[-78.818787606621598,43.868309174513399],[-78.818774609335293,43.868326972840542],[-78.818755899257951,43.868342773150651],[-78.818737806232647,43.868358374560145],[-78.818720616788937,43.868377316396057],[-78.818709603050607,43.86839586926876],[-78.818697679561865,43.868407839449837],[-78.81868460531436,43.868420071262847],[-78.818673900316753,43.868426478068258],[-78.818674098522791,43.868436974476658],[-78.818673299309324,43.868447077293979],[-78.818664639457609,43.868459748140921],[-78.818656007831805,43.8684713724247],[-78.818639830096288,43.868485914674146],[-78.81862580524573,43.868499675119615],[-78.818614175676586,43.868514844429242],[-78.818599106214506,43.868531277854707],[-78.81858336563549,43.86854714024745],[-78.818565605354721,43.868563476362866],[-78.818549354190679,43.868573174240005],[-78.818534305440991,43.868581876788014],[-78.818533197256357,43.868582472360444],[-78.818511852213689,43.868592275527185],[-78.8184922037386,43.868600774078864],[-78.818472208920241,43.868611124324978],[-78.818450500054354,43.868622678005529],[-78.818423700126246,43.868634873631791],[-78.818393105757551,43.868647169647417],[-78.818363634013181,43.868659292621707],[-78.818313798931939,43.868675731857259],[-78.818313917078413,43.868676006918449],[-78.818272774073179,43.868690625991604],[-78.818158799993469,43.868717964120535],[-78.818067027014578,43.868738914211839],[-78.817978554765176,43.868755387742091],[-78.817889918135506,43.868776397603689],[-78.817801447030476,43.868792871018208],[-78.817706620184111,43.868811491806376],[-78.817681795824242,43.868816745525599],[-78.817626954787912,43.868821053905748],[-78.817602633557073,43.868823127297588],[-78.817536362324617,43.868833213545891],[-78.817454411255042,43.86884299925557],[-78.81735083867899,43.86884329087701],[-78.817240745941803,43.868850268019763],[-78.817127433832084,43.868859455104037],[-78.816998276195108,43.86887287878686],[-78.816977533046696,43.868878560584491],[-78.81692853698263,43.868891979284783],[-78.816815143171539,43.868903434267246],[-78.816676990814344,43.868934147863122],[-78.816614844674646,43.868945295600284],[-78.816417954636378,43.868971278427757],[-78.816340976787131,43.869062140847056],[-78.815998543121296,43.869186153914477],[-78.815631543790985,43.869257268181755],[-78.815259005133569,43.869316438481825],[-78.814497679539244,43.869399785057176],[-78.814155105049807,43.86940444645434],[-78.814100188093477,43.869405193521629],[-78.813698738691457,43.869402068804796],[-78.813537076597981,43.869412854144358],[-78.81321514237095,43.869504613728317],[-78.812842017246737,43.869560895501849],[-78.81246448553442,43.869586744636671],[-78.812093558849682,43.869658244977437],[-78.811721466411853,43.869721687099386],[-78.811346394582245,43.869764541254476],[-78.810971065616769,43.869805600262474],[-78.810568552042497,43.869841658654764],[-78.810219273042875,43.869860757203256],[-78.809811415476162,43.869852971722956],[-78.809434089373653,43.869825371199909],[-78.80905665862889,43.86979866596652],[-78.808677660083973,43.86978540666933],[-78.808345127680482,43.869762670209823],[-78.807208453968869,43.869625199324979],[-78.806850164719904,43.869547651649441],[-78.806487261116985,43.869466660453419],[-78.806121049098294,43.869395272462384],[-78.805705531517191,43.869320624044157],[-78.805344580331692,43.869245685527467],[-78.804617973427526,43.869088196770974],[-78.803889491933106,43.868934989003741],[-78.80173208834286,43.868369436001849],[-78.800892908581005,43.86811071096416],[-78.800822557987871,43.868087991334022],[-78.800798219019057,43.868079984142874],[-78.800735834584174,43.868056957757922],[-78.800618724667302,43.868016142908161],[-78.800455823690669,43.867961632471498],[-78.800415979016805,43.867945119971431],[-78.800285526903636,43.867897079183322],[-78.800116714321319,43.867838433477623],[-78.800074076075063,43.867820598469947],[-78.799842280463579,43.86773493182303],[-78.799778719377912,43.867715627685115],[-78.799681361203127,43.867680616912722],[-78.799546193508036,43.867631160035174],[-78.799439609327891,43.86759242126378],[-78.799314661559194,43.867548581076882],[-78.79922510593633,43.867515724409124],[-78.799143916326727,43.867483124302787],[-78.799028418010167,43.867446155434912],[-78.798918441463911,43.867410068950932],[-78.798753180027063,43.867358137804544],[-78.798627482085081,43.867303772682554],[-78.798514018364216,43.867259356137666],[-78.798420642576104,43.867225228652764],[-78.798283838019685,43.867177527716024],[-78.798149881219217,43.867128503982457],[-78.798079371155282,43.867107267857335],[-78.79798518375317,43.867075017795841],[-78.797868494872432,43.867027807688366],[-78.797736983201375,43.866988910871264],[-78.797650700563437,43.866955863074509],[-78.797553269533935,43.866917728486207],[-78.797447721535491,43.866874342246248],[-78.797395473724947,43.866848738234076],[-78.797291725324428,43.866802889895105],[-78.79715723001415,43.866752584224763],[-78.797119324171007,43.866742908269337],[-78.797010636097824,43.866688131126203],[-78.796904464833005,43.866641417292826],[-78.796796750121516,43.866598329890891],[-78.79669104394624,43.866545420552619],[-78.796600518602091,43.866496679041532],[-78.796539619497167,43.866469433887914],[-78.796478045375636,43.866449126342999],[-78.796416953077639,43.866437525392321],[-78.796363002106617,43.866436746574387],[-78.796320798327415,43.866431153333302],[-78.796519998317848,43.866903427690545],[-78.796614958072411,43.866890953020338],[-78.796736127317885,43.866870008288068],[-78.79682405690464,43.866873137668819],[-78.796916073216437,43.866861376669434],[-78.796960834998728,43.86686976597899],[-78.796984227761087,43.866901026954103],[-78.796994705995075,43.866921127567252],[-78.796999184540852,43.866966324824212],[-78.797009271268522,43.866994213971466],[-78.797012317211511,43.867002637821493],[-78.79704733300396,43.867027155180899],[-78.797078064724715,43.867050000798642],[-78.797162416999555,43.867070517714318],[-78.797242767719951,43.867085106958768],[-78.797335437655377,43.867138977162867],[-78.797415427404232,43.867175765431121],[-78.797484462754682,43.867204294234298],[-78.79758635021939,43.867240751931803],[-78.797677971450213,43.867282261509956],[-78.79773471249986,43.867328198977852],[-78.7978871025568,43.867368000702008],[-78.798019726707224,43.867408918457301],[-78.798212162620885,43.867484321572263],[-78.798287258408237,43.867545080210633],[-78.798440612582297,43.867616211072203],[-78.798576458931478,43.867664819807196],[-78.798605731769484,43.867695202493714],[-78.798731077763449,43.86776320378052],[-78.798846287644352,43.8678093365018],[-78.798921729030454,43.867846235040545],[-78.799014398477098,43.86790546452297],[-78.7991421108553,43.867974048461157],[-78.799210632257498,43.86802530812632],[-78.799308308576499,43.868080386911473],[-78.79945218283143,43.868158027831321],[-78.799506932129276,43.868197141946048],[-78.799560099552664,43.868329616524569],[-78.799486244339633,43.86846321484272],[-78.799425833434711,43.868587846287809],[-78.799325260980467,43.868682653419548],[-78.799296898758698,43.86873075981002],[-78.799152405913475,43.868828980116206],[-78.798934174278727,43.868859217754867],[-78.798795795448683,43.868994566789858],[-78.798562375876543,43.869434762063641],[-78.798652986780027,43.869680814171545],[-78.798697128787467,43.869953837233865],[-78.798558361423005,43.870233346129915],[-78.798357580869819,43.870492847772297],[-78.798175765483847,43.870828780227448],[-78.800351344999314,43.875983978778962],[-78.800606014250491,43.876591251442996],[-78.801232830582165,43.878077879455347],[-78.803227583457485,43.882704926483129],[-78.804486949507762,43.885691141776462],[-78.805856222409645,43.888937629159855]]]},"properties":{"OBJECTID":5,"WARDNUMBER":"5","Shape_Length":22791.21229516084,"Shape_Area":25658134.631030899}}]}