{"type": "FeatureCollection", "features": [{"type": "Feature", "properties": {"district_id": "1"}, "geometry": {"type": "Polygon", "coordinates": [[[-73.4616262322, 45.7225093988], [-73.4615188956, 45.7224621597], [-73.461137427, 45.7227353185], [-73.4610328611, 45.7226885505], [-73.4609834042, 45.7226663533], [-73.4600436667, 45.7222444099], [-73.4489732283, 45.7143522783], [-73.4520945993, 45.711721443], [-73.4571087625, 45.7078414323], [-73.4587190988, 45.7065167132], [-73.4595344109, 45.7057673643], [-73.4599830551, 45.7049643555], [-73.4603501729, 45.7043219131], [-73.4609208741, 45.7037866348], [-73.4617357012, 45.7036263149], [-73.4624689169, 45.7035998419], [-73.463202152, 45.7037071426], [-73.4638538536, 45.7037876129], [-73.4645464817, 45.7037075776], [-73.4658501519, 45.7033866422], [-73.4678465331, 45.7028518292], [-73.4691910412, 45.7022631723], [-73.4707801279, 45.701513954], [-73.4725320262, 45.7009253746], [-73.4747115268, 45.7003232649], [-73.4749358928, 45.7008470849], [-73.4750456098, 45.7016186146], [-73.4748985483, 45.7025830085], [-73.4744945425, 45.7037643642], [-73.4741271295, 45.7049215512], [-73.4742367953, 45.7058618848], [-73.4748233227, 45.7068023233], [-73.4756213278, 45.7075768708], [-73.4766209018, 45.7068991479], [-73.4786390406, 45.7058145385], [-73.4812074236, 45.7046577231], [-73.4838123617, 45.7037178065], [-73.4863803664, 45.7028983252], [-73.4884715503, 45.7024404803], [-73.4894619562, 45.7022959654], [-73.4903424088, 45.7023442803], [-73.4910393116, 45.7026577432], [-73.4914428839, 45.7030676257], [-73.4916995472, 45.7034775186], [-73.4921029907, 45.7039115064], [-73.4925431929, 45.7043937385], [-73.4932035002, 45.7049724401], [-73.4937170584, 45.7051652954], [-73.4946708886, 45.705237686], [-73.4970921523, 45.7049484651], [-73.4976071662, 45.7048635241], [-73.4976871525, 45.7051616376], [-73.4976244797, 45.7058825676], [-73.4972482573, 45.7068301455], [-73.4966839168, 45.7076746955], [-73.4956807996, 45.7084162877], [-73.4944894901, 45.7094255431], [-73.4931726461, 45.7103936705], [-73.4918245843, 45.7111763584], [-73.490727219, 45.7117736738], [-73.4892223142, 45.7122268165], [-73.4877800961, 45.7125150757], [-73.4871903768, 45.7125275176], [-73.4870800916, 45.712529078], [-73.4868080296, 45.7125329719], [-73.4859302182, 45.712635809], [-73.4850209346, 45.7127593309], [-73.4842371312, 45.7130064032], [-73.4835475748, 45.7132355101], [-73.4829519231, 45.7134208744], [-73.4823561689, 45.7135032164], [-73.4816978807, 45.713503103], [-73.4809374986, 45.7134405283], [-73.4810245392, 45.7145451707], [-73.4811693808, 45.715117208], [-73.4813598785, 45.7156178033], [-73.4816317487, 45.7162852485], [-73.4817584039, 45.7171195683], [-73.481758078, 45.7181921344], [-73.4815583728, 45.7189191542], [-73.4812860371, 45.7197414452], [-73.481176791, 45.7207067294], [-73.4813035737, 45.7215767733], [-73.4816116521, 45.7226970865], [-73.4818288321, 45.7237578016], [-73.4821369726, 45.724818543], [-73.4828439149, 45.7267612347], [-73.4832607783, 45.7283463066], [-73.4832165073, 45.7293448819], [-73.4831726571, 45.7296041882], [-73.4831199235, 45.7298626815], [-73.4830583321, 45.7301202125], [-73.4829879226, 45.7303766336], [-73.4829087348, 45.7306317953], [-73.4828208098, 45.7308855493], [-73.4827242052, 45.7311377506], [-73.4826189725, 45.7313882544], [-73.4825051732, 45.731636914], [-73.4823828715, 45.7318835853], [-73.4822521406, 45.7321281281], [-73.4821130538, 45.7323704001], [-73.4812162812, 45.7355568228], [-73.480223777, 45.7356244755], [-73.4795378242, 45.7356712274], [-73.4792903068, 45.7356880956], [-73.4744061383, 45.7360208449], [-73.4727315818, 45.7361348669], [-73.4691842895, 45.7370693884], [-73.4690869103, 45.7371184816], [-73.468957836, 45.7369714651], [-73.4687164593, 45.7366688628], [-73.4684465473, 45.7362681482], [-73.4681510801, 45.7356931557], [-73.4679922621, 45.7352000715], [-73.4679349714, 45.7350114965], [-73.4678507367, 45.7346134435], [-73.4678150154, 45.7343362859], [-73.4678155558, 45.7340308314], [-73.467836008, 45.7336881873], [-73.4678856071, 45.7333874256], [-73.4679013539, 45.733202922], [-73.4679677702, 45.7329898637], [-73.4680732691, 45.7328006243], [-73.4682894794, 45.732487029], [-73.4689980625, 45.7316652346], [-73.4699038325, 45.7304050299], [-73.4720793524, 45.728022216], [-73.4729732078, 45.7275215585], [-73.4730063544, 45.7275011075], [-73.4731027764, 45.7274369523], [-73.4729914129, 45.7273910629], [-73.4703381362, 45.7262727893], [-73.4699077425, 45.7261193376], [-73.4693411748, 45.7259173307], [-73.4692895389, 45.72589892], [-73.4672714836, 45.7250172722], [-73.4663152301, 45.7245831541], [-73.4661863557, 45.7245246469], [-73.4636319087, 45.723403622], [-73.4616262322, 45.7225093988]]]}}, {"type": "Feature", "properties": {"district_id": "2"}, "geometry": {"type": "Polygon", "coordinates": [[[-73.4663152301, 45.7245831541], [-73.4672714836, 45.7250172722], [-73.4692895389, 45.72589892], [-73.4693411748, 45.7259173307], [-73.4699077425, 45.7261193376], [-73.4703381362, 45.7262727893], [-73.4729914129, 45.7273910629], [-73.4731027764, 45.7274369523], [-73.4730063544, 45.7275011075], [-73.4729732078, 45.7275215585], [-73.4720793524, 45.728022216], [-73.4699038325, 45.7304050299], [-73.4689980625, 45.7316652346], [-73.4682894794, 45.732487029], [-73.4680732691, 45.7328006243], [-73.4679677702, 45.7329898637], [-73.4679013539, 45.733202922], [-73.4678856071, 45.7333874256], [-73.467836008, 45.7336881873], [-73.4678155558, 45.7340308314], [-73.4678150154, 45.7343362859], [-73.4678507367, 45.7346134435], [-73.4679349714, 45.7350114965], [-73.4679922621, 45.7352000715], [-73.4681510801, 45.7356931557], [-73.4684465473, 45.7362681482], [-73.4687164593, 45.7366688628], [-73.468957836, 45.7369714651], [-73.4690869103, 45.7371184816], [-73.4654052396, 45.738974431], [-73.4634256171, 45.7410068828], [-73.4586282724, 45.745997647], [-73.4541317481, 45.7512715381], [-73.4509597851, 45.7549695098], [-73.4490566253, 45.7571793554], [-73.4469312205, 45.7562523216], [-73.4439926548, 45.754963433], [-73.4402954169, 45.7533311181], [-73.4401616495, 45.7532731323], [-73.4421108053, 45.7511302356], [-73.444836354, 45.7481417404], [-73.44483801, 45.7481424755], [-73.4474861657, 45.7452393811], [-73.4483643509, 45.7442786918], [-73.4501365599, 45.7423398386], [-73.450215675, 45.7422532794], [-73.4540252801, 45.7380701296], [-73.4575977913, 45.7341479993], [-73.4576831572, 45.7340552447], [-73.4589717488, 45.7326414814], [-73.4606977334, 45.7307580213], [-73.4635564655, 45.7276147967], [-73.466311642, 45.7245872674], [-73.4663152301, 45.7245831541]]]}}, {"type": "Feature", "properties": {"district_id": "3"}, "geometry": {"type": "Polygon", "coordinates": [[[-73.4661863557, 45.7245246469], [-73.4663152301, 45.7245831541], [-73.466311642, 45.7245872674], [-73.4635564655, 45.7276147967], [-73.4606977334, 45.7307580213], [-73.4589717488, 45.7326414814], [-73.4576831572, 45.7340552447], [-73.4575977913, 45.7341479993], [-73.4540252801, 45.7380701296], [-73.450215675, 45.7422532794], [-73.4501365599, 45.7423398386], [-73.4483643509, 45.7442786918], [-73.4482308544, 45.7442213138], [-73.4478149449, 45.7440408172], [-73.4474105854, 45.7438655496], [-73.4469013826, 45.7436509634], [-73.4468502613, 45.7436343886], [-73.446773139, 45.7436435919], [-73.4466989129, 45.7436721162], [-73.444136188, 45.7447746952], [-73.4439943338, 45.7448467199], [-73.4431889215, 45.7453152051], [-73.4430299786, 45.745364159], [-73.4419326007, 45.7456910563], [-73.4416582835, 45.7457677797], [-73.4415113461, 45.7458062711], [-73.4413787127, 45.7458226309], [-73.4412399705, 45.7458282733], [-73.4391202242, 45.745762877], [-73.438744831, 45.7457519624], [-73.4385122772, 45.7457204109], [-73.4383174794, 45.7456788798], [-73.4381594068, 45.7456366556], [-73.4379474313, 45.7455580986], [-73.4378292791, 45.745518413], [-73.4370090896, 45.7452429178], [-73.4369724692, 45.7452822263], [-73.436954657, 45.7453013463], [-73.4368784654, 45.7453900304], [-73.4367905271, 45.7454923867], [-73.4366813935, 45.7456194111], [-73.4363716656, 45.7454784745], [-73.435827, 45.7452304995], [-73.4226605108, 45.7393677102], [-73.4252540466, 45.7365521036], [-73.4281108482, 45.7337696032], [-73.4319257144, 45.7303851606], [-73.4351892123, 45.7276294118], [-73.4388202416, 45.723829724], [-73.4440616678, 45.7184912577], [-73.4489732283, 45.7143522783], [-73.4600436667, 45.7222444099], [-73.4609834042, 45.7226663533], [-73.4610328611, 45.7226885505], [-73.461137427, 45.7227353185], [-73.4615188956, 45.7224621597], [-73.4616262322, 45.7225093988], [-73.4636319087, 45.723403622], [-73.4661863557, 45.7245246469]]]}}, {"type": "Feature", "properties": {"district_id": "4"}, "geometry": {"type": "Polygon", "coordinates": [[[-73.4215686419, 45.7489188943], [-73.4217351338, 45.7464558166], [-73.4215644281, 45.7445210052], [-73.4213320646, 45.743135674], [-73.4217424289, 45.7411547511], [-73.4226415485, 45.7393882939], [-73.4226605108, 45.7393677102], [-73.435827, 45.7452304995], [-73.4363716656, 45.7454784745], [-73.4366813935, 45.7456194111], [-73.4367905271, 45.7454923867], [-73.4368784654, 45.7453900304], [-73.436954657, 45.7453013463], [-73.4369724692, 45.7452822263], [-73.4370090896, 45.7452429178], [-73.4378292791, 45.745518413], [-73.4379474313, 45.7455580986], [-73.4381594068, 45.7456366556], [-73.4383174794, 45.7456788798], [-73.4385122772, 45.7457204109], [-73.438744831, 45.7457519624], [-73.4391202242, 45.745762877], [-73.4412399705, 45.7458282733], [-73.4413787127, 45.7458226309], [-73.4415113461, 45.7458062711], [-73.4416582835, 45.7457677797], [-73.4419326007, 45.7456910563], [-73.4430299786, 45.745364159], [-73.4431889215, 45.7453152051], [-73.4439943338, 45.7448467199], [-73.444136188, 45.7447746952], [-73.4466989129, 45.7436721162], [-73.446773139, 45.7436435919], [-73.4468502613, 45.7436343886], [-73.4469013826, 45.7436509634], [-73.4474105854, 45.7438655496], [-73.4478149449, 45.7440408172], [-73.4482308544, 45.7442213138], [-73.4483643509, 45.7442786918], [-73.4474861657, 45.7452393811], [-73.44483801, 45.7481424755], [-73.444836354, 45.7481417404], [-73.4421108053, 45.7511302356], [-73.4401616495, 45.7532731323], [-73.438615098, 45.754973265], [-73.4355726175, 45.758313583], [-73.4330624816, 45.7610499365], [-73.4297409285, 45.7646912844], [-73.426102118, 45.7686797752], [-73.424197573, 45.7707670679], [-73.4236308578, 45.7713855806], [-73.4234654586, 45.7713117376], [-73.4202441557, 45.7698999489], [-73.420328511, 45.7698074929], [-73.4205394016, 45.7695763473], [-73.4205488922, 45.7695659419], [-73.420828056, 45.7692599631], [-73.4209485508, 45.7691278937], [-73.421000679, 45.7690707573], [-73.4210750729, 45.7689892066], [-73.4211229771, 45.7689367012], [-73.4212015943, 45.7688505275], [-73.4212452874, 45.7688026352], [-73.4213260032, 45.7687141602], [-73.421371808, 45.7686639568], [-73.4214546352, 45.7685731599], [-73.4214898936, 45.7685345206], [-73.4215769427, 45.7684391034], [-73.4216122009, 45.7684004551], [-73.4217076852, 45.7682957927], [-73.4217366078, 45.7682640864], [-73.4218299799, 45.7681617359], [-73.421861027, 45.7681277185], [-73.4219438527, 45.7680369231], [-73.4219854328, 45.7679913397], [-73.4220492779, 45.7679213527], [-73.4221098379, 45.7678549715], [-73.4221652356, 45.7677942466], [-73.4222342553, 45.7677185933], [-73.4222706702, 45.7676786768], [-73.4223586579, 45.7675822249], [-73.422376094, 45.7675631079], [-73.4225044232, 45.76742244], [-73.4226094585, 45.7673073006], [-73.4227251562, 45.7671804728], [-73.4227465193, 45.7671570654], [-73.4228558941, 45.7670371697], [-73.4228603751, 45.7670322508], [-73.4229742406, 45.766907437], [-73.4229866288, 45.7668938583], [-73.4230881083, 45.7667826222], [-73.4231173512, 45.7667505549], [-73.4232019625, 45.7666578072], [-73.4232523092, 45.7666026211], [-73.4232905265, 45.766560726], [-73.4233809186, 45.7664616285], [-73.423381189, 45.7664613317], [-73.4235179752, 45.7663113833], [-73.4235794331, 45.7662440122], [-73.4236065381, 45.7662143108], [-73.4236950994, 45.7661172274], [-73.4237857604, 45.7660178338], [-73.4238746314, 45.7659204184], [-73.4236686406, 45.7658306041], [-73.4234192074, 45.7657218554], [-73.4231431937, 45.7656014557], [-73.4229770485, 45.7655286372], [-73.4229741588, 45.7655273712], [-73.4229528159, 45.7655180212], [-73.422739505, 45.7654245281], [-73.4227037601, 45.7654088564], [-73.4225402628, 45.7653371908], [-73.4224547028, 45.765299692], [-73.4223944545, 45.7652732871], [-73.4223410071, 45.7652498629], [-73.4222056374, 45.7651905252], [-73.4221417674, 45.765162533], [-73.4220428535, 45.7651191797], [-73.4219565833, 45.7650813678], [-73.4219425142, 45.7650752035], [-73.4216864106, 45.7649629474], [-73.4216085627, 45.7649288246], [-73.4214584652, 45.7648630351], [-73.4211503682, 45.7647279913], [-73.4207277525, 45.7645427482], [-73.4206210105, 45.764491667], [-73.4208980649, 45.7642106763], [-73.4207882807, 45.764162673], [-73.4192896756, 45.763507386], [-73.4128072217, 45.7606724343], [-73.4129716035, 45.7605038087], [-73.413152709, 45.7603180258], [-73.4169100771, 45.756304908], [-73.4191969263, 45.7538434206], [-73.4208316069, 45.7511672759], [-73.4215686419, 45.7489188943]]]}}, {"type": "Feature", "properties": {"district_id": "5"}, "geometry": {"type": "Polygon", "coordinates": [[[-73.4088231614, 45.7647589675], [-73.4128072217, 45.7606724343], [-73.4192896756, 45.763507386], [-73.4207882807, 45.764162673], [-73.4208980649, 45.7642106763], [-73.4206210105, 45.764491667], [-73.4207277525, 45.7645427482], [-73.4211503682, 45.7647279913], [-73.4214584652, 45.7648630351], [-73.4216085627, 45.7649288246], [-73.4216864106, 45.7649629474], [-73.4219425142, 45.7650752035], [-73.4219565833, 45.7650813678], [-73.4220428535, 45.7651191797], [-73.4221417674, 45.765162533], [-73.4222056374, 45.7651905252], [-73.4223410071, 45.7652498629], [-73.4223944545, 45.7652732871], [-73.4224547028, 45.765299692], [-73.4225402628, 45.7653371908], [-73.4227037601, 45.7654088564], [-73.422739505, 45.7654245281], [-73.4229528159, 45.7655180212], [-73.4229741588, 45.7655273712], [-73.4229770485, 45.7655286372], [-73.4230517646, 45.7655613838], [-73.4231431937, 45.7656014557], [-73.4234192074, 45.7657218554], [-73.4236686406, 45.7658306041], [-73.4238746314, 45.7659204184], [-73.4237857604, 45.7660178338], [-73.4236950994, 45.7661172274], [-73.4236065381, 45.7662143108], [-73.4235794331, 45.7662440122], [-73.4235179752, 45.7663113833], [-73.423381189, 45.7664613317], [-73.4233809186, 45.7664616285], [-73.4232905265, 45.766560726], [-73.4232523092, 45.7666026211], [-73.4232019625, 45.7666578072], [-73.4231173512, 45.7667505549], [-73.4230881083, 45.7667826222], [-73.4229866288, 45.7668938583], [-73.4229742406, 45.766907437], [-73.4228603751, 45.7670322508], [-73.4228558941, 45.7670371697], [-73.4227465193, 45.7671570654], [-73.4227251562, 45.7671804728], [-73.4226094585, 45.7673073006], [-73.4225044232, 45.76742244], [-73.422376094, 45.7675631079], [-73.4223586579, 45.7675822249], [-73.4222706702, 45.7676786768], [-73.4222342553, 45.7677185933], [-73.4221652356, 45.7677942466], [-73.4221098379, 45.7678549715], [-73.4220492779, 45.7679213527], [-73.4219854328, 45.7679913397], [-73.4219438527, 45.7680369231], [-73.421861027, 45.7681277185], [-73.4218299799, 45.7681617359], [-73.4217366078, 45.7682640864], [-73.4217076852, 45.7682957927], [-73.4216122009, 45.7684004551], [-73.4215769427, 45.7684391034], [-73.4214898936, 45.7685345206], [-73.4214546352, 45.7685731599], [-73.421371808, 45.7686639568], [-73.4213260032, 45.7687141602], [-73.4212452874, 45.7688026352], [-73.4212015943, 45.7688505275], [-73.4211229771, 45.7689367012], [-73.4210750729, 45.7689892066], [-73.421000679, 45.7690707573], [-73.4209485508, 45.7691278937], [-73.420828056, 45.7692599631], [-73.4205488922, 45.7695659419], [-73.4205394016, 45.7695763466], [-73.420328511, 45.7698074929], [-73.4202441557, 45.7698999489], [-73.4234654586, 45.7713117376], [-73.4236308578, 45.7713855806], [-73.4215007071, 45.7737270913], [-73.4186457535, 45.7768466092], [-73.4162007346, 45.7795324263], [-73.4125392513, 45.7835482808], [-73.409972283, 45.7863583453], [-73.4087800951, 45.7876602967], [-73.4083412077, 45.7881065863], [-73.4075510106, 45.7889714031], [-73.4073262407, 45.7892216753], [-73.4071955031, 45.7891281351], [-73.4066378809, 45.7887291594], [-73.4061191061, 45.7883579717], [-73.4014661967, 45.784996009], [-73.4010062191, 45.7846636199], [-73.4004373702, 45.7842779021], [-73.4002532879, 45.7841466949], [-73.3997472053, 45.7837947897], [-73.3994522497, 45.7836707632], [-73.3992904637, 45.7836027354], [-73.3935217852, 45.7811767422], [-73.3946532946, 45.7798968702], [-73.3974644686, 45.7767167269], [-73.4028584933, 45.7709117738], [-73.4088231614, 45.7647589675]]]}}, {"type": "Feature", "properties": {"district_id": "6"}, "geometry": {"type": "Polygon", "coordinates": [[[-73.4238973296, 45.7865999707], [-73.4161888022, 45.7955954153], [-73.4156978595, 45.7952355761], [-73.4143150321, 45.7942213627], [-73.4106847518, 45.7916244736], [-73.4090708839, 45.7904698934], [-73.4087963822, 45.7902735043], [-73.4074724294, 45.7893262693], [-73.4073262407, 45.7892216753], [-73.4075510106, 45.7889714031], [-73.4083412077, 45.7881065863], [-73.4087800951, 45.7876602967], [-73.409972283, 45.7863583453], [-73.4125392513, 45.7835482808], [-73.4162007346, 45.7795324263], [-73.4186457535, 45.7768466092], [-73.4215007071, 45.7737270913], [-73.4236308578, 45.7713855806], [-73.4237962587, 45.7714594225], [-73.4269774672, 45.7728610243], [-73.4271917494, 45.7728942827], [-73.4273448491, 45.772887952], [-73.4274805193, 45.7728649268], [-73.4275044104, 45.7729725113], [-73.427634303, 45.7735574207], [-73.4277665992, 45.7742895179], [-73.4277806961, 45.7744387983], [-73.4277560264, 45.7745737707], [-73.4277252703, 45.7746801697], [-73.4276973532, 45.7747398268], [-73.4274482404, 45.775015678], [-73.4275545359, 45.7750634844], [-73.4305452925, 45.7763801075], [-73.4306549143, 45.7764572717], [-73.4307783765, 45.7765677529], [-73.4316830135, 45.776710409], [-73.432235213, 45.7769499433], [-73.4299846598, 45.7794965945], [-73.4282038751, 45.7815650356], [-73.4263015883, 45.7838264477], [-73.4238973296, 45.7865999707]]]}}, {"type": "Feature", "properties": {"district_id": "7"}, "geometry": {"type": "Polygon", "coordinates": [[[-73.4410551644, 45.7665489889], [-73.4412526675, 45.7665622107], [-73.4413049932, 45.7665655515], [-73.4416853235, 45.766589834], [-73.4417137106, 45.7665915095], [-73.4419615761, 45.7666061386], [-73.4421866856, 45.7666325702], [-73.4423322035, 45.7666496562], [-73.4427169947, 45.7667054278], [-73.4429613748, 45.7667484805], [-73.4431745707, 45.7667934007], [-73.4434487643, 45.7668577311], [-73.4437201835, 45.7669275914], [-73.4439886005, 45.767002923], [-73.4442396068, 45.7670791903], [-73.4444875348, 45.7671602422], [-73.444732198, 45.7672460177], [-73.4450359635, 45.7673587447], [-73.4451789915, 45.7674224338], [-73.4457338385, 45.7676626037], [-73.4460877136, 45.7678202733], [-73.4461331422, 45.7678405538], [-73.4462030733, 45.767871772], [-73.4465596884, 45.7680239527], [-73.4470974262, 45.7682539347], [-73.4474183402, 45.7683901906], [-73.4474532012, 45.7684049919], [-73.4475161579, 45.7684317225], [-73.4477458767, 45.7685270015], [-73.4479856361, 45.7686102597], [-73.4482298179, 45.7686781607], [-73.4484120723, 45.7687126455], [-73.4485809578, 45.7687446004], [-73.4489830161, 45.768799135], [-73.4490679505, 45.7688106552], [-73.4491741094, 45.7689596924], [-73.4500806659, 45.7692275399], [-73.4510140475, 45.7695033028], [-73.4509550812, 45.7696524438], [-73.4508093892, 45.7700457507], [-73.4506728715, 45.7704406666], [-73.450545563, 45.7708370853], [-73.4504274987, 45.7712349044], [-73.4503187099, 45.7716340159], [-73.4502192237, 45.7720343145], [-73.45012907, 45.7724356942], [-73.4500482711, 45.7728380478], [-73.4499768489, 45.7732412693], [-73.4499148219, 45.7736452533], [-73.4498622083, 45.7740498884], [-73.4496991268, 45.7751496324], [-73.4497707885, 45.7762461637], [-73.4498881312, 45.7770327185], [-73.4501960355, 45.7779744008], [-73.4503589399, 45.7784392388], [-73.4504575944, 45.7786094589], [-73.4504651769, 45.7786087387], [-73.4505033183, 45.7786883497], [-73.450649122, 45.7789399202], [-73.4508480273, 45.7798815479], [-73.4508469504, 45.7810852159], [-73.4506828075, 45.7818717566], [-73.4503917185, 45.782527045], [-73.4499917511, 45.7829678585], [-73.4493739745, 45.7833609019], [-73.4480114445, 45.7838607455], [-73.446667194, 45.7841700274], [-73.4449779609, 45.7844075804], [-73.4439969628, 45.7846454613], [-73.4426888844, 45.7851572551], [-73.4415984579, 45.7858479217], [-73.4408350811, 45.7863957913], [-73.4400777438, 45.7872984386], [-73.4395036158, 45.7880069061], [-73.4391253581, 45.7887069261], [-73.4389565549, 45.7891101263], [-73.4389079195, 45.7892263335], [-73.4381538216, 45.7889071258], [-73.4379924289, 45.7888387986], [-73.4378855257, 45.78879355], [-73.4377411358, 45.7887320593], [-73.4375677038, 45.7886583378], [-73.4371317404, 45.7884731921], [-73.4368973645, 45.7883736577], [-73.4365835143, 45.7882403724], [-73.4361559765, 45.7880588025], [-73.4359580746, 45.7879747559], [-73.4350248992, 45.7875784376], [-73.4278031799, 45.7844839984], [-73.4267741622, 45.7840430091], [-73.4263015883, 45.7838264477], [-73.4282038751, 45.7815650356], [-73.4299846598, 45.7794965945], [-73.432235213, 45.7769499433], [-73.4324028865, 45.7767601984], [-73.4333981206, 45.7755847058], [-73.4367946483, 45.771572557], [-73.4391436907, 45.7687973521], [-73.4404795659, 45.7672189777], [-73.4410551644, 45.7665489889]]]}}, {"type": "Feature", "properties": {"district_id": "8"}, "geometry": {"type": "Polygon", "coordinates": [[[-73.4275044104, 45.7729725113], [-73.4274805193, 45.7728649268], [-73.4273448491, 45.772887952], [-73.4271917494, 45.7728942827], [-73.4269774672, 45.7728610243], [-73.4237962587, 45.7714594225], [-73.4236308578, 45.7713855806], [-73.424197573, 45.7707670679], [-73.426102118, 45.7686797752], [-73.4297409285, 45.7646912844], [-73.4330624816, 45.7610499365], [-73.4355726175, 45.758313583], [-73.438615098, 45.754973265], [-73.4401616495, 45.7532731323], [-73.4402954169, 45.7533311181], [-73.4439926548, 45.754963433], [-73.4469312205, 45.7562523216], [-73.4490566253, 45.7571793554], [-73.4478068006, 45.7586304709], [-73.4454340779, 45.7614372389], [-73.4446746336, 45.7623355384], [-73.4442896526, 45.7627837335], [-73.4404795659, 45.7672189777], [-73.4391436907, 45.7687973521], [-73.4367946483, 45.771572557], [-73.4333981206, 45.7755847058], [-73.4324028865, 45.7767601984], [-73.432235213, 45.7769499433], [-73.4316830135, 45.776710409], [-73.4307783765, 45.7765677529], [-73.4306549143, 45.7764572717], [-73.4305452925, 45.7763801075], [-73.4275545359, 45.7750634844], [-73.4274482404, 45.775015678], [-73.4276973532, 45.7747398268], [-73.4277252703, 45.7746801697], [-73.4277560264, 45.7745737707], [-73.4277806961, 45.7744387983], [-73.4277665992, 45.7742895179], [-73.427634303, 45.7735574207], [-73.4275044104, 45.7729725113]]]}}, {"type": "Feature", "properties": {"district_id": "9"}, "geometry": {"type": "Polygon", "coordinates": [[[-73.480223777, 45.7356244755], [-73.4812162812, 45.7355568228], [-73.4808623429, 45.737373495], [-73.4808319303, 45.7376569558], [-73.4807914276, 45.7379397958], [-73.4807408606, 45.7382218413], [-73.4806802625, 45.7385029151], [-73.4806096693, 45.7387828435], [-73.4805291245, 45.7390614511], [-73.4804386794, 45.739338565], [-73.4803383906, 45.7396140124], [-73.480228317, 45.7398876234], [-73.4801085318, 45.7401592251], [-73.4799791057, 45.7404286502], [-73.4798401208, 45.7406957312], [-73.4796916632, 45.7409603008], [-73.479533824, 45.7412221943], [-73.4793667047, 45.7414812496], [-73.479190403, 45.7417373032], [-73.4790050255, 45.7419901919], [-73.4788106942, 45.7422397647], [-73.4786075325, 45.7424858667], [-73.4783956636, 45.7427283414], [-73.4781752214, 45.7429670421], [-73.4779463432, 45.7432018176], [-73.4777091679, 45.7434325221], [-73.4774638471, 45.7436590116], [-73.4772105312, 45.7438811465], [-73.4769493796, 45.7440987876], [-73.4766805529, 45.7443117996], [-73.4764042208, 45.7445200486], [-73.4761205518, 45.7447234076], [-73.4758297231, 45.744921748], [-73.4755319187, 45.7451149474], [-73.4752273225, 45.7453028843], [-73.4749161233, 45.7454854434], [-73.4745985153, 45.7456625115], [-73.4742746966, 45.7458339787], [-73.4739448677, 45.745999738], [-73.4736092344, 45.7461596849], [-73.4732680048, 45.7463137205], [-73.4729213901, 45.7464617485], [-73.4725445236, 45.7467641557], [-73.4721742996, 45.7470705611], [-73.4718108079, 45.7473808946], [-73.4714541336, 45.7476950817], [-73.4711043577, 45.7480130503], [-73.470761565, 45.7483347249], [-73.4704258328, 45.748660032], [-73.4700972421, 45.7489888942], [-73.4697758702, 45.7493212351], [-73.4694617918, 45.7496569773], [-73.4639771615, 45.7540073738], [-73.4620053767, 45.7557929767], [-73.4602877753, 45.7573482751], [-73.4575206977, 45.7609172527], [-73.4575144065, 45.7609253656], [-73.454352923, 45.7646117516], [-73.4522967079, 45.7670090505], [-73.4520195236, 45.7673321955], [-73.4518196928, 45.7677136757], [-73.4516287661, 45.7680973827], [-73.4514467938, 45.7684832167], [-73.4512738249, 45.7688710734], [-73.451109906, 45.7692608502], [-73.4510140475, 45.7695033028], [-73.4500806659, 45.7692275399], [-73.4491741094, 45.7689596924], [-73.4490679505, 45.7688106552], [-73.4489830161, 45.768799135], [-73.4485809578, 45.7687446004], [-73.4484120723, 45.7687126455], [-73.4482298179, 45.7686781607], [-73.4479856361, 45.7686102597], [-73.4477458767, 45.7685270015], [-73.4475161579, 45.7684317225], [-73.4474532012, 45.7684049919], [-73.4474183402, 45.7683901906], [-73.4470974262, 45.7682539347], [-73.4465596884, 45.7680239527], [-73.4462030733, 45.767871772], [-73.4461331422, 45.7678405538], [-73.4460877136, 45.7678202733], [-73.4457338385, 45.7676626037], [-73.4451789915, 45.7674224338], [-73.4450359635, 45.7673587447], [-73.444732198, 45.7672460177], [-73.4444875348, 45.7671602422], [-73.4442396068, 45.7670791903], [-73.4439886005, 45.767002923], [-73.4437201835, 45.7669275914], [-73.4434487643, 45.7668577311], [-73.4431745707, 45.7667934007], [-73.4429613748, 45.7667484805], [-73.4427169947, 45.7667054278], [-73.4423322035, 45.7666496562], [-73.4421866856, 45.7666325702], [-73.4419615761, 45.7666061386], [-73.4417137106, 45.7665915095], [-73.4416853235, 45.766589834], [-73.4413049932, 45.7665655515], [-73.4412526675, 45.7665622107], [-73.4410551644, 45.7665489889], [-73.4442896526, 45.7627837335], [-73.4446746336, 45.7623355384], [-73.4454340779, 45.7614372389], [-73.4478068006, 45.7586304709], [-73.4490566253, 45.7571793554], [-73.4509597851, 45.7549695098], [-73.4541317481, 45.7512715381], [-73.4586282724, 45.745997647], [-73.4634256171, 45.7410068828], [-73.4654052396, 45.738974431], [-73.4690869103, 45.7371184816], [-73.4691842895, 45.7370693884], [-73.4727315818, 45.7361348669], [-73.4744061383, 45.7360208449], [-73.4792903068, 45.7356880956], [-73.4795378242, 45.7356712274], [-73.480223777, 45.7356244755]]]}}, {"type": "Feature", "properties": {"district_id": "10"}, "geometry": {"type": "Polygon", "coordinates": [[[-73.4498622083, 45.7740498884], [-73.4499148219, 45.7736452533], [-73.4499768489, 45.7732412693], [-73.4500482711, 45.7728380478], [-73.45012907, 45.7724356942], [-73.4502192237, 45.7720343145], [-73.4503187099, 45.7716340159], [-73.4504274987, 45.7712349044], [-73.450545563, 45.7708370853], [-73.4506728715, 45.7704406666], [-73.4508093892, 45.7700457507], [-73.4509550812, 45.7696524438], [-73.451109906, 45.7692608502], [-73.4512738249, 45.7688710734], [-73.4514467938, 45.7684832167], [-73.4516287661, 45.7680973827], [-73.4518196928, 45.7677136757], [-73.4520195236, 45.7673321955], [-73.4522967079, 45.7670090505], [-73.454352923, 45.7646117516], [-73.4575144065, 45.7609253656], [-73.4575206977, 45.7609172527], [-73.4602877753, 45.7573482751], [-73.4620053767, 45.7557929767], [-73.4627717347, 45.7561549273], [-73.4628729816, 45.7562031096], [-73.4630374973, 45.7562808978], [-73.4632179221, 45.756368281], [-73.4633890174, 45.7564798782], [-73.4636406489, 45.7566009281], [-73.4640088527, 45.7567925119], [-73.4667258509, 45.7580831947], [-73.4669289814, 45.758198216], [-73.4671762357, 45.7583919267], [-73.4674277905, 45.7585432294], [-73.4688935087, 45.7592854153], [-73.469155964, 45.7593835919], [-73.4713131577, 45.7600907444], [-73.4716002096, 45.7601804598], [-73.4715340563, 45.7602849302], [-73.4714105581, 45.760479963], [-73.4697414783, 45.7631145973], [-73.4676037769, 45.7664885471], [-73.4674679555, 45.7667028997], [-73.4673637807, 45.7668674085], [-73.4646922842, 45.7710846166], [-73.4636545251, 45.7727204812], [-73.4631449967, 45.7735243183], [-73.4626263402, 45.7743425586], [-73.4626211786, 45.774350701], [-73.461910308, 45.775471959], [-73.4617799602, 45.7756775657], [-73.4615975436, 45.7759654674], [-73.4605534668, 45.7776123436], [-73.4595548932, 45.7791873859], [-73.4585402584, 45.7807876436], [-73.4583105176, 45.780608967], [-73.4543001496, 45.7774898121], [-73.4533196938, 45.7767235944], [-73.4518991246, 45.7756123715], [-73.4514896972, 45.7752871286], [-73.4512266806, 45.7750837356], [-73.4509533747, 45.7748632423], [-73.4505793784, 45.7745844707], [-73.4498622083, 45.7740498884]]]}}, {"type": "Feature", "properties": {"district_id": "11"}, "geometry": {"type": "Polygon", "coordinates": [[[-73.4676037769, 45.7664885471], [-73.4697414783, 45.7631145973], [-73.4714105581, 45.760479963], [-73.4715340563, 45.7602849302], [-73.4716002096, 45.7601804598], [-73.4721927055, 45.7603677815], [-73.4749286831, 45.7612370387], [-73.4749915183, 45.7611383226], [-73.475722283, 45.7600018401], [-73.476206843, 45.7592364702], [-73.47651035, 45.7593879976], [-73.4807102018, 45.7614846279], [-73.4807097414, 45.7614852485], [-73.4806510398, 45.761902165], [-73.4807248948, 45.7619390105], [-73.48082433, 45.7619886243], [-73.4809237771, 45.762038238], [-73.4810232114, 45.7620878427], [-73.4811226588, 45.7621374562], [-73.4811643732, 45.7621591726], [-73.4812220935, 45.7621870697], [-73.4813215425, 45.7622366741], [-73.4814209776, 45.7622862874], [-73.4815204257, 45.7623359006], [-73.4816198611, 45.7623855047], [-73.4817193095, 45.7624351178], [-73.4818187466, 45.7624847307], [-73.4819181953, 45.7625343436], [-73.4819664391, 45.7625584101], [-73.4820176315, 45.7625839474], [-73.4821000597, 45.7626250687], [-73.4821170806, 45.7626335601], [-73.4822165184, 45.7626831736], [-73.4822717715, 45.7627107332], [-73.4823159679, 45.7627327771], [-73.4824059777, 45.7627776866], [-73.4824154047, 45.7627823895], [-73.4825148545, 45.7628320019], [-73.4825211645, 45.7628351494], [-73.4826142917, 45.7628816051], [-73.4826319657, 45.7628904223], [-73.4827137432, 45.7629312173], [-73.4827473984, 45.7629480091], [-73.4828131807, 45.7629808294], [-73.4828790723, 45.7630136946], [-73.4829126313, 45.7630304324], [-73.4830120691, 45.7630800443], [-73.4830459508, 45.7630969467], [-73.48311152, 45.7631296561], [-73.483161653, 45.7631546681], [-73.4832109596, 45.7631792678], [-73.4833104108, 45.7632288705], [-73.4834098494, 45.763278482], [-73.4835092881, 45.7633280935], [-73.4836087412, 45.7633776959], [-73.4837081803, 45.7634273072], [-73.483855784, 45.7635009416], [-73.4843262832, 45.7632883581], [-73.484168705, 45.7635908227], [-73.4850410875, 45.7640279113], [-73.4855860285, 45.7639168277], [-73.4855328996, 45.7640007868], [-73.4854030039, 45.7642048087], [-73.4852864736, 45.764389593], [-73.4852285895, 45.7644350795], [-73.4849812397, 45.7646294467], [-73.484733838, 45.7648237927], [-73.4844865195, 45.7650181781], [-73.48433504, 45.7651372062], [-73.4821995485, 45.7668151365], [-73.4814522571, 45.7674021901], [-73.4795998017, 45.768855], [-73.4793845229, 45.7690238279], [-73.479078508, 45.7692638104], [-73.4624082194, 45.7838461508], [-73.4585402584, 45.7807876436], [-73.4595548932, 45.7791873859], [-73.4605534668, 45.7776123436], [-73.4615975436, 45.7759654674], [-73.4617799602, 45.7756775657], [-73.461910308, 45.775471959], [-73.4626211786, 45.774350701], [-73.4626263402, 45.7743425586], [-73.4631449967, 45.7735243183], [-73.4636545251, 45.7727204812], [-73.4646922842, 45.7710846166], [-73.4673637807, 45.7668674085], [-73.4674679555, 45.7667028997], [-73.4676037769, 45.7664885471]]]}}, {"type": "Feature", "properties": {"district_id": "12"}, "geometry": {"type": "Polygon", "coordinates": [[[-73.4806510398, 45.7619021655], [-73.4807097414, 45.7614852485], [-73.4807102018, 45.7614846279], [-73.47651035, 45.7593879976], [-73.476206843, 45.7592364702], [-73.475722283, 45.7600018401], [-73.4749915183, 45.7611383226], [-73.4749286831, 45.7612370387], [-73.4721927055, 45.7603677815], [-73.4716002096, 45.7601804598], [-73.4713131577, 45.7600907444], [-73.469155964, 45.7593835919], [-73.4688935087, 45.7592854153], [-73.4674277905, 45.7585432294], [-73.4671762357, 45.7583919267], [-73.4669289814, 45.758198216], [-73.4667258509, 45.7580831947], [-73.4640088527, 45.7567925119], [-73.4636406489, 45.7566009281], [-73.4633890174, 45.7564798782], [-73.4632179221, 45.756368281], [-73.4630374973, 45.7562808978], [-73.4628729816, 45.7562031096], [-73.4627717347, 45.7561549273], [-73.4620053767, 45.7557929767], [-73.4639771615, 45.7540073738], [-73.4694617918, 45.7496569773], [-73.4697758702, 45.7493212351], [-73.4700972421, 45.7489888942], [-73.4704258328, 45.748660032], [-73.470761565, 45.7483347249], [-73.4711043577, 45.7480130503], [-73.4714541336, 45.7476950817], [-73.4718108079, 45.7473808946], [-73.4721742996, 45.7470705611], [-73.4725445236, 45.7467641557], [-73.4729213901, 45.7464617485], [-73.4732680048, 45.7463137205], [-73.4736092344, 45.7461596849], [-73.4739448677, 45.745999738], [-73.4742746966, 45.7458339787], [-73.4745985153, 45.7456625115], [-73.4749161233, 45.7454854434], [-73.4752273225, 45.7453028843], [-73.4755319187, 45.7451149474], [-73.4758297231, 45.744921748], [-73.4761205518, 45.7447234076], [-73.4764042208, 45.7445200486], [-73.4766805529, 45.7443117996], [-73.4769493796, 45.7440987876], [-73.4772105312, 45.7438811465], [-73.4774638471, 45.7436590116], [-73.4777091679, 45.7434325221], [-73.4779463432, 45.7432018176], [-73.4781752214, 45.7429670421], [-73.4783956636, 45.7427283414], [-73.4786075325, 45.7424858667], [-73.4788106942, 45.7422397647], [-73.4790050255, 45.7419901919], [-73.479190403, 45.7417373032], [-73.4793667047, 45.7414812496], [-73.479533824, 45.7412221943], [-73.4796916632, 45.7409603008], [-73.4798401208, 45.7406957312], [-73.4799791057, 45.7404286502], [-73.4801085318, 45.7401592251], [-73.480228317, 45.7398876234], [-73.4803383906, 45.7396140124], [-73.4804386794, 45.739338565], [-73.4805291245, 45.7390614511], [-73.4806096693, 45.7387828435], [-73.4806802625, 45.7385029151], [-73.4807408606, 45.7382218413], [-73.4807914276, 45.7379397958], [-73.4808319303, 45.7376569558], [-73.4808623429, 45.737373495], [-73.4812162812, 45.7355568228], [-73.4821130538, 45.7323704001], [-73.4822521406, 45.7321281281], [-73.4823828715, 45.7318835853], [-73.4825051732, 45.731636914], [-73.4826189725, 45.7313882544], [-73.4827242052, 45.7311377506], [-73.4828208098, 45.7308855493], [-73.4829087348, 45.7306317953], [-73.4829879226, 45.7303766336], [-73.4830583321, 45.7301202125], [-73.4831199235, 45.7298626815], [-73.4831726571, 45.7296041882], [-73.4832165073, 45.7293448819], [-73.48434797, 45.729897229], [-73.4844666551, 45.7299551685], [-73.4846778786, 45.7300519605], [-73.4848222706, 45.7301268851], [-73.4851469114, 45.7302238783], [-73.4852188004, 45.7302429834], [-73.4855425829, 45.7303204487], [-73.4856245197, 45.7303644173], [-73.486526767, 45.7308485677], [-73.4868167465, 45.7310082713], [-73.4869729567, 45.7310942991], [-73.4871269012, 45.7311790775], [-73.4873821362, 45.7313050411], [-73.4875741899, 45.7313998226], [-73.487721559, 45.731472552], [-73.487766243, 45.7314946038], [-73.4879582992, 45.7315893847], [-73.4881503523, 45.7316841661], [-73.4883443742, 45.7317799165], [-73.4885217825, 45.7318674677], [-73.4887298223, 45.7319701348], [-73.4889379425, 45.7320728402], [-73.4891304113, 45.7321678216], [-73.4892728149, 45.7322380964], [-73.4894152177, 45.7323083693], [-73.4897129079, 45.7324552747], [-73.4898227364, 45.7325094718], [-73.4899049618, 45.7325500585], [-73.4899694522, 45.7325818895], [-73.4910760621, 45.7331415413], [-73.4914368624, 45.7333240047], [-73.4917895117, 45.7335023372], [-73.491982622, 45.7335999871], [-73.4922172948, 45.7337161351], [-73.4925050911, 45.7338585748], [-73.4926809373, 45.7339456056], [-73.4928728368, 45.7340405824], [-73.4930806857, 45.7341434503], [-73.4932885559, 45.7342463294], [-73.4934644456, 45.7343333806], [-73.4936083558, 45.7344046039], [-73.4936457811, 45.7344231249], [-73.4937522676, 45.7344758262], [-73.4938961785, 45.7345470491], [-73.4940400898, 45.7346182728], [-73.4941840014, 45.7346894954], [-73.4942772175, 45.7347356287], [-73.4943279121, 45.7347607178], [-73.4944718245, 45.7348319409], [-73.4946157372, 45.734903163], [-73.4947756407, 45.7349822985], [-73.4949068197, 45.7350472191], [-73.4949355433, 45.7350614328], [-73.4950954464, 45.7351405688], [-73.4952553512, 45.7352197045], [-73.4954152564, 45.7352988391], [-73.4955364263, 45.7353588052], [-73.4955751596, 45.7353779735], [-73.4957350645, 45.7354571076], [-73.4960169977, 45.7355966309], [-73.4961660399, 45.7356703887], [-73.4963299168, 45.7357514855], [-73.4965609302, 45.7358658067], [-73.4967956631, 45.7359819668], [-73.4968768038, 45.7360221193], [-73.4970367124, 45.7361012508], [-73.4971966227, 45.7361803828], [-73.4973565308, 45.7362595138], [-73.4975164433, 45.7363386454], [-73.4976603329, 45.7364098483], [-73.4978042538, 45.7364810663], [-73.4979641662, 45.7365601965], [-73.4981240792, 45.7366393263], [-73.4983630512, 45.7367575771], [-73.4987285811, 45.73693845], [-73.4990447983, 45.7370949194], [-73.4993193092, 45.7372307498], [-73.4994852384, 45.7373128535], [-73.4996511681, 45.7373949551], [-73.4998170996, 45.7374770583], [-73.499983029, 45.7375591594], [-73.5001489589, 45.7376412621], [-73.5003148905, 45.7377233655], [-73.500626993, 45.7378777934], [-73.5010029911, 45.7380638345], [-73.5010926488, 45.7379180724], [-73.5012811386, 45.7376116298], [-73.5013317879, 45.737529284], [-73.5013825083, 45.737446822], [-73.5014628777, 45.7373161548], [-73.5016062792, 45.7370830059], [-73.5016423201, 45.73702441], [-73.501830075, 45.7367191469], [-73.5018304801, 45.7367184884], [-73.5018306523, 45.7367185732], [-73.5019161614, 45.7366335883], [-73.5022974284, 45.7368192252], [-73.5102731187, 45.7407017692], [-73.5103117068, 45.7407205429], [-73.5114296554, 45.7412646736], [-73.5125514631, 45.7418106619], [-73.5140584289, 45.7425440652], [-73.5143197983, 45.742671272], [-73.5151914298, 45.7430954562], [-73.515811197, 45.7433970394], [-73.5158137476, 45.743396622], [-73.5162954681, 45.7436321007], [-73.5163252979, 45.7436466823], [-73.5164898649, 45.7437271271], [-73.5170229041, 45.7439876875], [-73.517048076, 45.7449323862], [-73.5170819297, 45.7454287314], [-73.5170958049, 45.7456321536], [-73.5171196157, 45.745981501], [-73.5167957427, 45.7471426019], [-73.5187957566, 45.7481195975], [-73.5209587235, 45.7491760997], [-73.520876922, 45.7498397796], [-73.521036981, 45.7499187827], [-73.5222969827, 45.7505406781], [-73.5224838199, 45.7506328921], [-73.5226702902, 45.750724924], [-73.5230432299, 45.750908988], [-73.5234078158, 45.751088925], [-73.5237724002, 45.7512688591], [-73.5245015773, 45.7516287246], [-73.5267653345, 45.7527458835], [-73.5280041571, 45.753357201], [-73.5279772143, 45.7536705102], [-73.5279759926, 45.7536847183], [-73.5279483032, 45.7540119395], [-73.527893239, 45.7546572388], [-73.5277868283, 45.7559043307], [-73.5276231175, 45.7578228518], [-73.5275704116, 45.7584404539], [-73.5275165657, 45.7590714274], [-73.5274584253, 45.7597527007], [-73.5274082708, 45.7603402666], [-73.5274077851, 45.7603460435], [-73.5273914511, 45.7605374083], [-73.5273633688, 45.7608664737], [-73.5273501917, 45.7610209369], [-73.5273407584, 45.7611314168], [-73.5273238103, 45.7613300171], [-73.5272974274, 45.7616390875], [-73.527245967, 45.762242058], [-73.5272190348, 45.76255758], [-73.5271921011, 45.7628731479], [-73.5271393346, 45.7634913702], [-73.5270865784, 45.7641095294], [-73.5270522298, 45.7645118938], [-73.5270294397, 45.7646770848], [-73.5269984744, 45.7649014216], [-73.52696113, 45.7651720557], [-73.5269468834, 45.7652753113], [-73.5269337369, 45.7654204973], [-73.5269113712, 45.7656676061], [-73.5268777768, 45.766038756], [-73.5266743838, 45.769305754], [-73.5266709259, 45.7693612276], [-73.5265824543, 45.7699261351], [-73.5265217215, 45.7704238119], [-73.5263559312, 45.7723434173], [-73.5262753281, 45.7732766656], [-73.5261602054, 45.7746094608], [-73.5260521966, 45.776319198], [-73.5260879445, 45.7763195317], [-73.5260938797, 45.7771842037], [-73.5260088598, 45.7776640782], [-73.5259088991, 45.7794726564], [-73.5258465248, 45.7802661962], [-73.5257215678, 45.781855912], [-73.5254911949, 45.7847863542], [-73.5254245891, 45.7856335589], [-73.5251025036, 45.7902160186], [-73.5249486397, 45.7924047169], [-73.5248977674, 45.7931283386], [-73.5248729143, 45.7934818752], [-73.5247990944, 45.7945319111], [-73.5247972001, 45.7945588622], [-73.52473146, 45.795493984], [-73.5247249103, 45.7955819226], [-73.5246453532, 45.796650155], [-73.5246176775, 45.7970217508], [-73.524614928, 45.7970585891], [-73.5245782911, 45.7975504545], [-73.5245673366, 45.7976975655], [-73.5245254645, 45.7982598743], [-73.524501244, 45.7985850335], [-73.5244877492, 45.7987662104], [-73.5244544736, 45.7992128962], [-73.524369679, 45.8003512139], [-73.5243526842, 45.8005793527], [-73.5242097596, 45.8024980078], [-73.5241288666, 45.8035838487], [-73.5240746344, 45.8043118243], [-73.5240069822, 45.8052199345], [-73.5239369599, 45.8061598239], [-73.5239350789, 45.8062708779], [-73.5239171669, 45.8073286131], [-73.5238993496, 45.8083806434], [-73.5238942846, 45.8086797201], [-73.5237972039, 45.8099571832], [-73.5235188263, 45.8136199484], [-73.5229549958, 45.8135978544], [-73.5216547381, 45.8135468937], [-73.5212645271, 45.8135311009], [-73.5204833041, 45.81349948], [-73.5197356717, 45.813469213], [-73.5197105682, 45.8134681879], [-73.5182085193, 45.8134068319], [-73.5170819899, 45.8133608023], [-73.5153520146, 45.8132900937], [-73.5128558201, 45.8114606075], [-73.5119575357, 45.8108022041], [-73.5118865371, 45.8108534854], [-73.5113666753, 45.8112289523], [-73.5108468079, 45.8116044348], [-73.5113654728, 45.812015844], [-73.511134898, 45.8121658363], [-73.510857916, 45.8123460027], [-73.5104751544, 45.8125949835], [-73.5103208379, 45.8126953633], [-73.5100523034, 45.8128700381], [-73.509648778, 45.8131325167], [-73.5093734847, 45.8133115816], [-73.511675674, 45.8151466852], [-73.5106717152, 45.8155756187], [-73.5103393882, 45.8157176016], [-73.5097013125, 45.8159902068], [-73.5093689805, 45.8161321779], [-73.5099508802, 45.816596019], [-73.5094360097, 45.8169668334], [-73.5089930137, 45.8174649371], [-73.5074971872, 45.8191467656], [-73.5043187414, 45.8174778866], [-73.5032377285, 45.81848936], [-73.5030516593, 45.818361088], [-73.5026181129, 45.818062209], [-73.5023362507, 45.8178678958], [-73.4959622293, 45.8134731468], [-73.4956796827, 45.8132783121], [-73.4939759961, 45.8121034666], [-73.4942362659, 45.8095005685], [-73.4942954313, 45.8089088269], [-73.4866271906, 45.8027653854], [-73.4863812158, 45.8025751089], [-73.4747755916, 45.7935954164], [-73.4742702177, 45.7932042978], [-73.4741564748, 45.7931454146], [-73.4740785437, 45.7931050698], [-73.4721329141, 45.7915336954], [-73.4629585854, 45.784281304], [-73.4624082194, 45.7838461508], [-73.479078508, 45.7692638104], [-73.4793845229, 45.7690238279], [-73.4795998017, 45.768855], [-73.4814522571, 45.7674021901], [-73.4821995485, 45.7668151365], [-73.4844865195, 45.7650181775], [-73.484733838, 45.7648237927], [-73.4849812397, 45.7646294467], [-73.4852285895, 45.7644350795], [-73.4852864736, 45.7643895925], [-73.4854030039, 45.7642048089], [-73.4855328996, 45.7640007868], [-73.4855860285, 45.7639168277], [-73.4850410875, 45.7640279113], [-73.484168705, 45.7635908227], [-73.4843262832, 45.7632883581], [-73.483855784, 45.7635009423], [-73.4837081803, 45.7634273072], [-73.4836087412, 45.7633776959], [-73.4835092881, 45.7633280935], [-73.4834098494, 45.763278482], [-73.4833104108, 45.7632288705], [-73.4832109596, 45.7631792678], [-73.483161653, 45.7631546681], [-73.48311152, 45.7631296561], [-73.4830459508, 45.7630969467], [-73.4830120691, 45.7630800443], [-73.4829126313, 45.7630304324], [-73.4828790723, 45.7630136946], [-73.4828131807, 45.7629808294], [-73.4827473984, 45.7629480091], [-73.4827137432, 45.7629312173], [-73.4826319657, 45.7628904223], [-73.4826142917, 45.7628816051], [-73.4825211645, 45.7628351494], [-73.4825148545, 45.7628320019], [-73.4824154047, 45.7627823895], [-73.4824059777, 45.7627776866], [-73.4823159679, 45.7627327771], [-73.4822717715, 45.7627107332], [-73.4822165184, 45.7626831736], [-73.4821170806, 45.7626335601], [-73.4821000597, 45.7626250687], [-73.4820176315, 45.7625839474], [-73.4819664391, 45.7625584101], [-73.4819181953, 45.7625343436], [-73.4818187466, 45.7624847307], [-73.4817193095, 45.7624351178], [-73.4816198611, 45.7623855047], [-73.4815204257, 45.7623359006], [-73.4814209776, 45.7622862874], [-73.4813215425, 45.7622366741], [-73.4812220935, 45.7621870697], [-73.4811643732, 45.7621591726], [-73.4811226588, 45.7621374562], [-73.4810232114, 45.7620878427], [-73.4809237771, 45.762038238], [-73.48082433, 45.7619886243], [-73.4807248948, 45.7619390105], [-73.4806510398, 45.7619021655]]]}}]}