{"type": "FeatureCollection", "features": [{"type": "Feature", "properties": {"district_id": "Swift Current"}, "geometry": {"type": "Polygon", "coordinates": [[[-107.7579607977039, 50.31975211639083], [-107.7579618039454, 50.31979084501344], [-107.75796545918081, 50.31993209515602], [-107.75796648991304, 50.31997173173937], [-107.75791243457046, 50.32000487683166], [-107.75780294488688, 50.32004080396084], [-107.75759441740244, 50.320164817473355], [-107.75737020394892, 50.32027490905638], [-107.75694267828193, 50.320470783925124], [-107.75677707046235, 50.32056519888922], [-107.75668600252051, 50.32066261268502], [-107.7566045719734, 50.32079788458346], [-107.756511181985, 50.32116227596243], [-107.75650141600525, 50.32120036959679], [-107.75650761617891, 50.32130749349937], [-107.75651325226028, 50.32140487069663], [-107.75655853789395, 50.32153137007909], [-107.7565667353408, 50.32155429395583], [-107.75658424920435, 50.321603209601854], [-107.75662799605954, 50.321716468148914], [-107.7566371977982, 50.32177785981445], [-107.75664009819697, 50.32179714025911], [-107.75665478068336, 50.321818983733934], [-107.7566888967817, 50.32186974533415], [-107.7567034093719, 50.32189132296978], [-107.75673777191454, 50.32194245651852], [-107.75680875612794, 50.322140786591625], [-107.75683600743383, 50.322225866833506], [-107.7569045151125, 50.32238140118517], [-107.75705639346567, 50.32256352682851], [-107.75714415529937, 50.3226662145334], [-107.7572462400199, 50.32275903607811], [-107.75738490199932, 50.322841472284196], [-107.75749964404191, 50.322895897407385], [-107.75777533097428, 50.323032220307965], [-107.75805081166915, 50.32320231645837], [-107.75805135448911, 50.32322284922987], [-107.75805552750369, 50.32338466865641], [-107.75808044067072, 50.324336427757615], [-107.75808626037147, 50.32456063663321], [-107.76928865251118, 50.324534985842035], [-107.76957118159001, 50.324534278604276], [-107.77018911928052, 50.32453367028475], [-107.77047504723151, 50.32453341953975], [-107.77353889938888, 50.32453019108824], [-107.77516484914382, 50.3245284462465], [-107.77666362838549, 50.324526821243275], [-107.78075850029474, 50.32452227270573], [-107.7807233379336, 50.32090980026419], [-107.78068819192289, 50.31729732573246], [-107.78191435575444, 50.31729658736748], [-107.79163721847605, 50.31729025826061], [-107.79194448868033, 50.31729004417967], [-107.79222690037865, 50.317290453702505], [-107.7924066553946, 50.317289191963454], [-107.79240647180089, 50.313569095361885], [-107.79240630174749, 50.310052745486246], [-107.79240640637997, 50.30987238248482], [-107.79268876879016, 50.30987270178448], [-107.79345819078739, 50.309873903847276], [-107.79788659535737, 50.30988041248447], [-107.80354562032272, 50.30988863581564], [-107.80957682274743, 50.30989558912298], [-107.81486389868037, 50.30990146042935], [-107.81514626449459, 50.30990181495874], [-107.81892890250569, 50.309905175842964], [-107.81923092685795, 50.30990540324908], [-107.82080074562744, 50.30990672521018], [-107.8264553817887, 50.30991130218509], [-107.82649773384657, 50.309911306268], [-107.82698642058523, 50.30991137971672], [-107.82726593061045, 50.30991141442472], [-107.82775297342079, 50.309911479674554], [-107.82783767749775, 50.30991148687871], [-107.82792238210541, 50.3099115030037], [-107.82835947309529, 50.30991155822861], [-107.83177378728467, 50.30991222248998], [-107.83178215949357, 50.309912225313276], [-107.83178918300108, 50.309912225028796], [-107.83179620650859, 50.30991222474388], [-107.83180321598931, 50.30991222480047], [-107.83181023949676, 50.309912224514704], [-107.83181726300421, 50.30991222422853], [-107.83182427248491, 50.30991222428383], [-107.8318312959923, 50.30991222399681], [-107.83183830600687, 50.309912233033856], [-107.83184532951424, 50.309912232745965], [-107.83185235302159, 50.30991223245766], [-107.83185936250219, 50.30991223251086], [-107.83186718660072, 50.309912230697606], [-107.8318741960813, 50.3099122307499], [-107.83188121958858, 50.309912230459865], [-107.83188822906911, 50.3099122305113], [-107.83189525311026, 50.309912239202966], [-107.83190227661751, 50.309912238911664], [-107.831909286098, 50.30991223896185], [-107.83191630960518, 50.30991223866967], [-107.83192333311234, 50.309912238377095], [-107.8319303425928, 50.30991223842598], [-107.83193736609992, 50.309912238132554], [-107.83194438960705, 50.30991223783869], [-107.83195139908743, 50.309912237886316], [-107.83195842259452, 50.3099122375916], [-107.8319654326088, 50.30991224662097], [-107.83197245611585, 50.3099122463254], [-107.8319794796229, 50.309912246029405], [-107.8319864891032, 50.30991224607492], [-107.8319935126102, 50.30991224577809], [-107.8320005361172, 50.309912245480824], [-107.83200754559743, 50.30991224552509], [-107.83201456910437, 50.30991224522697], [-107.83202159261131, 50.30991224492843], [-107.83202860209151, 50.309912244971414], [-107.83203562559841, 50.30991224467203], [-107.83204263561251, 50.30991225369673], [-107.83204965911936, 50.30991225339648], [-107.83205668262622, 50.30991225309584], [-107.83206369210633, 50.309912253136694], [-107.83207071561314, 50.30991225283519], [-107.83207773911994, 50.30991225253327], [-107.83208474859998, 50.30991225257286], [-107.83209177210674, 50.30991225227006], [-107.83209878158677, 50.3099122523088], [-107.83210580509349, 50.3099122520052], [-107.83211282913418, 50.30991226068369], [-107.83211983861413, 50.309912260721184], [-107.83212686212082, 50.30991226041629], [-107.83213388562747, 50.30991226011095], [-107.83214089510736, 50.30991226014716], [-107.832147918614, 50.30991225984098], [-107.83215494212061, 50.30991225953438], [-107.83216195160047, 50.309912259569316], [-107.83216897510704, 50.30991225926186], [-107.83217598458685, 50.309912259295935], [-107.83218300862738, 50.309912267970226], [-107.8321900321339, 50.30991226766152], [-107.83219704161368, 50.3099122676943], [-107.83220406512017, 50.30991226738474], [-107.83221108862664, 50.30991226707476], [-107.83221809810635, 50.309912267106284], [-107.83222512161278, 50.30991226679546], [-107.83223214511919, 50.3099122664842], [-107.83223915459887, 50.309912266514466], [-107.83224617810525, 50.309912266202325], [-107.83225318811888, 50.30991227521436], [-107.83226021162521, 50.30991227490137], [-107.83226723513155, 50.30991227458798], [-107.83227424461114, 50.30991227461613], [-107.83228126811743, 50.309912274301894], [-107.8322882916237, 50.30991227398723], [-107.83229530110324, 50.30991227401412], [-107.83230232460949, 50.30991227369861], [-107.83230934811571, 50.30991227338265], [-107.8323163575952, 50.3099122734083], [-107.8323233816354, 50.30991228207407], [-107.83233039111484, 50.30991228209882], [-107.832337414621, 50.309912281781216], [-107.83234443812714, 50.30991228146316], [-107.83235144760654, 50.30991228148664], [-107.83236014296233, 50.30991228538545], [-107.83236716646842, 50.309912285066005], [-107.83237418997449, 50.30991228474615], [-107.8323811994538, 50.30991228476784], [-107.83238822295985, 50.30991228444714], [-107.83239524646585, 50.30991228412603], [-107.83240225594511, 50.30991228414644], [-107.83240927945107, 50.30991228382447], [-107.83241628893032, 50.30991228384406], [-107.83242331243628, 50.30991228352123], [-107.83243033647622, 50.309912292180535], [-107.83243734595544, 50.30991229219887], [-107.83244436946133, 50.30991229187477], [-107.83245139296717, 50.309912291550226], [-107.8324584024463, 50.30991229156727], [-107.83246542595215, 50.309912291241886], [-107.83247243543126, 50.30991229125808], [-107.83247945893706, 50.30991229093188], [-107.83248648244283, 50.30991229060523], [-107.83249349192188, 50.30991229062014], [-107.83250051596167, 50.309912299275204], [-107.83250753946741, 50.30991229894731], [-107.83251454894642, 50.30991229896096], [-107.83252157245211, 50.30991229863216], [-107.83252859595778, 50.30991229830299], [-107.83253560543675, 50.30991229831537], [-107.83254262894239, 50.30991229798532], [-107.83254963842131, 50.309912297996874], [-107.83255666192692, 50.309912297665974], [-107.83256368543252, 50.309912297334655], [-107.83257069544541, 50.30991230632749], [-107.83257771895099, 50.309912305995326], [-107.83258474245652, 50.309912305662735], [-107.83259175193533, 50.30991230567176], [-107.83259877544083, 50.309912305338294], [-107.83260579894633, 50.30991230500444], [-107.83261280842508, 50.30991230501217], [-107.83261983193053, 50.309912304677454], [-107.83262684140925, 50.30991230468432], [-107.83263386491468, 50.309912304348764], [-107.8326416755184, 50.30991231180792], [-107.83264869902378, 50.30991231147147], [-107.83265572252917, 50.30991231113457], [-107.83266273200779, 50.3099123111393], [-107.83266975551312, 50.30991231080156], [-107.83267676499172, 50.30991231080543], [-107.83268378849704, 50.30991231046685], [-107.8326908120023, 50.30991231012786], [-107.83269782148083, 50.309912310130436], [-107.83270484552018, 50.309912318773165], [-107.8327118690254, 50.30991231843289], [-107.83271887850388, 50.30991231843421], [-107.83272590200909, 50.30991231809309], [-107.83273292551426, 50.30991231775153], [-107.8327399349927, 50.30991231775159], [-107.83274695849782, 50.309912317409164], [-107.83275396797627, 50.3099123174084], [-107.83276099148138, 50.30991231706515], [-107.83276801498646, 50.309912316721466], [-107.83277502499891, 50.30991232570198], [-107.83278204850397, 50.309912325357466], [-107.83278907200899, 50.30991232501251], [-107.8327960814873, 50.30991232500917], [-107.83280310499232, 50.30991232466339], [-107.8328101284973, 50.30991232431716], [-107.83281713797554, 50.30991232431257], [-107.83282416148049, 50.30991232396549], [-107.83283117095873, 50.30991232396003], [-107.83283819446363, 50.30991232361211], [-107.83284521850263, 50.30991233224636], [-107.83285222798081, 50.30991233223963], [-107.83285925148569, 50.309912331890445], [-107.83286627499054, 50.30991233154083], [-107.83287328446863, 50.30991233153283], [-107.83288030797345, 50.30991233118237], [-107.83288733147826, 50.30991233083149], [-107.83289434095632, 50.309912330822215], [-107.83290136446108, 50.30991233047049], [-107.8329083739391, 50.30991233046038], [-107.83291539744383, 50.30991233010778], [-107.83292242148265, 50.30991233873734], [-107.83292943096063, 50.309912338725965], [-107.83293645446531, 50.30991233837211], [-107.83294347796996, 50.30991233801781], [-107.83295048744789, 50.309912338005184], [-107.83295751095251, 50.309912337650054], [-107.8329645344571, 50.30991233729447], [-107.832971543935, 50.30991233728056], [-107.83297856743957, 50.30991233692416], [-107.8329855769174, 50.309912336909356], [-107.83299260095608, 50.3099123455347], [-107.83299962446058, 50.30991234517703], [-107.83300663393837, 50.309912345160974], [-107.83301365744286, 50.309912344802456], [-107.83302068094733, 50.309912344443525], [-107.83302769042506, 50.30991234442618], [-107.8330347139295, 50.309912344066404], [-107.83304172340719, 50.309912344048236], [-107.83304874691159, 50.30991234368758], [-107.83305577041597, 50.309912343326516], [-107.83306278042777, 50.30991235228965], [-107.83306980393209, 50.30991235192772], [-107.83307682743643, 50.30991235156539], [-107.83308383691404, 50.309912351544675], [-107.83309086041835, 50.3099123511815], [-107.8330978839226, 50.30991235081787], [-107.83310489340016, 50.30991235079591], [-107.8331119169044, 50.30991235043144], [-107.83311892638189, 50.3099123504086], [-107.83312594988611, 50.309912350043305], [-107.83313432209111, 50.30991235276916], [-107.83314134559527, 50.30991235240291], [-107.83314836909943, 50.309912352036235], [-107.83315537911102, 50.30991236099379], [-107.83316240261514, 50.30991236062627], [-107.83316942611924, 50.309912360258316], [-107.8331764355966, 50.309912360232026], [-107.83318345910067, 50.30991235986324], [-107.8331904826047, 50.30991235949401], [-107.83319749208205, 50.309912359466466], [-107.83320451558606, 50.3099123590964], [-107.83321152506333, 50.30991235906798], [-107.83321934969227, 50.309912366146214], [-107.83322635916952, 50.309912366116926], [-107.83323338267346, 50.309912365745106], [-107.83324040617738, 50.30991236537287], [-107.83324741565458, 50.30991236534231], [-107.83325443915845, 50.30991236496922], [-107.83326144863562, 50.30991236493781], [-107.83326847213947, 50.30991236456387], [-107.8332754956433, 50.3099123641895], [-107.83328250512042, 50.3099123641568], [-107.83328952915839, 50.30991237276418], [-107.83329655266218, 50.30991237238854], [-107.83330356213926, 50.30991237235459], [-107.833310585643, 50.3099123719781], [-107.83331760914673, 50.30991237160119], [-107.83332461862375, 50.30991237156595], [-107.83333164212743, 50.309912371188204], [-107.83333865160441, 50.30991237115212], [-107.83334567510808, 50.30991237077351], [-107.83335269861172, 50.30991237039449], [-107.83335970862284, 50.309912379339714], [-107.83336673212645, 50.309912378959844], [-107.83337375563005, 50.30991237857953], [-107.83338076510691, 50.30991237854092], [-107.83338778861048, 50.30991237815978], [-107.83339481211398, 50.3099123777782], [-107.83340182159083, 50.309912377738314], [-107.83340884509434, 50.309912377355886], [-107.83341585457113, 50.30991237731514], [-107.83342287807459, 50.30991237693189], [-107.83342990211227, 50.30991238553076], [-107.83343691158899, 50.309912385488744], [-107.8334439350924, 50.3099123851042], [-107.8334509585958, 50.30991238471924], [-107.8334579680725, 50.30991238467594], [-107.83346499157585, 50.30991238429015], [-107.8334720150792, 50.30991238390389], [-107.83347902455583, 50.30991238385933], [-107.83348604805914, 50.30991238347226], [-107.83349305753575, 50.30991238342686], [-107.83350008157323, 50.309912392021474], [-107.83350710507652, 50.30991239163312], [-107.83351411455304, 50.30991239158644], [-107.83352113805628, 50.30991239119723], [-107.8335281615595, 50.309912390807604], [-107.83353517103598, 50.30991239075966], [-107.83354219453916, 50.30991239036918], [-107.83354920401561, 50.309912390320385], [-107.83355622751876, 50.30991238992906], [-107.83356325102189, 50.30991238953729], [-107.83357026049828, 50.30991238948724], [-107.83357728453561, 50.3099123980772], [-107.83358430803868, 50.30991239768418], [-107.83359131751504, 50.30991239763283], [-107.83359834101806, 50.309912397238975], [-107.83360536452108, 50.30991239684466], [-107.83361237399738, 50.30991239679205], [-107.83361939750037, 50.30991239639691], [-107.83362640697665, 50.309912396343464], [-107.8336334304796, 50.30991239594745], [-107.83364045398253, 50.309912395551045], [-107.83364746399299, 50.30991240447889], [-107.83365448749588, 50.30991240408161], [-107.83366151099877, 50.3099124036839], [-107.83366852047492, 50.30991240362792], [-107.83367554397779, 50.30991240322937], [-107.83368256748061, 50.309912402830385], [-107.83368957695671, 50.309912402773136], [-107.83369660045952, 50.309912402373314], [-107.83370360993558, 50.30991240231522], [-107.83371230528736, 50.3099124061128], [-107.83371932879011, 50.3099124057116], [-107.83372635229284, 50.30991240530998], [-107.83373336176885, 50.309912405250074], [-107.83374038527153, 50.309912404847616], [-107.8337474087742, 50.309912404444724], [-107.83375441878441, 50.3099124133661], [-107.83376144228707, 50.30991241296237], [-107.83376846578967, 50.309912412558205], [-107.83377547526557, 50.309912412495756], [-107.83378249876814, 50.30991241209075], [-107.83378950824401, 50.30991241202746], [-107.83379653174656, 50.309912411621596], [-107.83380355524908, 50.3099124112153], [-107.8338105647249, 50.30991241115075], [-107.83381758822738, 50.30991241074361], [-107.83382461226415, 50.3099124193186], [-107.8338316217399, 50.30991241925279], [-107.83383864524235, 50.30991241884436], [-107.83384566874477, 50.30991241843552], [-107.8338526782205, 50.30991241836844], [-107.83385970172289, 50.309912417958756], [-107.83386671119855, 50.30991241789079], [-107.83387373470092, 50.30991241748026], [-107.83388075820326, 50.30991241706931], [-107.83388776767887, 50.309912417000085], [-107.8338947917155, 50.30991242557086], [-107.83390181521777, 50.30991242515863], [-107.83390882469334, 50.30991242508813], [-107.83391584819559, 50.30991242467506], [-107.83392287169781, 50.30991242426155], [-107.83392988117336, 50.30991242418979], [-107.83393690467553, 50.30991242377544], [-107.83394391415102, 50.309912423702826], [-107.83395093765317, 50.30991242328763], [-107.83395796115533, 50.30991242287201], [-107.83396497116509, 50.3099124317807], [-107.8339719946672, 50.30991243136421], [-107.8339790181693, 50.30991243094732], [-107.83398602764467, 50.30991243087218], [-107.83399383771057, 50.30991242925785], [-107.83400086121262, 50.30991242883962], [-107.83400788471464, 50.309912428420986], [-107.83401489418993, 50.309912428344084], [-107.83402191769193, 50.30991242792461], [-107.83402894172823, 50.30991243648724], [-107.83403595120349, 50.30991243640908], [-107.83404297470541, 50.30991243598831], [-107.83404998418065, 50.309912435909304], [-107.83405700768256, 50.30991243548771], [-107.83406403118444, 50.30991243506564], [-107.83407104065961, 50.30991243498537], [-107.83407806416147, 50.3099124345625], [-107.8340850876633, 50.309912434139186], [-107.83409209713841, 50.309912434057615], [-107.83409912117452, 50.30991244261605], [-107.83410614467633, 50.30991244219145], [-107.8341131541514, 50.30991244210862], [-107.83412017765313, 50.309912441683196], [-107.83412718712816, 50.309912441599515], [-107.83413421062987, 50.30991244117324], [-107.83414123413158, 50.309912440746544], [-107.83414824360655, 50.3099124406616], [-107.83415526710823, 50.309912440234044], [-107.83416229060985, 50.30991243980606], [-107.83416930061914, 50.309912448702406], [-107.83417632412075, 50.30991244827358], [-107.83418334762234, 50.30991244784434], [-107.83419035709721, 50.30991244775686], [-107.83419738059878, 50.309912447326745], [-107.83420439007361, 50.3099124472384], [-107.83421141357513, 50.30991244680748], [-107.83421843707664, 50.309912446376096], [-107.83422544655143, 50.3099124462865], [-107.8342324700529, 50.309912445854295], [-107.8342394940887, 50.30991245440419], [-107.83424650356345, 50.30991245431331], [-107.83425352706486, 50.30991245387983], [-107.83426055056626, 50.3099124534459], [-107.83426756004093, 50.30991245335375], [-107.83427458354231, 50.30991245291902], [-107.83428159301697, 50.30991245282601], [-107.8342886165183, 50.30991245239039], [-107.83429564001962, 50.30991245195436], [-107.83430264949422, 50.30991245186009], [-107.83430967352986, 50.309912460405755], [-107.83431669703113, 50.309912459968444], [-107.83432370650567, 50.30991245987292], [-107.8343307300069, 50.30991245943474], [-107.8343377535081, 50.309912458996166], [-107.83434476298258, 50.30991245889936], [-107.83435178648377, 50.30991245845993], [-107.83435879595822, 50.309912458362284], [-107.83436581945936, 50.309912457922], [-107.83437284296049, 50.30991245748128], [-107.83437985243489, 50.30991245738238], [-107.83438687647039, 50.309912465923354], [-107.83439389997146, 50.30991246548139], [-107.83440090944579, 50.30991246538118], [-107.83440793294685, 50.309912464938364], [-107.83441495644786, 50.30991246449509], [-107.83442196592216, 50.30991246439364], [-107.83442898942313, 50.309912463949544], [-107.83443599889739, 50.30991246384722], [-107.83444302239836, 50.30991246340227], [-107.83445004589927, 50.3099124629569], [-107.8344570559079, 50.3099124718359], [-107.8344640794088, 50.30991247138964], [-107.83447110290969, 50.309912470943004], [-107.83447811238385, 50.30991247083815], [-107.83448649861167, 50.30991247312431], [-107.83449350808579, 50.30991247301853], [-107.83450053158658, 50.30991247257011], [-107.8345075410607, 50.309912472463495], [-107.83451456456146, 50.3099124720142], [-107.83452158806222, 50.3099124715645], [-107.83452859753626, 50.309912471456606], [-107.83453562103699, 50.30991247100605], [-107.83454264453768, 50.30991247055508], [-107.83454965454608, 50.30991247942846], [-107.83455667804675, 50.30991247897663], [-107.83456370154741, 50.30991247852438], [-107.8345715116117, 50.30991247687122], [-107.8345785210856, 50.30991247676031], [-107.8345855445862, 50.30991247630673], [-107.83459256808678, 50.30991247585275], [-107.83459957756067, 50.30991247574055], [-107.83460660159567, 50.30991248426827], [-107.83461362509617, 50.309912483812994], [-107.83462063456997, 50.30991248369956], [-107.83462765807047, 50.30991248324344], [-107.83463466754424, 50.30991248312913], [-107.83464169104471, 50.30991248267218], [-107.83464871454515, 50.30991248221479], [-107.83465572401886, 50.30991248209921], [-107.83466274751927, 50.30991248164098], [-107.83466977101966, 50.3099124811823], [-107.83467678049334, 50.30991248106548], [-107.83468380452814, 50.30991248958853], [-107.83469082802847, 50.30991248912858], [-107.8346978375021, 50.309912489010465], [-107.8347048610024, 50.3099124885497], [-107.834711870476, 50.30991248843073], [-107.83471889397624, 50.30991248796909], [-107.8347259174765, 50.30991248750703], [-107.83473292695004, 50.30991248738683], [-107.83473995045027, 50.309912486923906], [-107.83474697395046, 50.30991248646058], [-107.8347539839584, 50.30991249532163], [-107.83476100745854, 50.30991249485744], [-107.8347680309587, 50.30991249439283], [-107.83477504043213, 50.30991249427008], [-107.83478206393224, 50.30991249380461], [-107.83478907340563, 50.30991249368099], [-107.8347960969057, 50.309912493214725], [-107.83480312040577, 50.30991249274798], [-107.83481012987912, 50.309912492623084], [-107.83481715337913, 50.30991249215551], [-107.83482417741362, 50.30991250067007], [-107.83483118688692, 50.309912500543895], [-107.83483821038689, 50.30991250007508], [-107.83484523388684, 50.30991249960578], [-107.83485224336007, 50.30991249947835], [-107.83485926686, 50.30991249900825], [-107.8348662763332, 50.309912498879974], [-107.83487329983308, 50.309912498408984], [-107.83488032333295, 50.3099124979376], [-107.8348873328061, 50.309912497808064], [-107.83489435684044, 50.30991250631837], [-107.83490138034024, 50.30991250584571], [-107.83490838981335, 50.30991250571489], [-107.83491541331313, 50.30991250524136], [-107.83492243681289, 50.30991250476743], [-107.83492944628594, 50.30991250463534], [-107.83493646978566, 50.30991250416054], [-107.83494347925868, 50.30991250402762], [-107.83495050275837, 50.30991250355198], [-107.83495752625805, 50.3099125030759], [-107.8349645362655, 50.30991251192425], [-107.83497155976515, 50.30991251144734], [-107.83497858326477, 50.30991251097001], [-107.8349855927377, 50.309912510834536], [-107.83499261623729, 50.30991251035637], [-107.83499963973685, 50.30991250987774], [-107.8350066492097, 50.30991250974099], [-107.83501367270924, 50.30991250926154], [-107.83502068218208, 50.30991250912395], [-107.83502770568155, 50.309912508643635], [-107.83503472918106, 50.309912508162924], [-107.83504173918836, 50.3099125170066], [-107.83504876268779, 50.309912516525], [-107.83505578618721, 50.30991251604301], [-107.83506448100047, 50.30991251075681], [-107.83507149100771, 50.309912519598704], [-107.83507851450707, 50.309912519115315], [-107.83508553800644, 50.309912518631506], [-107.83509254747906, 50.30991251848958], [-107.83509957097841, 50.30991251800494], [-107.83510659447771, 50.30991251751984], [-107.83511360395029, 50.30991251737666], [-107.83512062744957, 50.309912516890726], [-107.83512763692214, 50.30991251674667], [-107.83513466042137, 50.30991251625991], [-107.83514168445514, 50.30991252475526], [-107.83514869392765, 50.309912524609935], [-107.83515571742683, 50.30991252412189], [-107.835162740926, 50.30991252363343], [-107.83516975039845, 50.30991252348683], [-107.8351767738976, 50.30991252299752], [-107.8351837973967, 50.30991252250775], [-107.83519080686911, 50.30991252235991], [-107.83519783036817, 50.30991252186931], [-107.83520483984057, 50.30991252172061], [-107.83521186387415, 50.30991253021171], [-107.83521888737317, 50.30991252971985], [-107.83522589684549, 50.30991252956987], [-107.83523292034447, 50.30991252907715], [-107.83523994384346, 50.309912528584015], [-107.83524695331572, 50.30991252843279], [-107.83525397681468, 50.30991252793878], [-107.8352610003136, 50.30991252744435], [-107.83526800978582, 50.30991252729185], [-107.8352750332847, 50.30991252679658], [-107.83528204275687, 50.309912526643195], [-107.83528906679031, 50.309912535129655], [-107.83529609028912, 50.30991253463311], [-107.83530309976126, 50.30991253447847], [-107.83531012326006, 50.3099125339811], [-107.83531714675885, 50.30991253348329], [-107.83532415623093, 50.30991253332739], [-107.83533117972966, 50.309912532828726], [-107.8353382032284, 50.30991253232963], [-107.83534601382512, 50.30991253960694], [-107.8353530232971, 50.30991253944929], [-107.8353600467958, 50.309912538948886], [-107.83536707029445, 50.30991253844807], [-107.83537407976641, 50.30991253828913], [-107.83538110326504, 50.30991253778746], [-107.83538812676366, 50.309912537285356], [-107.83539513623555, 50.30991253712517], [-107.83540215973412, 50.30991253662223], [-107.83540916920599, 50.30991253646119], [-107.83541619323911, 50.30991254493993], [-107.83542321673762, 50.30991254443573], [-107.83543022620945, 50.309912544273416], [-107.83543724970795, 50.30991254376833], [-107.8354442732064, 50.30991254326285], [-107.83545128267816, 50.30991254309927], [-107.83545830617659, 50.309912542592926], [-107.83546532967502, 50.30991254208616], [-107.83547233914673, 50.309912541921314], [-107.8354793626451, 50.30991254141368], [-107.83548637265139, 50.30991255023053], [-107.83549339614974, 50.30991254972208], [-107.83550041964807, 50.30991254921318], [-107.8355074291197, 50.30991254904621], [-107.83551445261797, 50.309912548536495], [-107.83552147611627, 50.3099125480263], [-107.83552848558784, 50.30991254785806], [-107.83553550908609, 50.30991254734707], [-107.8355425325843, 50.309912546835626], [-107.83554954205582, 50.309912546666105], [-107.83555656555401, 50.309912546153825], [-107.83556357556012, 50.309912554966026], [-107.83557059905826, 50.30991255445288], [-107.83557762255641, 50.309912553939334], [-107.83558463202786, 50.30991255376771], [-107.83559165552595, 50.309912553253284], [-107.83559867902405, 50.309912552738474], [-107.83560568849545, 50.309912552565564], [-107.83561271199348, 50.30991255204987], [-107.83561972146482, 50.30991255187615], [-107.83562674496282, 50.30991255135961], [-107.83563376899545, 50.3099125598252], [-107.83564077846675, 50.309912559650186], [-107.83564780196471, 50.30991255913241], [-107.83565482546267, 50.30991255861415], [-107.83566183493392, 50.309912558437865], [-107.83566885843183, 50.3099125579188], [-107.8356758819297, 50.3099125573993], [-107.83568289140091, 50.30991255722175], [-107.83568991489877, 50.3099125567014], [-107.83569692436994, 50.30991255652299], [-107.83570394840238, 50.30991256498433], [-107.83571097190021, 50.30991256446273], [-107.8357179813713, 50.30991256428304], [-107.83572500486909, 50.30991256376057], [-107.83573202836685, 50.30991256323768], [-107.8357390378379, 50.30991256305675], [-107.83574606133561, 50.30991256253297], [-107.8357530848333, 50.309912562008826], [-107.8357600943043, 50.30991256182662], [-107.83576711780198, 50.309912561301594], [-107.8357741278076, 50.30991257010108], [-107.83578115130523, 50.309912569575204], [-107.83578817480284, 50.30991256904891], [-107.83579518427376, 50.30991256886458], [-107.83580220777134, 50.30991256833745], [-107.8358092312689, 50.309912567809874], [-107.83581624073979, 50.309912567624295], [-107.8358232642373, 50.30991256709587], [-107.83583028773482, 50.309912566567014], [-107.83583865993204, 50.309912569097946], [-107.8358456834295, 50.309912568568166], [-107.83585269290026, 50.30991256838037], [-107.83585971639769, 50.30991256784974], [-107.83586672640311, 50.30991257664366], [-107.83587374990051, 50.30991257611219], [-107.8358807733979, 50.3099125755803], [-107.8358877828686, 50.30991257539037], [-107.83589480636593, 50.30991257485765], [-107.83590182986327, 50.30991257432447], [-107.83590883933391, 50.309912574133286], [-107.8359158628312, 50.30991257359928], [-107.83592367289175, 50.30991257185518], [-107.8359306969237, 50.30991258030282], [-107.83593770639426, 50.30991258010988], [-107.83594472989148, 50.30991257957413], [-107.83595175338868, 50.30991257903794], [-107.8359587628592, 50.309912578843736], [-107.83596578635638, 50.309912578306715], [-107.83597280985354, 50.30991257776924], [-107.835979819324, 50.30991257757378], [-107.83598684282111, 50.30991257703549], [-107.83599385229154, 50.30991257683916], [-107.83600087632331, 50.309912585282554], [-107.83600789982039, 50.309912584742975], [-107.83601490929077, 50.30991258454537], [-107.8360219327878, 50.309912584004955], [-107.83602895628482, 50.309912583464104], [-107.83603596575516, 50.30991258326525], [-107.83604298925212, 50.309912582723534], [-107.83605001274908, 50.30991258218141], [-107.83605702221935, 50.30991258198127], [-107.8360640457163, 50.30991258143831], [-107.83607105572123, 50.30991259021987], [-107.83607807921814, 50.30991258967606], [-107.83608510271502, 50.3099125891318], [-107.8360921121852, 50.30991258892955], [-107.83609913568203, 50.30991258838446], [-107.83610615917885, 50.309912587838944], [-107.83611316864898, 50.30991258763541], [-107.83612019214577, 50.30991258708906], [-107.83612720161588, 50.309912586884685], [-107.83613422511264, 50.30991258633746], [-107.8361412486094, 50.30991258578983], [-107.83614825861414, 50.30991259456674], [-107.83615528211087, 50.30991259401823], [-107.83616230560754, 50.30991259346934], [-107.83616931507753, 50.30991259326242], [-107.83617633857418, 50.30991259271264], [-107.83618336207081, 50.30991259216247], [-107.83619037154077, 50.309912591954294], [-107.83619739503736, 50.30991259140325], [-107.83620440450727, 50.30991259119425], [-107.83621142800384, 50.30991259064234], [-107.8362184520351, 50.30991259907257], [-107.83622546150495, 50.30991259886227], [-107.83623248500147, 50.309912598309126], [-107.83623950849797, 50.309912597755535], [-107.83624651796778, 50.309912597543956], [-107.83625354146425, 50.30991259698953], [-107.83626056496068, 50.30991259643468], [-107.83626757443045, 50.309912596221835], [-107.83627459792683, 50.30991259566613], [-107.83628160739656, 50.30991259545245], [-107.83628863142768, 50.30991260387842], [-107.83629565492403, 50.30991260332146], [-107.83630266439368, 50.3099126031065], [-107.83630968789001, 50.30991260254867], [-107.83631671138632, 50.30991260199043], [-107.83632372085593, 50.309912601774194], [-107.8363307443522, 50.309912601215096], [-107.83633776784845, 50.309912600655586], [-107.83634477731802, 50.309912600438075], [-107.83635180081421, 50.309912599877705], [-107.83635881081852, 50.3099126086419], [-107.8363658343147, 50.30991260808068], [-107.83637285781086, 50.30991260751903], [-107.83637986728033, 50.30991260729944], [-107.83638689077647, 50.30991260673692], [-107.83639391427258, 50.309912606173995], [-107.836400923742, 50.309912605953116], [-107.83640794723807, 50.30991260538936], [-107.83641664258181, 50.309912608984476], [-107.83642366607783, 50.30991260841974], [-107.83643067554719, 50.30991260819705], [-107.8364376990432, 50.30991260763151], [-107.8364447085125, 50.309912607407966], [-107.83645173200847, 50.30991260684154], [-107.83645875550441, 50.309912606274715], [-107.83646576550846, 50.30991261503246], [-107.8364727890044, 50.30991261446478], [-107.83647981250029, 50.30991261389666], [-107.8364868219695, 50.309912613670576], [-107.83649384546536, 50.30991261310162], [-107.83650086896121, 50.309912612532244], [-107.83650787843037, 50.3099126123049], [-107.83651490192618, 50.30991261173465], [-107.8365219113953, 50.309912611506476], [-107.83652893489108, 50.30991261093538], [-107.83653595892162, 50.30991261934643], [-107.8365429683907, 50.30991261911695], [-107.83654999188643, 50.30991261854461], [-107.83655701538213, 50.30991261797183], [-107.83656402485116, 50.309912617741084], [-107.83657104834681, 50.30991261716746], [-107.8365780578158, 50.30991261693589], [-107.83658508131144, 50.3099126163614], [-107.83659210480707, 50.30991261578652], [-107.83659911427597, 50.309912615553664], [-107.8366061383064, 50.309912623960436], [-107.83661316180195, 50.30991262338427], [-107.83662017127085, 50.30991262315015], [-107.83662719476636, 50.30991262257313], [-107.83663421826188, 50.30991262199568], [-107.8366412277307, 50.30991262176029], [-107.83664825122618, 50.30991262118199], [-107.83665526069498, 50.30991262094577], [-107.83666228419042, 50.30991262036662], [-107.83666930768585, 50.30991261978703], [-107.83667631768942, 50.30991262853209], [-107.8366833411848, 50.309912627951654], [-107.8366903646802, 50.309912627370814], [-107.83669817473856, 50.30991262557463], [-107.83670518420722, 50.3099126253354], [-107.83671220770255, 50.30991262475323], [-107.83671923119785, 50.309912624170636], [-107.83672624066648, 50.30991262393013], [-107.83673326416174, 50.30991262334666], [-107.83674028819183, 50.30991263174534], [-107.83674729766041, 50.30991263150357], [-107.83675432115561, 50.30991263091886], [-107.83676134465082, 50.3099126303337], [-107.83676835411931, 50.309912630090665], [-107.83677537761449, 50.309912629504666], [-107.83678238708298, 50.30991262926076], [-107.83678941057809, 50.309912628673914], [-107.83679643407322, 50.30991262808666], [-107.83680344354164, 50.30991262784149], [-107.83681046757155, 50.30991263623591], [-107.83681749106663, 50.30991263564739], [-107.836824500535, 50.309912635400934], [-107.83683152403002, 50.309912634811546], [-107.83683854752503, 50.30991263422174], [-107.83684555699334, 50.30991263397402], [-107.8368525804883, 50.30991263338337], [-107.8368595899566, 50.309912633134815], [-107.83686661345153, 50.30991263254331], [-107.83687363694645, 50.30991263195137], [-107.83688064694955, 50.309912640684104], [-107.83688767044444, 50.30991264009131], [-107.83689469393931, 50.3099126394981], [-107.83690170340749, 50.309912639246996], [-107.83690872690234, 50.30991263865295], [-107.83691575039714, 50.309912638058464], [-107.83692275986527, 50.30991263780611], [-107.83692978336005, 50.309912637210786], [-107.83693679282817, 50.309912636957556], [-107.8369438163229, 50.3099126363614], [-107.83695084035251, 50.30991264474732], [-107.83695784982056, 50.30991264449283], [-107.83696487331524, 50.30991264389538], [-107.83697189680991, 50.30991264329751], [-107.8369789062779, 50.30991264304174], [-107.83698592977255, 50.30991264244303], [-107.83699295326717, 50.30991264184389], [-107.8369999627351, 50.309912641586855], [-107.8370069862297, 50.30991264098685], [-107.8370139956976, 50.309912640728975], [-107.83702101919218, 50.30991264012815], [-107.8370280432216, 50.30991264850941], [-107.83703505268946, 50.30991264825026], [-107.83704207618396, 50.30991264764815], [-107.83704909967844, 50.309912647045614], [-107.83705610914623, 50.3099126467852], [-107.83706313264068, 50.309912646181786], [-107.83707014210844, 50.30991264592053], [-107.83707716560288, 50.30991264531629], [-107.83708418909727, 50.30991264471163], [-107.83709119856498, 50.3099126444491], [-107.83709822259424, 50.30991265282612], [-107.83710524608858, 50.3099126522202], [-107.83711225555626, 50.30991265195638], [-107.83711927905055, 50.30991265134956], [-107.83712630254485, 50.30991265074239], [-107.83713331201247, 50.309912650477294], [-107.83714033550672, 50.30991264986923], [-107.8371473449743, 50.30991264960331], [-107.8371543684685, 50.309912648994406], [-107.83716139196272, 50.309912648385065], [-107.83716840196514, 50.30991265710042], [-107.83717542545934, 50.30991265649024], [-107.83718244895347, 50.309912655879636], [-107.83719082114678, 50.309912658313095], [-107.8371978446409, 50.30991265770157], [-107.83720485410832, 50.309912657432164], [-107.83721187760241, 50.30991265681979], [-107.83721890109646, 50.30991265620698], [-107.83722591056386, 50.30991265593631], [-107.83723293405788, 50.30991265532266], [-107.83723994352523, 50.30991265505115], [-107.83724696701923, 50.30991265443662], [-107.8372539905132, 50.309912653821705], [-107.83726100051543, 50.30991266253147], [-107.83726802400936, 50.309912661915675], [-107.83727583406613, 50.30991266008067], [-107.83728285756003, 50.30991265946399], [-107.83728986702725, 50.309912659189465], [-107.83729689052113, 50.30991265857195], [-107.83730391401497, 50.30991265795399], [-107.83731092348214, 50.30991265767822], [-107.83731794697594, 50.309912657059414], [-107.8373249710047, 50.30991266542272], [-107.83733198047183, 50.309912665145646], [-107.83733900396558, 50.309912664525584], [-107.83734602745935, 50.30991266390508], [-107.8373530369264, 50.309912663626754], [-107.83736006042012, 50.309912663005406], [-107.83736706988715, 50.30991266272622], [-107.83737409338083, 50.30991266210401], [-107.83738111687448, 50.309912661481405], [-107.83738812634147, 50.30991266120095], [-107.83739515037006, 50.309912669560006], [-107.83740217386365, 50.309912668936136], [-107.83740918333059, 50.309912668654384], [-107.83741620682414, 50.30991266802967], [-107.8374232303177, 50.30991266740451], [-107.83743023978458, 50.30991266712149], [-107.8374372632781, 50.30991266649547], [-107.83744427274495, 50.30991266621164], [-107.83745129623843, 50.30991266558478], [-107.83745831973191, 50.30991266495749], [-107.83746532973366, 50.30991267365492], [-107.83747235322708, 50.30991267302679], [-107.8374793767205, 50.30991267239823], [-107.83748638618724, 50.30991267211185], [-107.83749340968063, 50.30991267148244], [-107.83750043317397, 50.30991267085259], [-107.83750744264066, 50.30991267056495], [-107.837514466134, 50.30991266993428], [-107.83752147560064, 50.30991266964576], [-107.83752849909393, 50.30991266901423], [-107.83753552312218, 50.309912677364814], [-107.8375425325888, 50.309912677075026], [-107.83754955608202, 50.30991267644224], [-107.83755657957525, 50.309912675809], [-107.8375635890418, 50.309912675517964], [-107.837570612535, 50.30991267488388], [-107.8375776220015, 50.309912674591985], [-107.83758464549466, 50.309912673957086], [-107.83759166898778, 50.30991267332172], [-107.83759867845424, 50.309912673028556], [-107.83760570248235, 50.30991268137489], [-107.83761272597543, 50.30991268073827], [-107.83761973544185, 50.30991268044385], [-107.83762675893489, 50.309912679806374], [-107.83763378242791, 50.30991267916847], [-107.83764079189427, 50.309912678872784], [-107.83764781538726, 50.30991267823402], [-107.83765482485359, 50.30991267793748], [-107.83766184834656, 50.30991267729791], [-107.8376688718395, 50.30991267665787], [-107.83767203265207, 50.30991268041186], [-107.83767588184078, 50.309912685342574], [-107.8376829053337, 50.309912684701715], [-107.83768992882659, 50.309912684060414], [-107.83769693829281, 50.30991268376132], [-107.83770396178565, 50.30991268311917], [-107.83771098527848, 50.30991268247665], [-107.83771799474465, 50.30991268217627], [-107.83772501823746, 50.30991268153284], [-107.8377320282386, 50.3099126902142], [-107.83773905173135, 50.30991268956992], [-107.83774607522413, 50.30991268892523], [-107.8377530846902, 50.30991268862277], [-107.83776010818292, 50.30991268797722], [-107.8380425908087, 50.30991262411486], [-107.83804453278346, 50.30480090144395], [-107.83804461097439, 50.30459815205368], [-107.83804479206086, 50.30441724597579], [-107.83804499938874, 50.30370014707236], [-107.83804506679878, 50.30346910223111], [-107.83804533059262, 50.302773105557755], [-107.83804542394464, 50.302682697407164], [-107.8380119654896, 50.295467503770446], [-107.83801391037605, 50.29447416011129], [-107.83802330020501, 50.289775247781485], [-107.83802485743625, 50.288980536255295], [-107.83802639612888, 50.288244476580516], [-107.83803443785294, 50.28427504906594], [-107.83803508836242, 50.28394156513665], [-107.83810780931688, 50.2839471737006], [-107.83810842628723, 50.2836711636618], [-107.83810959025902, 50.283176231544864], [-107.83811009511898, 50.28295848892801], [-107.83803708132892, 50.2829559550418], [-107.83803810689265, 50.282407016487234], [-107.83811083946962, 50.28240955723789], [-107.83811164663476, 50.28198906362868], [-107.8381135581845, 50.280985571936064], [-107.83817532402088, 50.28080433890559], [-107.83804763184723, 50.28080484128971], [-107.83775815643163, 50.28080480744885], [-107.83760203465687, 50.280804573613935], [-107.83533767188938, 50.28080104803463], [-107.83505533211883, 50.28080060837256], [-107.83494848968428, 50.280800445511154], [-107.83484150653119, 50.28080027699019], [-107.83473452337478, 50.28080010837062], [-107.83462768039647, 50.280799936231425], [-107.83452069723351, 50.28079976741485], [-107.83441371406728, 50.280799598499705], [-107.83430687161295, 50.28079943504791], [-107.83419988844014, 50.280799265935784], [-107.83409290526404, 50.28079909672506], [-107.83398606279984, 50.28079893297808], [-107.83370372238578, 50.280798481046894], [-107.83321178266155, 50.280797707889036], [-107.83312628031231, 50.280797571544994], [-107.83266482087743, 50.280796844214244], [-107.8324879755262, 50.28079656016252], [-107.83232160425202, 50.28079629929869], [-107.82661997166117, 50.280787096938035], [-107.82661567602374, 50.28047064565386], [-107.82661495180808, 50.280415790002884], [-107.82661058004192, 50.280100420030564], [-107.82660800463738, 50.27991958079872], [-107.826607076349, 50.27984943755681], [-107.82660610371295, 50.27978091460507], [-107.82660513108371, 50.27971239165254], [-107.82660416378485, 50.27964395852588], [-107.82660319116924, 50.27957543557182], [-107.82660221856045, 50.279506912616974], [-107.82660124595847, 50.27943838966138], [-107.82660027868684, 50.27936995653168], [-107.82659930609852, 50.27930143357451], [-107.82659833351701, 50.279232910616635], [-107.82659736094232, 50.279164387657936], [-107.82659639369791, 50.27909595452515], [-107.82659542113686, 50.27902743156494], [-107.82659458875956, 50.27895890519266], [-107.82659362153535, 50.27889047205758], [-107.82659264899456, 50.27882194909506], [-107.82659167646058, 50.278753426131786], [-107.82659070393343, 50.27868490316772], [-107.82658813422368, 50.27850415372064], [-107.82656960282895, 50.27718162757774], [-107.82656640183674, 50.276953027749], [-107.82656370908728, 50.27676166642069], [-107.8265192172621, 50.273581716253275], [-107.82640801506739, 50.266364529010794], [-107.81518268092456, 50.2663463373463], [-107.81518186581957, 50.26625592414211], [-107.81518124912365, 50.2661874284524], [-107.81518063243351, 50.26611893276191], [-107.81518001574918, 50.2660504370707], [-107.81517939907057, 50.26598194137874], [-107.81517878186783, 50.26591343670326], [-107.81517816520082, 50.26584494100979], [-107.8151775485396, 50.26577644531557], [-107.81517693188414, 50.26570794962062], [-107.81517632924839, 50.26563945358524], [-107.81517571260449, 50.26557095788879], [-107.81517509596634, 50.26550246219159], [-107.815174479334, 50.26543396649366], [-107.81517386270745, 50.26536547079497], [-107.81517324608664, 50.26529697509554], [-107.81517262894171, 50.26522847041256], [-107.81517201233248, 50.265159974711636], [-107.81517139572902, 50.26509147900998], [-107.81517077913136, 50.26502298330757], [-107.81517016253947, 50.26495448760437], [-107.81516954595335, 50.26488599190046], [-107.81516892937304, 50.26481749619582], [-107.81516831279848, 50.2647490004904], [-107.81516769622971, 50.26468050478424], [-107.81516707966672, 50.26461200907732], [-107.8151654493233, 50.26443117363496], [-107.8151506808782, 50.26278725775301], [-107.81514905094127, 50.26260642225809], [-107.8151342721769, 50.26096250623832], [-107.81513264317631, 50.2607816796737], [-107.81511857040122, 50.25921533344201], [-107.81511775609047, 50.259124920135164], [-107.81504507928409, 50.25912483768291], [-107.81476299814524, 50.259124208394], [-107.81469030308163, 50.259124054196946], [-107.81239363661454, 50.25911927919314], [-107.81219678431817, 50.25911885559468], [-107.810097334711, 50.259114430109925], [-107.80981679805423, 50.259113835082275], [-107.80981480477101, 50.25911384642593], [-107.8065894621651, 50.25910696219647], [-107.80417703878685, 50.25910175437926], [-107.80347085782127, 50.25910021837778], [-107.79920857709268, 50.2590910695838], [-107.79919832935644, 50.259432663817385], [-107.79905248263917, 50.26433338468435], [-107.79903106475008, 50.26504968064115], [-107.79886335705814, 50.26584398553638], [-107.79883443975436, 50.265980246043334], [-107.79876480085098, 50.26631017351777], [-107.79876411900173, 50.26631338338543], [-107.798763627447, 50.26631337723955], [-107.79847938014278, 50.26631289517312], [-107.79519032202674, 50.266307243611955], [-107.7951856201508, 50.26629453805358], [-107.79514540007047, 50.266238024187146], [-107.79513127650566, 50.26620535027051], [-107.7951255405038, 50.26617211467123], [-107.79512487597032, 50.266139206799735], [-107.79512749838398, 50.2661144957675], [-107.79514614392697, 50.26608301224577], [-107.79515302849276, 50.266059188152596], [-107.79515932669155, 50.26604212486442], [-107.79512421847889, 50.26598422858225], [-107.79509254279627, 50.26596097266565], [-107.79506584154313, 50.26595315940025], [-107.79505180189763, 50.26594108335872], [-107.79504924199888, 50.26593331879986], [-107.79502180265406, 50.265891340039445], [-107.79501307785645, 50.265852599093954], [-107.7949951740116, 50.26581767728065], [-107.79498279601877, 50.265793237282466], [-107.7949727798972, 50.26577557709406], [-107.79495685820375, 50.26575293153481], [-107.79494051896131, 50.26572076069456], [-107.79493952407672, 50.265696586494755], [-107.79494434531752, 50.2656758705677], [-107.79494090440389, 50.26564347928665], [-107.79492784394617, 50.26560259377312], [-107.79489764082277, 50.26556373999432], [-107.79487298982444, 50.265535817178254], [-107.79483841610615, 50.26549661877967], [-107.79482508597523, 50.26548227673977], [-107.79480470959754, 50.26545784928242], [-107.79477681488058, 50.26543684115169], [-107.79473597951336, 50.265381781246454], [-107.79470202837702, 50.26532205787771], [-107.79467557975462, 50.26528500277283], [-107.79464629343828, 50.26524981506189], [-107.79462351149255, 50.26521546035002], [-107.79461955030287, 50.26520772949975], [-107.79457660056568, 50.265116558136704], [-107.794529868897, 50.26505426365017], [-107.79453125431412, 50.26502040688983], [-107.79454641530056, 50.264953384758726], [-107.79455674795874, 50.26487820285743], [-107.79455817628417, 50.26485945765809], [-107.79454703373321, 50.26483453810748], [-107.79454334424086, 50.26482904961512], [-107.79450364108351, 50.26480049938358], [-107.79448954406462, 50.26478743514109], [-107.79444620072985, 50.26475663362272], [-107.79440785442263, 50.26474406286608], [-107.7943607387301, 50.264727924939436], [-107.79435018544385, 50.264713066255794], [-107.79434498075564, 50.26470806399227], [-107.7943199123881, 50.26468977638642], [-107.79430849536914, 50.26467214984664], [-107.79429853234666, 50.26465538788268], [-107.7942943465805, 50.26463902665634], [-107.79427637274445, 50.26461966879189], [-107.79426162436623, 50.26460985860656], [-107.79423666992246, 50.26459111846261], [-107.79421617926216, 50.264579107570455], [-107.79418736898576, 50.26455443313579], [-107.79416355559428, 50.264547989485365], [-107.79413987031292, 50.26454613049986], [-107.79409796293642, 50.264532655799556], [-107.79409319939867, 50.26452080626209], [-107.79408671890653, 50.264503600675134], [-107.79405806652758, 50.264481621087825], [-107.7940200327127, 50.26447677889616], [-107.79397310674828, 50.26446387466317], [-107.79394833317153, 50.26445061741813], [-107.79394331788802, 50.264448848993545], [-107.79392711565625, 50.264438174181656], [-107.79390056206263, 50.26441848292105], [-107.7938552751455, 50.264390426618036], [-107.79380933337337, 50.264367963317135], [-107.7937608202766, 50.26434951991136], [-107.79370583983676, 50.2643308722298], [-107.79364440257909, 50.26431219992195], [-107.79360892085008, 50.264298210661906], [-107.79356601866988, 50.264279722169086], [-107.79351596187738, 50.26424449403701], [-107.7934959916103, 50.26422698319195], [-107.79347436048583, 50.26420267564165], [-107.79343717779071, 50.26418359975508], [-107.79340644328319, 50.26416679757607], [-107.79338653435423, 50.264147935898556], [-107.79337890702108, 50.264137504550334], [-107.79336681609027, 50.264120343908345], [-107.79335989471075, 50.2641099855356], [-107.79328435500973, 50.264042176470475], [-107.79327780697346, 50.264038195983574], [-107.79323644322952, 50.26402200922414], [-107.79321662746021, 50.264009532147305], [-107.79318643953023, 50.263987679234674], [-107.79316752728941, 50.26396186694481], [-107.79315388081855, 50.26393970616042], [-107.79314787576124, 50.263933013930455], [-107.79312691065049, 50.26391048941766], [-107.79307370828404, 50.2638670608036], [-107.79305365947756, 50.263848202434026], [-107.79304388108642, 50.26383458438179], [-107.79302901046951, 50.26382027918651], [-107.79300779347415, 50.26380783577222], [-107.79299172310374, 50.26379940655867], [-107.79296416499785, 50.26378891474731], [-107.79292795903459, 50.26379131467459], [-107.79289757801409, 50.2638165132727], [-107.792863746118, 50.26384269440544], [-107.7928229855909, 50.26384160558752], [-107.79278968535127, 50.26382891296114], [-107.79277621091941, 50.26381448420469], [-107.7927609214904, 50.26378822491078], [-107.79274653957879, 50.26376788088254], [-107.79274242982838, 50.26375520596718], [-107.79273131824226, 50.26372839642882], [-107.79272153650933, 50.26371711728404], [-107.79272151022518, 50.26371666813653], [-107.79269220737541, 50.2636979422717], [-107.7926568543336, 50.26368853738172], [-107.79261858819315, 50.26367731345273], [-107.79258388676084, 50.263664654460044], [-107.79257579208085, 50.26366062116692], [-107.79253898863067, 50.263648012703335], [-107.7924777537199, 50.26359919969185], [-107.79242088595225, 50.263553070280885], [-107.79240424453668, 50.263530081860104], [-107.79238223584738, 50.26349930636304], [-107.79233431408656, 50.26344297671512], [-107.7923172926926, 50.26342548472812], [-107.79229281607991, 50.26340529339059], [-107.79228610705448, 50.263400956895545], [-107.7922562124934, 50.26338170541315], [-107.79222419993427, 50.26335623491688], [-107.79218686609043, 50.26332616066258], [-107.7921083689443, 50.26325572327021], [-107.79207927150922, 50.26322610765043], [-107.79204709813045, 50.263191888262796], [-107.79198121181454, 50.26313311175373], [-107.79197335196342, 50.26311629903554], [-107.79197046338676, 50.26309810742691], [-107.79198607256217, 50.26307947113891], [-107.79201183446746, 50.26306167024896], [-107.79203958451163, 50.263044271337456], [-107.79205403055788, 50.26303213982705], [-107.79206372247361, 50.263005909572584], [-107.79204863694116, 50.2629879212286], [-107.79201246994299, 50.26295739607562], [-107.79199767874388, 50.26294443818023], [-107.79199575011135, 50.2629330601439], [-107.79199499163266, 50.26293208886263], [-107.79199771548345, 50.26293067404309], [-107.79200047436149, 50.26292745926329], [-107.79200865109127, 50.26290171521753], [-107.79197219159063, 50.26284699894468], [-107.7919657383865, 50.262830242366334], [-107.79194432412525, 50.262795224570304], [-107.79194091010818, 50.26278963941892], [-107.79194108363899, 50.26247693051032], [-107.79194146236883, 50.26176425465003], [-107.79194157041292, 50.26156964141049], [-107.79194186672395, 50.26101962576029], [-107.7919426310374, 50.259607308149626], [-107.79194292103818, 50.25907468099412], [-107.78783098472553, 50.25906254330406], [-107.78642263429334, 50.25905838014496], [-107.78593016536534, 50.25905688112953], [-107.7857927695972, 50.25905648872491], [-107.78524845355122, 50.25905476417746], [-107.7851168656883, 50.25905434862821], [-107.78062037641696, 50.259040741867274], [-107.78061881947245, 50.25987871733298], [-107.78060986287787, 50.2643421767027], [-107.78060959282357, 50.26452299418777], [-107.7806084845745, 50.26500734235584], [-107.78060717800872, 50.265659282742305], [-107.78060630998375, 50.266167013570595], [-107.78060610500822, 50.26625742396637], [-107.7801754165841, 50.2662556208754], [-107.7798697122905, 50.26625433936132], [-107.77970597470481, 50.26625365162868], [-107.77946091525615, 50.26625262494869], [-107.77946086938715, 50.2661624967379], [-107.77919276337005, 50.26616153616387], [-107.7791072737846, 50.26616115300069], [-107.77893559911631, 50.266160493082054], [-107.77857273821046, 50.266159099536395], [-107.77829045133899, 50.26615802635455], [-107.7770114600474, 50.26615272189672], [-107.77533796110536, 50.26614576648975], [-107.7748893248046, 50.26614389229514], [-107.77488949151353, 50.26623352010244], [-107.76945730723627, 50.26621066672963], [-107.76927828665767, 50.26620989781563], [-107.76899371534128, 50.266210565636065], [-107.76881414030025, 50.26621160833573], [-107.76792482417031, 50.26621679359757], [-107.767642697674, 50.26621847930566], [-107.76657422088326, 50.266224594990774], [-107.7662919488073, 50.26622619092557], [-107.76571492624196, 50.26622958792377], [-107.75756150152792, 50.2662767387094], [-107.75757519651495, 50.269423052419846], [-107.75759247801115, 50.2734058640508], [-107.75759279580187, 50.273496351541496], [-107.76041416372425, 50.273485735740074], [-107.76329359696766, 50.27347483934218], [-107.7632937830908, 50.273587099230646], [-107.76329683018649, 50.274955517827145], [-107.76329771029668, 50.27532255974601], [-107.76329856757299, 50.275680966476045], [-107.76329937625165, 50.27604774019301], [-107.76330016527687, 50.27640641837847], [-107.7633014866678, 50.27693130336312], [-107.76330159189642, 50.276976251543594], [-107.76330192539007, 50.27711600722123], [-107.7633019823658, 50.2771380719104], [-107.76330441681185, 50.27828260563809], [-107.76330963486565, 50.28066728674791], [-107.76330978748065, 50.28075714845804], [-107.76330959442772, 50.280937963192635], [-107.76473416092811, 50.280939596907686], [-107.76497240726326, 50.28093986300011], [-107.76810610955027, 50.2809433074149], [-107.76854638585162, 50.28094387887897], [-107.76899296541521, 50.28094420845613], [-107.76899309060171, 50.28118816443775], [-107.76881343088573, 50.28134348218985], [-107.76881407341715, 50.28226618397481], [-107.76881418781171, 50.282439840057044], [-107.76891182901502, 50.282412055193525], [-107.76899385213446, 50.28238923028109], [-107.7689942088156, 50.282990186495326], [-107.7688770158771, 50.283026290581304], [-107.76876040250175, 50.28306343321034], [-107.7686442512503, 50.283101284348525], [-107.76852885294088, 50.28314001697647], [-107.7684940247415, 50.283151911582486], [-107.76839987746081, 50.283184290485124], [-107.76833727185124, 50.28320620241817], [-107.76822834292584, 50.28324514038193], [-107.76814654763035, 50.28327506577905], [-107.76805406194954, 50.283309473772135], [-107.76797741200124, 50.28333855679104], [-107.76785549279813, 50.283385899929854], [-107.76774955989771, 50.28342809439369], [-107.76761434403078, 50.28348340030305], [-107.76751004670169, 50.28352717477063], [-107.76743593580818, 50.28355889559148], [-107.76736226625908, 50.28359096567076], [-107.76724511359244, 50.2836430521857], [-107.76712899417686, 50.28369601351907], [-107.76701390800964, 50.28374984967393], [-107.76695666607249, 50.283777120355445], [-107.7668855199514, 50.283811558809965], [-107.76681480995755, 50.28384625669758], [-107.76674454130246, 50.283881303850265], [-107.76663299620691, 50.28393811375582], [-107.76650858532943, 50.28400305608429], [-107.76639939228298, 50.28406169880342], [-107.76635856234648, 50.284083900642514], [-107.76627762419905, 50.2841286469101], [-107.76618410067977, 50.28418151893777], [-107.76610448131444, 50.28422722318447], [-107.76605179288664, 50.28425798318779], [-107.76594729349806, 50.284320111913715], [-107.76589548253718, 50.2843514806371], [-107.76581835021365, 50.284398924568166], [-107.76571648322468, 50.28446287946223], [-107.76561592465458, 50.284527612709795], [-107.7655165290938, 50.28459303782091], [-107.76545504550465, 50.28463435179844], [-107.7653940032494, 50.28467601505663], [-107.76532152824197, 50.2847263162952], [-107.7652140540376, 50.28480254818444], [-107.76516676021062, 50.28483677756467], [-107.76509632567546, 50.28488837941349], [-107.76502675824277, 50.28494041035412], [-107.76493520797683, 50.285010415832616], [-107.76483382413961, 50.28509001064388], [-107.76475602231429, 50.28515258226722], [-107.76469021918317, 50.285206592373925], [-107.76463597858975, 50.28525178150011], [-107.76455035775639, 50.28532479397469], [-107.76453765298928, 50.285335711063], [-107.764457571885, 50.28540499341298], [-107.76226415601668, 50.287302784457054], [-107.7614800653518, 50.28798111353038], [-107.76124476991498, 50.28818467126806], [-107.7603671867905, 50.28894384466053], [-107.75863377371715, 50.290443285263386], [-107.75763538262481, 50.29130686529703], [-107.75754729798673, 50.29138304332048], [-107.7567874588163, 50.29204011894967], [-107.757636992427, 50.292443373582664], [-107.75787002394915, 50.292553973447326], [-107.757998339829, 50.292820522416534], [-107.7592416656146, 50.29540293246669], [-107.75970215536474, 50.2963591907363], [-107.76122105504385, 50.29951344389552], [-107.76523862464093, 50.29951917143728], [-107.7652689501331, 50.300826126739864], [-107.76806260886131, 50.300828230370215], [-107.76900212945523, 50.30110314190244], [-107.76900751333572, 50.3026195669888], [-107.76360230763336, 50.30262782594827], [-107.76359737452641, 50.30126152614867], [-107.75889572669921, 50.30126839024642], [-107.75890110995488, 50.30187087084904], [-107.7589009238266, 50.30188463838146], [-107.75889910965833, 50.30202797974893], [-107.75889849989136, 50.302078099153356], [-107.7588978638098, 50.30263481861779], [-107.75793798741057, 50.302636227638445], [-107.75789167110612, 50.302636283694895], [-107.75767186163102, 50.30263660809833], [-107.75767294624448, 50.302878651133234], [-107.75767340205174, 50.30297876017494], [-107.75768239357193, 50.305005690290116], [-107.75768250787057, 50.30500596643724], [-107.75768321186095, 50.30517394954648], [-107.75768465081991, 50.30550316839936], [-107.75768504961174, 50.30559986047284], [-107.757686838437, 50.30601909788192], [-107.75768870053012, 50.306434501449466], [-107.75770149408632, 50.30930045751334], [-107.75770419284885, 50.30990842542231], [-107.75770812330863, 50.31008311443409], [-107.75778815644834, 50.31314507685691], [-107.7578263110524, 50.31460980510796], [-107.75789814327993, 50.31735495973737], [-107.7579607977039, 50.31975211639083]]]}}]}