{"type":"FeatureCollection","crs":{"type":"name","properties":{"name":"EPSG:3857"}},"features":[{"type":"Feature","id":1,"geometry":{"type":"Polygon","coordinates":[[[-9150345.3387,5224464.2718],[-9149854.6043,5224919.8615],[-9149738.0815,5225028.709],[-9149716.1835,5225016.0027],[-9149662.5459,5225011.8547],[-9149624.6753,5224998.6848],[-9149564.6267,5225009.5568],[-9149450.338,5225055.7737],[-9149414.9539,5225063.561],[-9149361.4443,5225057.7363],[-9149276.8716,5225109.4739],[-9149194.1168,5225020.0377],[-9149132.0351,5224934.7117],[-9148967.0421,5225088.8679],[-9149011.3887,5225137.318],[-9148862.0038,5225276.887],[-9148632.4887,5225027.6572],[-9148012.4773,5225600.7549],[-9146895.4401,5224393.5062],[-9147543.7552,5223909.829],[-9146985.898,5223307.077],[-9146947.4515,5223336.8032],[-9146924.8557,5223366.3105],[-9146903.3547,5223426.3562],[-9146879.2761,5223542.1137],[-9146866.5377,5223606.1134],[-9146842.8926,5223716.435],[-9146820.4578,5223788.7175],[-9146740.3436,5223860.4378],[-9146664.9143,5223906.9704],[-9146568.1936,5223945.6477],[-9146520.5319,5223966.6739],[-9146492.1897,5223971.817],[-9146468.8479,5223974.8542],[-9146414.5198,5223894.4225],[-9146421.5261,5223869.3729],[-9145785.1177,5223155.7774],[-9145714.641,5223162.6456],[-9145476.4304,5222905.91],[-9145490.2028,5222836.8271],[-9145076.9303,5222391.7696],[-9145681.5694,5221867.3402],[-9145693.2792,5221851.3275],[-9145626.7947,5221778.6322],[-9145617.7996,5221768.7978],[-9145585.0964,5221734.7074],[-9145587.508,5221718.4202],[-9145573.9855,5221666.395],[-9145575.1105,5221626.4502],[-9145576.092,5221594.4839],[-9145585.1337,5221531.1595],[-9145586.6906,5221476.3878],[-9145566.0563,5221428.4688],[-9145527.032,5221391.5741],[-9145491.9926,5221360.0514],[-9145462.2823,5221294.9278],[-9145447.1195,5221271.3015],[-9145416.6374,5221243.6335],[-9145373.5846,5221227.2083],[-9145344.8643,5221216.1497],[-9145303.7664,5221183.933],[-9145262.1632,5221129.2342],[-9145132.4988,5221249.729],[-9144835.6666,5220931.5238],[-9145517.8149,5220293.4466],[-9145756.603,5220074.3457],[-9146660.7106,5219203.2174],[-9148182.1862,5217795.3607],[-9147946.1761,5217541.3466],[-9147971.5718,5217508.7313],[-9148003.2373,5217486.2245],[-9148047.1098,5217452.8663],[-9148091.5148,5217408.853],[-9148147.3212,5217468.8775],[-9148266.4988,5217597.0642],[-9148425.8037,5217448.4514],[-9148405.4701,5217426.6391],[-9148533.8646,5217306.5522],[-9148619.3854,5217389.4687],[-9149705.6376,5216376.2226],[-9150462.1359,5217195.3418],[-9151278.2983,5216439.2329],[-9151781.834,5216990.7152],[-9151655.6838,5217114.3575],[-9152102.7636,5217601.5774],[-9152175.788,5217575.1816],[-9152135.4195,5217613.8684],[-9152402.175,5217908.6093],[-9152430.9856,5217957.8533],[-9152475.7253,5218006.9063],[-9152481.1948,5218001.8807],[-9152501.222,5218023.8406],[-9152741.1162,5217803.0943],[-9152677.4137,5217733.2543],[-9152831.6294,5217589.0489],[-9153223.7943,5218018.9501],[-9154062.6421,5217424.9739],[-9155329.1723,5218797.4007],[-9155340.6965,5218843.0191],[-9154743.5049,5218841.5935],[-9154413.1981,5218975.3616],[-9153605.2214,5219390.8684],[-9153672.0956,5219466.2442],[-9153690.3074,5219507.1001],[-9153590.9805,5219706.0416],[-9153444.0218,5219893.4596],[-9153239.0168,5220003.6657],[-9153118.5968,5220062.3985],[-9153056.5345,5220056.7661],[-9153604.5657,5220634.7904],[-9154385.573,5221462.2079],[-9154809.2278,5221921.9878],[-9153274.3566,5223331.3087],[-9152498.8535,5224042.7385],[-9152636.2657,5224195.0313],[-9152492.0169,5224327.9045],[-9152692.7202,5224547.4545],[-9152088.4811,5225104.1745],[-9152065.903,5225110.9214],[-9152035.7664,5225109.5394],[-9151887.8363,5224943.358],[-9151249.5689,5225531.7175],[-9151095.928,5225355.4615],[-9151112.2523,5225303.3536],[-9150345.3387,5224464.2718]]]},"properties":{"OBJECTID":1,"WARD_ID":6,"WARD_NAME":"6","WARD_NO":6,"GLOBALID":"1d0660e0-e6e8-4240-9126-99afcd6c4914"}},{"type":"Feature","id":8,"geometry":{"type":"Polygon","coordinates":[[[-9091623.3568,5232484.0153],[-9091324.0682,5232166.9716],[-9091253.9599,5232092.5966],[-9091245.8688,5232084.0121],[-9091209.7194,5232034.9662],[-9091565.165,5231744.0303],[-9092534.5779,5230916.2962],[-9092608.6482,5230894.0555],[-9092605.0534,5230893.5694],[-9092894.3927,5230629.7421],[-9093174.7063,5230343.8276],[-9093606.9293,5230029.9007],[-9093954.8537,5229623.9591],[-9094462.9799,5229127.8911],[-9094537.1262,5229016.4965],[-9094363.1138,5228801.3759],[-9094423.7159,5228746.4361],[-9094589.3053,5228918.5778],[-9094637.54,5228878.2995],[-9094905.0535,5228658.9576],[-9095147.9905,5228466.5287],[-9095146.2853,5228466.4179],[-9095369.8499,5228274.0233],[-9095847.1519,5227804.7938],[-9096162.5693,5227514.1491],[-9096838.5308,5227056.522],[-9097311.8851,5226658.1947],[-9097702.4014,5226384.6117],[-9097995.6847,5226098.5698],[-9098285.1837,5225887.8667],[-9098353.992,5225895.0629],[-9098351.4218,5225891.7233],[-9099154.7951,5225393.0395],[-9099975.9285,5224916.3028],[-9102032.8708,5223485.0612],[-9102032.5378,5223489.8713],[-9102032.9105,5223489.4891],[-9102252.0848,5223328.0717],[-9102580.9521,5223099.2272],[-9102839.6548,5222919.7296],[-9103080.5386,5222722.6781],[-9103452.5122,5222387.1449],[-9103812.0373,5222140.2863],[-9104472.7014,5221540.8198],[-9104822.4836,5221201.0518],[-9105216.2248,5220847.5898],[-9105522.385,5220565.7862],[-9106021.3885,5220153.7687],[-9106384.7545,5219862.5632],[-9106620.3238,5219585.8497],[-9106869.4037,5219339.9967],[-9107270.4228,5218840.3696],[-9107600.5048,5218306.0247],[-9107882.8098,5217851.8282],[-9108034.5081,5217575.947],[-9108182.3419,5217357.6462],[-9108391.7685,5217125.4717],[-9108616.3431,5216636.4659],[-9108824.2442,5216249.4249],[-9109030.8851,5215734.0779],[-9109207.2899,5215285.4243],[-9109417.9955,5214739.1071],[-9109590.0416,5214299.3852],[-9109700.0648,5213829.3201],[-9109837.6024,5213469.6074],[-9109908.6305,5213070.7469],[-9110022.5541,5212552.0388],[-9110102.469,5212161.9749],[-9110250.2323,5211414.1252],[-9110307.3954,5211142.2698],[-9110373.5573,5210729.5082],[-9110472.4744,5210788.0381],[-9111929.7936,5212332.4935],[-9112199.9447,5212618.6793],[-9114114.3913,5214646.1814],[-9120628.4455,5221519.0581],[-9125567.1066,5226837.933],[-9126166.6742,5227481.8266],[-9136052.7572,5238165.4997],[-9136170.724,5238292.5281],[-9136473.7407,5238626.6582],[-9136644.5998,5238816.2596],[-9137426.2889,5239652.3064],[-9138864.3444,5241231.4978],[-9139706.3181,5242141.6159],[-9140805.3421,5243350.4456],[-9141317.1743,5243905.6973],[-9142132.18,5244833.2216],[-9143934.4018,5246839.6368],[-9144043.1829,5246944.6371],[-9144052.2862,5247099.0973],[-9144012.8859,5247104.7751],[-9142656.5942,5247052.1732],[-9142522.3457,5251086.5126],[-9142457.5002,5253438.9547],[-9142380.9259,5255508.0469],[-9141712.8352,5255491.7532],[-9141281.1167,5255442.3058],[-9140602.1909,5255414.4955],[-9139992.6273,5255389.8138],[-9139971.4871,5255388.7287],[-9139469.8631,5255387.8024],[-9136786.6115,5255278.7346],[-9135932.0335,5255243.9737],[-9135766.5124,5255265.1471],[-9134934.4186,5255226.6043],[-9134024.6597,5255184.8703],[-9133925.4675,5255156.8152],[-9133046.2053,5255120.7372],[-9132768.1577,5255109.1884],[-9131482.2313,5255050.7288],[-9130874.6297,5255012.4882],[-9130735.3771,5255394.3086],[-9130708.987,5255637.1568],[-9130725.1225,5255761.6337],[-9130793.3409,5255951.5648],[-9130802.0094,5256061.8291],[-9130781.6293,5256194.2492],[-9130623.3434,5256431.2234],[-9130552.5086,5256630.3493],[-9130507.4866,5257152.1327],[-9130426.5291,5257406.588],[-9130244.3432,5257630.9286],[-9130171.0565,5257683.6013],[-9129857.4464,5258050.5844],[-9129873.7627,5258176.455],[-9129705.6137,5258342.0284],[-9129626.576,5258535.8342],[-9129531.2574,5258603.0829],[-9129472.1069,5258603.7931],[-9129308.7191,5258546.4646],[-9129242.6793,5258592.2335],[-9129230.3751,5258799.5527],[-9129173.2156,5258971.2937],[-9129048.022,5258968.0213],[-9129009.4939,5258982.7937],[-9127208.466,5258984.3901],[-9121498.0598,5258972.8176],[-9119501.751,5258973.0655],[-9119359.0358,5259001.2048],[-9118447.4421,5258998.1727],[-9118447.0922,5259009.0806],[-9118425.1464,5259008.6368],[-9118211.7772,5259010.263],[-9118026.7543,5259011.5788],[-9117611.72,5259014.0011],[-9117165.1137,5259016.7427],[-9116624.471,5259020.4636],[-9116077.4629,5259024.2207],[-9115676.9457,5259027.0854],[-9115556.5318,5259070.6069],[-9113963.8174,5259080.4141],[-9113557.6102,5258991.9244],[-9111029.9358,5258999.2386],[-9109836.7734,5259002.2808],[-9109843.1658,5257469.6227],[-9109843.8281,5257135.7354],[-9109846.9218,5255496.452],[-9109847.7709,5255065.2158],[-9109850.1451,5253805.683],[-9109850.8584,5253442.6357],[-9109852.4463,5252616.4657],[-9109831.0026,5252492.7026],[-9109797.5665,5252435.213],[-9109736.6762,5252388.7803],[-9109479.4101,5252119.5916],[-9108619.8668,5251197.1237],[-9106842.2707,5249232.2751],[-9106547.5918,5248902.8629],[-9105475.904,5247730.5764],[-9104412.2143,5246541.9019],[-9103622.2753,5245673.991],[-9103078.264,5245076.042],[-9102651.2573,5244607.0029],[-9102187.2274,5244096.7962],[-9102014.2497,5243907.1615],[-9101822.3156,5243695.9254],[-9101631.388,5243487.4025],[-9101463.3354,5243301.1273],[-9101273.1869,5243092.5988],[-9101105.2459,5242907.6846],[-9100955.3274,5242743.0202],[-9100773.6247,5242543.2625],[-9100604.1242,5242357.0032],[-9100351.6763,5242078.96],[-9100117.4731,5241821.8453],[-9099876.7306,5241556.6262],[-9099506.4557,5241149.6971],[-9099232.6502,5240848.7193],[-9099132.492,5240738.7218],[-9098877.7339,5240457.9855],[-9098480.5629,5240021.3703],[-9098107.4151,5239611.0758],[-9097797.0578,5239269.614],[-9097463.8109,5238903.1875],[-9096843.5516,5238220.27],[-9096353.0519,5237680.4213],[-9095639.0336,5236894.953],[-9095211.7373,5236424.6195],[-9094509.6953,5235646.5471],[-9093937.3649,5235006.1019],[-9093179.3845,5234157.1306],[-9092830.5556,5233766.3923],[-9092763.4182,5233691.4864],[-9092471.949,5233382.5325],[-9092006.8717,5232890.101],[-9091623.3568,5232484.0153]]]},"properties":{"OBJECTID":8,"WARD_ID":2,"WARD_NAME":"3","WARD_NO":3,"GLOBALID":"83bd8fd9-4701-4d65-af59-348e6956fcc3"}},{"type":"Feature","id":10,"geometry":{"type":"Polygon","coordinates":[[[-9172102.2288,5247208.9852],[-9172460.3297,5247600.6622],[-9172629.8688,5247408.949],[-9172753.3002,5247493.6856],[-9172977.259,5247750.0801],[-9172967.1911,5248027.8252],[-9173128.2786,5248203.2922],[-9173398.0727,5248212.1673],[-9173392.6619,5248375.4048],[-9173999.328,5248395.8045],[-9173902.6205,5251168.2512],[-9173350.9851,5251108.0548],[-9172897.5202,5251013.4548],[-9172489.5629,5250987.9233],[-9172252.8218,5251059.0702],[-9172216.0055,5252543.5368],[-9171532.2994,5252532.9558],[-9171530.486,5252998.8496],[-9171381.1161,5252997.1499],[-9171339.3833,5252983.5685],[-9171343.5385,5252952.8071],[-9171369.3188,5252747.3837],[-9171374.7626,5252317.5597],[-9171359.9415,5252040.0571],[-9170380.0206,5252013.9095],[-9170081.1659,5252200.2085],[-9170047.0982,5252213.0364],[-9169981.5147,5252212.611],[-9169846.3967,5252195.8601],[-9169780.3065,5252196.147],[-9169710.814,5252211.6238],[-9169647.5594,5252239.5033],[-9169575.5668,5252268.2683],[-9169497.8819,5252283.5622],[-9169421.2803,5252310.0012],[-9169380.8763,5252309.8691],[-9169342.7248,5252296.5117],[-9169284.7066,5252263.1687],[-9169217.9797,5252240.3142],[-9169136.9408,5252219.943],[-9169050.0321,5252206.1862],[-9169007.3118,5252183.2694],[-9168961.775,5252136.263],[-9168915.205,5252132.6536],[-9168767.1288,5252136.8652],[-9168781.5002,5250987.7221],[-9168579.2763,5251050.9141],[-9168385.6397,5251033.6134],[-9168122.1817,5250988.1541],[-9168137.9541,5250115.0252],[-9169666.0253,5250162.1002],[-9169684.5345,5249317.8761],[-9169823.8461,5249321.9243],[-9169852.8786,5248237.6316],[-9169850.8905,5248220.3054],[-9169839.1443,5248209.2946],[-9169841.112,5248149.8692],[-9170532.5374,5248178.4429],[-9170563.3781,5248205.6248],[-9170586.5101,5248206.6035],[-9170591.4431,5247974.671],[-9171363.1221,5247262.224],[-9171667.6002,5247603.5244],[-9172102.2288,5247208.9852]]]},"properties":{"OBJECTID":10,"WARD_ID":3,"WARD_NAME":"5","WARD_NO":5,"GLOBALID":"292ffbc0-b5d1-4982-989b-1b6a20b20c52"}},{"type":"Feature","id":11,"geometry":{"type":"Polygon","coordinates":[[[-9151112.2523,5225303.3536],[-9151095.928,5225355.4615],[-9151249.5689,5225531.7175],[-9151887.8363,5224943.358],[-9152035.7664,5225109.5394],[-9152065.903,5225110.9214],[-9152088.4811,5225104.1745],[-9152692.7202,5224547.4545],[-9152492.0169,5224327.9045],[-9152636.2657,5224195.0313],[-9152498.8535,5224042.7385],[-9153274.3566,5223331.3087],[-9154809.2278,5221921.9878],[-9154385.573,5221462.2079],[-9153604.5657,5220634.7904],[-9153056.5345,5220056.7661],[-9153118.5968,5220062.3985],[-9153239.0168,5220003.6657],[-9153444.0218,5219893.4596],[-9153590.9805,5219706.0416],[-9153690.3074,5219507.1001],[-9153827.0498,5219376.8431],[-9153968.0534,5219313.7124],[-9154292.0914,5219288.6333],[-9154494.187,5219244.9644],[-9154776.1818,5219118.6832],[-9154957.8944,5219065.8022],[-9155141.3218,5219133.6936],[-9155398.2696,5219374.2416],[-9155550.8908,5219412.718],[-9155885.4729,5219417.9693],[-9156026.7612,5219375.1636],[-9156136.326,5219241.2042],[-9156164.06,5219057.5558],[-9156056.9001,5218663.491],[-9156063.758,5218439.4455],[-9156143.1917,5218326.302],[-9156253.7566,5218264.2724],[-9156525.6957,5218222.2461],[-9156759.3847,5218185.53],[-9156999.1488,5217947.8574],[-9157296.5423,5217496.2611],[-9157426.7633,5217393.2181],[-9157578.7571,5217390.9508],[-9157854.2813,5217518.4714],[-9157986.0416,5217516.5001],[-9158217.2535,5217391.5776],[-9158467.8575,5217204.614],[-9158780.7585,5217118.487],[-9159106.3404,5217205.1808],[-9159248.3852,5217213.2146],[-9159369.1971,5217160.5002],[-9159448.7331,5217057.5203],[-9159446.2993,5216895.394],[-9159392.2506,5216672.3085],[-9159357.6157,5216388.551],[-9159406.286,5216256.1941],[-9159526.5142,5216162.7849],[-9159657.7541,5216130.2682],[-9160064.5182,5216225.8671],[-9160700.5103,5216063.5365],[-9160931.9486,5215958.2378],[-9161194.2976,5215882.9906],[-9161447.2902,5215859.4406],[-9161638.6756,5215785.2697],[-9161758.5245,5215671.49],[-9161856.2867,5215436.616],[-9161965.0588,5215261.9534],[-9162106.101,5215208.9035],[-9162217.8666,5215227.533],[-9162361.4011,5215337.2532],[-9162514.2939,5215395.9483],[-9162676.5454,5215403.6168],[-9162787.1771,5215351.0262],[-9162936.0069,5215145.2071],[-9163115.403,5214949.7699],[-9163436.5523,5214751.453],[-9163736.3692,5214482.9152],[-9163975.4017,5214215.3236],[-9164063.2644,5214000.2876],[-9164147.6649,5213562.1585],[-9164206.2306,5213419.4878],[-9164403.1402,5213308.5683],[-9164482.2375,5213313.435],[-9164570.0526,5213362.9289],[-9164729.3136,5213527.9626],[-9164868.6689,5213672.9607],[-9165000.965,5213711.5802],[-9165172.2106,5213647.8448],[-9165301.3295,5213483.0305],[-9165411.1395,5213380.242],[-9165572.0845,5213306.4901],[-9165794.424,5213272.4613],[-9166123.4949,5213316.7717],[-9166648.7164,5213439.3483],[-9167469.747,5213509.7004],[-9167711.6638,5213434.6177],[-9167962.4705,5213278.6759],[-9168101.5058,5213103.4975],[-9168120.3166,5212924.1449],[-9168016.2891,5212573.1459],[-9168050.555,5212398.9811],[-9168151.3548,5212273.9372],[-9168840.7344,5212193.0054],[-9169141.3671,5212240.3764],[-9169596.1965,5212448.6836],[-9169793.9769,5212386.4776],[-9169887.1856,5212106.2388],[-9170052.6233,5211919.0966],[-9170375.1229,5211861.6374],[-9170870.3245,5211545.6958],[-9171281.357,5211132.115],[-9171526.2925,5211069.1096],[-9171763.3582,5211145.2349],[-9172042.1717,5211406.4684],[-9172290.1932,5211534.6178],[-9172762.7158,5211483.4222],[-9173084.8376,5211610.327],[-9173473.1861,5211970.7598],[-9173657.0153,5212086.383],[-9173961.0571,5212136.9338],[-9174269.5968,5212048.3776],[-9174614.4044,5211814.7614],[-9174890.2823,5211385.6403],[-9175075.1248,5210448.1577],[-9175612.0305,5209920.4541],[-9176542.6039,5209071.5261],[-9177045.4571,5208729.4632],[-9177201.5663,5208762.0641],[-9177279.2637,5208730.9154],[-9177510.0135,5208686.3155],[-9177613.3182,5208671.6762],[-9177761.0847,5208675.2594],[-9177893.8889,5208700.111],[-9177982.9736,5208695.879],[-9178015.6374,5208710.2354],[-9178087.2579,5208711.7239],[-9178200.0594,5208751.8272],[-9178330.1648,5208776.7189],[-9178448.416,5208819.4379],[-9178565.4099,5208867.6006],[-9178643.1025,5208908.3007],[-9178661.1202,5208935.1091],[-9178640.1581,5208973.4327],[-9178591.5501,5209054.2624],[-9178561.157,5209094.1039],[-9178511.9792,5209124.0979],[-9178443.9934,5209195.0908],[-9178373.4745,5209258.6696],[-9178348.482,5209298.4188],[-9178321.8624,5209321.9248],[-9178278.4221,5209389.1082],[-9178256.9512,5209397.611],[-9178112.8211,5209581.7712],[-9178052.0501,5209662.8112],[-9178030.6474,5209675.3804],[-9177956.5448,5209776.988],[-9177876.3006,5209894.9728],[-9177839.4471,5209952.5538],[-9177802.9603,5210031.8249],[-9177798.8429,5210107.8326],[-9177734.1716,5210118.4275],[-9177670.7386,5210202.2271],[-9177527.1121,5210417.575],[-9177431.8533,5210537.1757],[-9177401.3133,5210568.8855],[-9177337.9659,5210658.1097],[-9177325.0077,5210690.8768],[-9177289.1095,5210725.3901],[-9177256.4616,5210792.3952],[-9177214.0377,5210840.5808],[-9177142.0562,5210898.7617],[-9177091.8946,5210888.7645],[-9176973.959,5211026.3817],[-9176851.3015,5211204.765],[-9176796.2551,5211306.0566],[-9176773.2402,5211383.7504],[-9176745.3057,5211409.9919],[-9176655.408,5211528.1502],[-9176609.3581,5211602.1669],[-9176484.0421,5211809.2917],[-9176497.6372,5211978.2134],[-9176369.4577,5212133.5275],[-9176052.1067,5212707.7384],[-9175894.1499,5213038.6015],[-9175811.9131,5213335.3762],[-9175738.7411,5213522.599],[-9175501.2481,5214314.3604],[-9175192.6719,5214927.7445],[-9175118.4143,5215546.3313],[-9174846.1165,5216218.4448],[-9174699.0257,5216499.9408],[-9175109.9191,5217654.3312],[-9175051.2506,5218060.3054],[-9174857.5491,5218216.7974],[-9174674.5635,5218362.1629],[-9174616.7802,5218822.8827],[-9174752.9018,5219138.0656],[-9175035.1271,5220366.0589],[-9175254.1479,5220417.1238],[-9175316.5317,5220886.8751],[-9175527.8418,5221781.1911],[-9175879.2071,5223217.5102],[-9175961.7307,5224234.6889],[-9176087.9178,5225251.2357],[-9176245.9852,5225962.2704],[-9176393.2394,5226806.2263],[-9176569.097,5228872.8674],[-9176517.0833,5228926.4577],[-9176196.4826,5228787.9155],[-9176117.1572,5228797.812],[-9175515.2478,5228674.072],[-9175226.4354,5228581.5594],[-9174975.751,5228589.6587],[-9174824.0381,5228657.9538],[-9174764.7501,5229031.5291],[-9174792.9659,5229414.6095],[-9174753.6812,5229678.2859],[-9174557.9204,5229725.4056],[-9174319.4012,5229828.0315],[-9174144.5055,5229956.878],[-9174107.9809,5230248.0327],[-9174081.4076,5230621.1194],[-9174195.853,5230937.0601],[-9174241.3109,5231134.3261],[-9174243.377,5231143.291],[-9174234.9231,5231162.426],[-9174191.4824,5231260.7538],[-9174297.8568,5231667.1416],[-9174255.8961,5231922.5671],[-9174258.9894,5232108.8676],[-9174479.3805,5232326.9128],[-9175111.3303,5233021.0475],[-9175828.1076,5232542.9048],[-9176186.0243,5232322.0458],[-9177608.2844,5232651.4471],[-9178782.1192,5231902.599],[-9179140.9952,5232102.6774],[-9179422.8146,5231977.2325],[-9179673.1886,5231929.0571],[-9179905.8691,5232122.342],[-9180618.3621,5231638.616],[-9180976.7613,5231522.7588],[-9181088.5986,5231674.2671],[-9181059.4505,5231883.0467],[-9179759.9756,5232530.4715],[-9179192.9274,5232584.1209],[-9178744.1142,5232526.0777],[-9178604.9692,5232692.9098],[-9178512.4896,5233034.3474],[-9178474.7908,5233385.8185],[-9178314.7209,5233607.8386],[-9177718.9306,5233903.1054],[-9176947.7442,5234206.3178],[-9176774.6483,5234324.4681],[-9176612.6656,5234614.7053],[-9176582.0977,5234646.7025],[-9176579.3505,5234681.8955],[-9176802.6092,5235066.2538],[-9177233.0776,5235804.0016],[-9177318.6361,5236283.8821],[-9177108.4854,5236675.002],[-9176804.6374,5237022.1721],[-9176813.5437,5237549.6594],[-9176931.0882,5238090.9673],[-9176809.8817,5238248.0722],[-9176298.3541,5238485.2478],[-9176136.6505,5239000.0668],[-9175952.9212,5239127.631],[-9175719.0941,5239038.4143],[-9175405.0212,5238779.8512],[-9174828.4962,5238571.9399],[-9174487.0956,5238531.4267],[-9174381.4191,5238695.7278],[-9174204.1219,5239211.4666],[-9174088.9979,5239741.1531],[-9173940.3379,5240116.3528],[-9173450.4042,5240465.9678],[-9173100.9107,5240875.8156],[-9173219.414,5241218.7147],[-9173615.0759,5241724.3499],[-9173899.5389,5242061.7803],[-9174477.5368,5242346.6739],[-9174867.9176,5242526.525],[-9174934.8094,5242820.6641],[-9174896.7075,5243324.7715],[-9174907.0765,5243945.8027],[-9174710.3609,5244228.7673],[-9174189.5392,5244594.742],[-9174086.5156,5244923.0974],[-9174000.7876,5245359.3764],[-9174264.2478,5245241.9997],[-9174519.3048,5245137.0073],[-9174801.1145,5245073.7505],[-9174949.1294,5245121.6184],[-9175029.9912,5245322.37],[-9175110.8853,5245757.9121],[-9175133.4124,5246177.4423],[-9175047.2347,5246751.9612],[-9174971.8498,5247110.5643],[-9175012.7036,5247234.436],[-9175099.0793,5247302.4085],[-9175226.866,5247296.8514],[-9175624.2465,5247188.7248],[-9175805.8024,5247154.3441],[-9175938.7891,5247226.284],[-9176121.4607,5247421.9421],[-9176320.5242,5247737.1236],[-9176579.5456,5248471.9832],[-9176831.4408,5248910.8711],[-9177088.556,5249191.0563],[-9177373.2006,5249233.8509],[-9177803.4911,5249028.3752],[-9178026.0631,5248565.72],[-9178658.9387,5248843.4801],[-9179232.9281,5248790.6842],[-9179763.634,5248696.3973],[-9179977.7881,5248766.883],[-9181036.5062,5250263.9349],[-9181470.8348,5250747.9322],[-9181620.3823,5251385.3829],[-9181351.6156,5252333.263],[-9181186.8435,5252693.6917],[-9181208.5349,5253121.6997],[-9181567.7482,5254101.6525],[-9181836.9767,5255640.5268],[-9181998.5839,5256044.4029],[-9181178.2963,5256032.9166],[-9180472.1474,5256022.0939],[-9179888.2722,5256013.8631],[-9179493.9915,5256007.7616],[-9179215.06,5256003.7359],[-9177867.4943,5255963.599],[-9177048.648,5255938.7823],[-9176049.7696,5255907.4127],[-9175234.3215,5255882.3801],[-9173725.1373,5255849.1439],[-9173045.3783,5255834.5957],[-9172346.2675,5255819.6377],[-9171418.1613,5255797.5022],[-9170026.7006,5255762.4123],[-9169699.135,5255754.1285],[-9167980.6369,5255711.1125],[-9163834.5689,5255586.9006],[-9163062.4875,5255564.2184],[-9162731.7162,5255553.6975],[-9161849.5336,5255527.1765],[-9161295.6942,5255510.5117],[-9160479.6804,5255485.5682],[-9159706.1574,5255461.9507],[-9159434.2705,5255453.8233],[-9158811.9732,5255434.6456],[-9158430.9718,5255423.3704],[-9157961.1706,5255408.6468],[-9155512.3889,5255336.832],[-9155493.0656,5255977.5057],[-9154773.4233,5255958.8155],[-9154562.1443,5255953.0619],[-9154493.1778,5255930.9101],[-9153457.3633,5255901.7632],[-9152421.6276,5255871.8195],[-9150410.4942,5255805.2805],[-9147239.5056,5255693.1839],[-9146672.0127,5255691.514],[-9145525.3407,5255639.8616],[-9143178.8949,5255519.1393],[-9142668.7929,5255509.642],[-9142380.9259,5255508.0469],[-9142457.5002,5253438.9547],[-9142522.3457,5251086.5126],[-9142656.5942,5247052.1732],[-9144007.8566,5247104.5723],[-9144052.2862,5247099.0973],[-9144043.1829,5246944.6371],[-9143934.4018,5246839.6368],[-9142132.18,5244833.2216],[-9141317.1743,5243905.6973],[-9140805.3421,5243350.4456],[-9139706.3181,5242141.6159],[-9138864.3444,5241231.4978],[-9137426.2889,5239652.3064],[-9136644.5998,5238816.2596],[-9136473.7407,5238626.6582],[-9136170.724,5238292.5281],[-9136276.5185,5238145.6607],[-9136299.3412,5237883.568],[-9136362.646,5237725.6856],[-9136466.1894,5237646.1713],[-9136661.626,5237604.245],[-9136843.1947,5237497.2144],[-9136945.5175,5237325.2375],[-9137347.2911,5237071.2379],[-9137384.7895,5236940.21],[-9137200.1209,5236798.4302],[-9137107.5154,5236707.8257],[-9136976.2559,5236657.1496],[-9136895.8668,5236501.1178],[-9136986.3037,5236421.0953],[-9136998.3926,5236342.7535],[-9137139.899,5236170.2948],[-9137137.2415,5235960.9293],[-9136966.295,5235871.3327],[-9136901.8164,5235938.1018],[-9136835.0059,5235820.6594],[-9136871.8859,5235637.3109],[-9137051.2089,5235359.6912],[-9137284.9602,5235252.0106],[-9137559.7355,5235287.9184],[-9137819.718,5235192.805],[-9138224.729,5235200.5052],[-9138433.0196,5235145.471],[-9138483.7409,5235027.2103],[-9138298.0403,5234806.6392],[-9138217.183,5234611.2286],[-9138255.3738,5234532.5633],[-9138491.437,5234607.6871],[-9138699.8457,5234566.2441],[-9138826.3598,5234364.7572],[-9138943.7205,5234248.3587],[-9138964.852,5234219.5355],[-9139083.069,5234058.2639],[-9139313.7712,5233862.9041],[-9139533.2403,5233860.0454],[-9139658.693,5234009.9857],[-9139893.3062,5234117.0363],[-9140110.0956,5233907.5637],[-9140258.4614,5233713.2621],[-9140519.7348,5233690.1208],[-9140688.3936,5233608.3784],[-9140978.4358,5233167.5249],[-9141040.6663,5232971.6432],[-9141062.8594,5232882.3169],[-9141098.3944,5232739.1244],[-9141210.8068,5232545.9858],[-9141387.2212,5232370.3524],[-9141486.9263,5232183.5025],[-9141606.3408,5232041.2461],[-9141803.5165,5231987.6621],[-9141872.7403,5231909.951],[-9141865.1685,5231820.3486],[-9141742.3842,5231667.7185],[-9141706.6341,5231623.3423],[-9141425.1206,5231077.3311],[-9141339.809,5230844.7103],[-9141214.5597,5230709.1087],[-9141267.0853,5230529.7115],[-9141582.4658,5230525.5381],[-9141814.2916,5230425.979],[-9141894.7645,5230287.6593],[-9141787.3485,5229938.4925],[-9141753.6794,5229695.0266],[-9141864.2789,5229612.0294],[-9142006.6771,5229630.5198],[-9142171.3487,5229800.9008],[-9142375.8778,5229910.2812],[-9142547.7932,5229857.0305],[-9142583.6835,5229500.5391],[-9143093.3546,5228893.1489],[-9143462.0263,5228369.1848],[-9143486.0938,5227890.6324],[-9143794.9913,5227459.2129],[-9143865.4384,5227122.7173],[-9143677.7244,5226651.1558],[-9143806.8945,5226531.236],[-9144156.257,5226475.5814],[-9144343.3504,5226354.8734],[-9144414.215,5225963.3959],[-9144717.2854,5225857.415],[-9144859.2919,5225637.4847],[-9144862.5013,5225339.31],[-9144731.663,5224774.7315],[-9144852.7018,5224612.8301],[-9145005.5891,5224661.6805],[-9145268.552,5224810.8883],[-9145442.6796,5224822.7734],[-9145529.4529,5224807.3281],[-9145995.2813,5224415.9316],[-9146150.7467,5224123.1756],[-9146295.2645,5223995.5739],[-9146468.8479,5223974.8542],[-9146492.1897,5223971.817],[-9146520.5319,5223966.6739],[-9146568.1936,5223945.6477],[-9146664.9143,5223906.9704],[-9146740.3436,5223860.4378],[-9146820.4578,5223788.7175],[-9146842.8926,5223716.435],[-9146866.5377,5223606.1134],[-9146879.2761,5223542.1137],[-9146903.3547,5223426.3562],[-9146924.8557,5223366.3105],[-9146947.4515,5223336.8032],[-9146985.898,5223307.077],[-9147543.7552,5223909.829],[-9146895.4401,5224393.5062],[-9148012.4773,5225600.7549],[-9148632.4887,5225027.6572],[-9148862.0038,5225276.887],[-9149011.3887,5225137.318],[-9148967.0421,5225088.8679],[-9149132.0351,5224934.7117],[-9149194.1168,5225020.0377],[-9149276.8716,5225109.4739],[-9149361.4443,5225057.7363],[-9149414.9539,5225063.561],[-9149450.338,5225055.7737],[-9149564.6267,5225009.5568],[-9149624.6753,5224998.6848],[-9149662.5459,5225011.8547],[-9149716.1835,5225016.0027],[-9149738.0815,5225028.709],[-9149854.6043,5224919.8615],[-9150345.3387,5224464.2718],[-9151112.2523,5225303.3536]],[[-9172102.2288,5247208.9852],[-9171667.6002,5247603.5244],[-9171363.1221,5247262.224],[-9170591.4431,5247974.671],[-9170586.5101,5248206.6035],[-9170563.3781,5248205.6248],[-9170532.5374,5248178.4429],[-9169841.112,5248149.8692],[-9169839.1443,5248209.2946],[-9169850.8905,5248220.3054],[-9169852.8786,5248237.6316],[-9169823.8461,5249321.9243],[-9169684.5345,5249317.8761],[-9169666.0253,5250162.1002],[-9168137.9541,5250115.0252],[-9168122.1817,5250988.1541],[-9168385.6397,5251033.6134],[-9168579.2763,5251050.9141],[-9168781.5002,5250987.7221],[-9168767.1288,5252136.8652],[-9168915.205,5252132.6536],[-9168961.775,5252136.263],[-9169007.3118,5252183.2694],[-9169050.0321,5252206.1862],[-9169136.9408,5252219.943],[-9169217.9797,5252240.3142],[-9169284.7066,5252263.1687],[-9169342.7248,5252296.5117],[-9169380.8763,5252309.8691],[-9169421.2803,5252310.0012],[-9169497.8819,5252283.5622],[-9169575.5668,5252268.2683],[-9169606.2163,5252261.7017],[-9169710.814,5252211.6238],[-9169780.3065,5252196.147],[-9169846.3967,5252195.8601],[-9169981.5147,5252212.611],[-9170047.0982,5252213.0364],[-9170081.1659,5252200.2085],[-9170380.0206,5252013.9095],[-9171359.9415,5252040.0571],[-9171374.7626,5252317.5597],[-9171369.3188,5252747.3837],[-9171343.5385,5252952.8071],[-9171339.3833,5252983.5685],[-9171381.1161,5252997.1499],[-9171530.486,5252998.8496],[-9171532.2994,5252532.9558],[-9172216.0055,5252543.5368],[-9172252.8218,5251059.0702],[-9172489.5629,5250987.9233],[-9172897.5202,5251013.4548],[-9173350.9851,5251108.0548],[-9173902.6205,5251168.2512],[-9173999.328,5248395.8045],[-9173392.6619,5248375.4048],[-9173398.0727,5248212.1673],[-9173128.2786,5248203.2922],[-9172967.1911,5248027.8252],[-9172977.259,5247750.0801],[-9172753.3002,5247493.6856],[-9172629.8688,5247408.949],[-9172460.3297,5247600.6622],[-9172102.2288,5247208.9852]]]},"properties":{"OBJECTID":11,"WARD_ID":1,"WARD_NAME":"4","WARD_NO":4,"GLOBALID":"6084f361-fa1f-435c-9346-a1a84c55b8c5"}},{"type":"Feature","id":12,"geometry":{"type":"Polygon","coordinates":[[[-9168084.9858,5212804.9362],[-9168037.6853,5212756.5162],[-9167214.3336,5211900.4206],[-9166696.9857,5211311.8081],[-9165797.0843,5210343.9521],[-9164667.0116,5209120.5806],[-9164032.139,5208399.0225],[-9163472.3593,5207775.2758],[-9161642.6926,5205736.2785],[-9160614.0887,5204586.4028],[-9160437.5598,5204389.19],[-9159417.7258,5203256.1497],[-9158210.7257,5201919.9907],[-9157261.0037,5200863.1779],[-9156231.5807,5199714.7729],[-9154979.7481,5198307.5709],[-9154848.6664,5198160.5058],[-9154551.5659,5197840.4999],[-9153947.4418,5198395.0572],[-9154193.9847,5198667.3184],[-9153826.1302,5199001.7346],[-9153805.0415,5198973.014],[-9153764.9965,5198927.6562],[-9153729.3125,5198871.3536],[-9153715.1757,5198822.4569],[-9153672.1532,5198769.8475],[-9153623.2158,5198683.3697],[-9153486.056,5198492.5895],[-9153288.0155,5198212.3174],[-9153114.4739,5198036.3856],[-9153164.0017,5198094.3468],[-9153131.6985,5198123.7048],[-9153101.2241,5198151.4004],[-9153050.1738,5198094.8229],[-9152867.2996,5198261.0176],[-9152923.32,5198323.1042],[-9152841.6075,5198397.3612],[-9152730.6741,5198274.4095],[-9152697.1981,5198236.9265],[-9152654.9259,5198190.1747],[-9152903.6073,5197964.1846],[-9152923.7211,5197945.9016],[-9152901.5988,5197893.0224],[-9152908.08,5197895.1217],[-9152915.7511,5197895.1346],[-9152930.1451,5197882.0532],[-9152946.3225,5197878.486],[-9152875.7462,5197800.0203],[-9152923.8348,5197756.3171],[-9153015.9637,5197858.7421],[-9153224.2841,5197669.4081],[-9153214.1449,5197659.4785],[-9153249.7464,5197627.9356],[-9153035.2732,5197394.0243],[-9152696.9449,5197022.3073],[-9153307.3606,5196471.3014],[-9153299.6944,5196442.0752],[-9152365.2351,5195420.8814],[-9148890.0595,5191652.1268],[-9148836.955,5191594.7853],[-9149098.273,5191436.8546],[-9149233.5425,5191388.8238],[-9149297.1049,5191338.5353],[-9149312.4843,5191313.469],[-9149477.9564,5191220.2875],[-9149522.4904,5191150.3123],[-9149675.4421,5191071.3536],[-9149860.0261,5190964.5528],[-9150051.6674,5190815.5051],[-9150363.4564,5190553.6873],[-9150542.5193,5190437.0077],[-9151041.0062,5190185.9784],[-9151200.4458,5190065.9831],[-9151292.5138,5190030.2714],[-9151351.3871,5190015.1259],[-9151891.3495,5189674.7669],[-9152269.0562,5189474.7211],[-9152551.7896,5189287.0438],[-9152906.9672,5189093.1165],[-9153294.6506,5188928.4674],[-9154391.9334,5188250.5924],[-9155005.7385,5187940.5451],[-9155227.0441,5187812.4651],[-9155372.5493,5187755.2578],[-9155662.539,5187571.087],[-9155920.4025,5187442.4595],[-9156050.9459,5187363.4331],[-9156246.9453,5187257.7396],[-9156697.2309,5187030.7959],[-9157086.1879,5186863.491],[-9158071.1527,5186433.9692],[-9158841.0914,5186062.6606],[-9159291.8614,5185875.9985],[-9160345.1056,5185379.1784],[-9160599.1885,5185250.5104],[-9160784.2332,5185152.2557],[-9161608.4709,5184757.9218],[-9162073.5254,5184556.2511],[-9162545.4221,5184325.0933],[-9162733.7488,5184204.7347],[-9162936.7506,5184087.8191],[-9163259.8327,5183932.3393],[-9163535.7727,5183803.2742],[-9164094.2049,5183497.3093],[-9164562.7978,5183295.4895],[-9164808.8865,5183130.1593],[-9165725.7613,5182601.9849],[-9166272.8558,5182281.43],[-9166693.6497,5182069.2746],[-9167011.4455,5181818.3736],[-9167424.9501,5181609.981],[-9167879.1646,5181433.9508],[-9168406.0531,5181231.0551],[-9168990.343,5180961.1643],[-9169439.9021,5180726.439],[-9170207.216,5180248.0698],[-9170701.9716,5179873.151],[-9171204.0568,5179501.7715],[-9171688.6649,5179182.0262],[-9172031.6305,5178919.6151],[-9172409.8006,5178575.9163],[-9172850.2358,5178242.1941],[-9173136.3576,5178083.4136],[-9173544.5867,5177794.2249],[-9173898.0486,5177509.6028],[-9174318.2402,5177062.4831],[-9174768.346,5176658.8794],[-9175335.9786,5176073.6011],[-9175845.7701,5175529.6337],[-9175978.7792,5175399.0499],[-9176230.0548,5175130.7948],[-9176412.5346,5174900.3706],[-9176581.1303,5174714.1829],[-9176792.0133,5174435.6141],[-9176999.784,5174190.0999],[-9177208.5287,5174003.2379],[-9177606.6857,5173483.5825],[-9177990.6985,5172736.8194],[-9178068.9544,5172522.0717],[-9178288.8258,5172204.2918],[-9178357.2682,5172157.9312],[-9178468.7787,5172189.3107],[-9178566.8121,5172022.3876],[-9178843.2984,5171742.7313],[-9178968.2902,5171575.6377],[-9179086.597,5171445.3156],[-9179194.3855,5171340.8331],[-9179258.4829,5171244.4297],[-9179343.8007,5171107.3431],[-9179400.7808,5171022.0603],[-9179480.6719,5170889.3862],[-9179583.2175,5170659.3958],[-9179792.5748,5170420.0022],[-9179702.269,5170139.5829],[-9179589.4781,5170176.1753],[-9179539.0544,5170019.5852],[-9179749.6739,5169951.2673],[-9179849.7737,5170262.1247],[-9179976.9088,5170219.6699],[-9179985.0416,5170322.4989],[-9179941.31,5171382.5547],[-9179803.4022,5174011.7655],[-9179815.3064,5174014.8802],[-9179907.6075,5174111.7998],[-9179904.3982,5174185.0106],[-9179945.3653,5174186.8998],[-9179941.7588,5174269.1466],[-9180165.678,5174280.4699],[-9180168.7462,5174218.8033],[-9180495.5878,5174236.2266],[-9180486.9117,5174410.6231],[-9180349.63,5174395.9531],[-9180247.793,5176304.4566],[-9179969.4123,5176291.9909],[-9179912.5136,5177396.7592],[-9179625.1808,5177387.0242],[-9179187.4647,5185750.6513],[-9178966.0801,5190169.362],[-9176889.252,5190058.885],[-9176870.3085,5190080.7388],[-9176408.5131,5198010.7435],[-9176408.2708,5198064.2434],[-9176521.5749,5198011.0377],[-9176837.3809,5197847.8161],[-9176783.7434,5198750.5111],[-9177208.2341,5198529.7711],[-9177186.0329,5198991.9879],[-9177163.6371,5199020.6029],[-9177142.9609,5199451.1878],[-9177160.2614,5199473.1885],[-9177146.46,5199813.2738],[-9177242.3679,5199816.344],[-9177233.0068,5200047.2628],[-9177137.0967,5200044.1925],[-9177134.2899,5200113.3903],[-9178304.5741,5199765.0539],[-9178318.9266,5199810.1434],[-9178347.347,5199830.4748],[-9178380.6147,5199847.7459],[-9178408.015,5199880.397],[-9178401.6567,5199938.1867],[-9178377.9629,5199967.217],[-9178340.0545,5199973.0707],[-9178234.2305,5199972.71],[-9178209.9956,5199995.2445],[-9178153.8936,5200074.2696],[-9178137.7708,5200142.2038],[-9178140.1764,5200182.0631],[-9178160.4712,5200258.0501],[-9178185.8557,5200277.5678],[-9178216.273,5200288.3244],[-9178267.6611,5200262.291],[-9178319.6463,5200220.6324],[-9178365.7965,5200196.6293],[-9178393.1426,5200196.0467],[-9178418.7416,5200216.5759],[-9178446.3601,5200249.8475],[-9178456.9793,5200306.4551],[-9178458.0164,5200367.3816],[-9178409.976,5200446.0092],[-9178244.8129,5200511.9188],[-9178231.1315,5200556.6021],[-9178144.3538,5200645.2321],[-9178073.7054,5200775.7156],[-9178062.2106,5200762.7765],[-9178014.1899,5200774.1666],[-9177954.2267,5201018.719],[-9177967.5765,5201081.8299],[-9176449.3371,5201437.8514],[-9176426.6843,5202002.5794],[-9176670.6634,5202013.4534],[-9176677.8382,5201875.2892],[-9177051.7746,5201900.6795],[-9177041.3436,5202119.1811],[-9176423.1119,5202091.6668],[-9176418.8622,5202352.4934],[-9176649.0516,5202364.0443],[-9176627.6498,5202791.0795],[-9176682.3645,5202793.086],[-9176671.7832,5203055.0402],[-9176157.7148,5203038.4532],[-9176046.4059,5205726.0347],[-9176013.1069,5206033.6016],[-9176340.5023,5206360.1688],[-9176695.4046,5206639.5039],[-9176890.9812,5206855.1127],[-9177016.0056,5206880.7817],[-9177220.0299,5206800.7286],[-9177469.7247,5206831.0507],[-9177577.7701,5206945.7913],[-9177583.5201,5207088.7084],[-9177283.8723,5207490.3277],[-9177046.8597,5207913.2611],[-9177032.1353,5208038.9159],[-9176964.1024,5208200.0486],[-9176858.2935,5208316.4052],[-9176830.6267,5208473.4678],[-9176924.6529,5208557.2894],[-9177019.8107,5208607.874],[-9177045.4571,5208729.4632],[-9176542.6039,5209071.5261],[-9175612.0305,5209920.4541],[-9175075.1248,5210448.1577],[-9174890.2823,5211385.6403],[-9174614.4044,5211814.7614],[-9174269.5968,5212048.3776],[-9173961.0571,5212136.9338],[-9173657.0153,5212086.383],[-9173473.1861,5211970.7598],[-9173084.8376,5211610.327],[-9172762.7158,5211483.4222],[-9172290.1932,5211534.6178],[-9172042.1717,5211406.4684],[-9171763.3582,5211145.2349],[-9171526.2925,5211069.1096],[-9171281.357,5211132.115],[-9170870.3245,5211545.6958],[-9170375.1229,5211861.6374],[-9170052.6233,5211919.0966],[-9169887.1856,5212106.2388],[-9169793.9769,5212386.4776],[-9169596.1965,5212448.6836],[-9169141.3671,5212240.3764],[-9168840.7344,5212193.0054],[-9168151.3548,5212273.9372],[-9168050.555,5212398.9811],[-9168016.2891,5212573.1459],[-9168084.9858,5212804.9362]]]},"properties":{"OBJECTID":12,"WARD_ID":4,"WARD_NAME":"1","WARD_NO":1,"GLOBALID":"876792cc-6500-4f81-b8a7-32dbaf9ac468"}},{"type":"Feature","id":14,"geometry":{"type":"Polygon","coordinates":[[[-9145076.9303,5222391.7696],[-9145490.2028,5222836.8271],[-9145476.4304,5222905.91],[-9145714.641,5223162.6456],[-9145785.1177,5223155.7774],[-9146421.5261,5223869.3729],[-9146414.5198,5223894.4225],[-9146468.8479,5223974.8542],[-9146295.2645,5223995.5739],[-9146150.7467,5224123.1756],[-9145995.2813,5224415.9316],[-9145529.4529,5224807.3281],[-9145442.6796,5224822.7734],[-9145268.552,5224810.8883],[-9145005.5891,5224661.6805],[-9144852.7018,5224612.8301],[-9144731.663,5224774.7315],[-9144862.5013,5225339.31],[-9144859.2919,5225637.4847],[-9144717.2854,5225857.415],[-9144414.215,5225963.3959],[-9144343.3504,5226354.8734],[-9144156.257,5226475.5814],[-9143806.8945,5226531.236],[-9143677.7244,5226651.1558],[-9143865.4384,5227122.7173],[-9143794.9913,5227459.2129],[-9143486.0938,5227890.6324],[-9143462.0263,5228369.1848],[-9143093.3546,5228893.1489],[-9142583.6835,5229500.5391],[-9142547.7932,5229857.0305],[-9142375.8778,5229910.2812],[-9142171.3487,5229800.9008],[-9142006.6771,5229630.5198],[-9141864.2789,5229612.0294],[-9141753.6794,5229695.0266],[-9141787.3485,5229938.4925],[-9141894.7645,5230287.6593],[-9141814.2916,5230425.979],[-9141582.4658,5230525.5381],[-9141267.0853,5230529.7115],[-9141214.5597,5230709.1087],[-9141339.809,5230844.7103],[-9141425.1206,5231077.3311],[-9141706.6341,5231623.3423],[-9141742.3842,5231667.7185],[-9141865.1685,5231820.3486],[-9141872.7403,5231909.951],[-9141803.5165,5231987.6621],[-9141606.3408,5232041.2461],[-9141486.9263,5232183.5025],[-9141387.2212,5232370.3524],[-9141210.8068,5232545.9858],[-9141098.3944,5232739.1244],[-9141062.8594,5232882.3169],[-9141040.6663,5232971.6432],[-9140978.4358,5233167.5249],[-9140688.3936,5233608.3784],[-9140519.7348,5233690.1208],[-9140258.4614,5233713.2621],[-9140110.0956,5233907.5637],[-9139893.3062,5234117.0363],[-9139658.693,5234009.9857],[-9139533.2403,5233860.0454],[-9139313.7712,5233862.9041],[-9139083.069,5234058.2639],[-9138964.852,5234219.5355],[-9138943.7205,5234248.3587],[-9138826.3598,5234364.7572],[-9138699.8457,5234566.2441],[-9138491.437,5234607.6871],[-9138255.3738,5234532.5633],[-9138217.183,5234611.2286],[-9138298.0403,5234806.6392],[-9138483.7409,5235027.2103],[-9138433.0196,5235145.471],[-9138224.729,5235200.5052],[-9137819.718,5235192.805],[-9137559.7355,5235287.9184],[-9137284.9602,5235252.0106],[-9137051.2089,5235359.6912],[-9136871.8859,5235637.3109],[-9136835.0059,5235820.6594],[-9136901.8164,5235938.1018],[-9136966.295,5235871.3327],[-9137137.2415,5235960.9293],[-9137139.899,5236170.2948],[-9136998.3926,5236342.7535],[-9136986.3037,5236421.0953],[-9136895.8668,5236501.1178],[-9136976.2559,5236657.1496],[-9137107.5154,5236707.8257],[-9137200.1209,5236798.4302],[-9137384.7895,5236940.21],[-9137347.2911,5237071.2379],[-9136945.5175,5237325.2375],[-9136843.1947,5237497.2144],[-9136661.626,5237604.245],[-9136466.1894,5237646.1713],[-9136362.646,5237725.6856],[-9136299.3412,5237883.568],[-9136276.5185,5238145.6607],[-9136170.724,5238292.5281],[-9136052.7572,5238165.4997],[-9126166.6742,5227481.8266],[-9125567.1066,5226837.933],[-9120628.4455,5221519.0581],[-9114114.3913,5214646.1814],[-9112199.9447,5212618.6793],[-9111929.7936,5212332.4935],[-9110472.4744,5210788.0381],[-9110373.5573,5210729.5082],[-9110433.5634,5210416.845],[-9110467.947,5210066.6363],[-9110494.6234,5209757.1969],[-9110514.6106,5209454.6136],[-9110532.0553,5209168.3361],[-9110547.8678,5208853.6099],[-9110560.1348,5208590.451],[-9110565.4191,5208441.257],[-9110578.7321,5208288.5962],[-9110589.6689,5208023.4324],[-9110595.1541,5207757.6522],[-9110589.8078,5207489.2755],[-9110591.8792,5207108.3145],[-9110588.0238,5206759.9614],[-9110583.8138,5206606.8235],[-9110586.1005,5206419.0573],[-9110568.6326,5206025.4557],[-9110555.4061,5205715.1871],[-9110534.3787,5205289.7983],[-9110532.4973,5205098.7109],[-9110521.4981,5204941.6008],[-9110510.9291,5204690.9735],[-9110499.264,5204466.1135],[-9110501.314,5204262.8065],[-9110493.2433,5204128.7196],[-9110486.0998,5203814.3865],[-9110492.7236,5203527.0298],[-9110483.5704,5203420.0661],[-9110493.9836,5203316.2975],[-9110503.7604,5203139.3621],[-9110564.7614,5202478.8601],[-9110587.8338,5202217.1241],[-9110614.165,5202012.2689],[-9110607.3247,5201866.0074],[-9110610.1903,5201711.5225],[-9110631.5575,5201585.3085],[-9110643.691,5201493.736],[-9110712.6908,5201188.8944],[-9110741.1413,5201062.6166],[-9110780.1944,5200916.591],[-9110817.1932,5200746.2027],[-9110835.3606,5200625.4515],[-9110859.7447,5200570.3432],[-9110904.1884,5200487.9415],[-9110958.7751,5200347.8653],[-9111019.8165,5200169.7963],[-9111046.3477,5199986.6557],[-9111099.5237,5199904.8484],[-9111190.4544,5199828.0832],[-9111278.8923,5199755.4063],[-9111333.952,5199727.7643],[-9111411.8448,5199689.0569],[-9111519.9127,5199563.3542],[-9111669.7157,5199427.7516],[-9111799.2737,5199343.1468],[-9111939.439,5199286.2021],[-9112087.3831,5199223.0819],[-9112161.3289,5199195.2462],[-9112239.2546,5199160.5974],[-9112370.8382,5199148.4326],[-9112591.1182,5199124.5319],[-9112872.9335,5199105.4193],[-9113145.8789,5199110.0924],[-9113380.4241,5199108.3774],[-9113534.1707,5199098.679],[-9113719.4072,5199133.3541],[-9113903.1576,5199154.4958],[-9114077.2557,5199155.4157],[-9114348.0058,5199237.9612],[-9114444.2847,5199283.0214],[-9114525.457,5199302.5009],[-9114581.5854,5199351.3611],[-9114632.3797,5199332.5495],[-9114823.0695,5199388.1427],[-9115318.6567,5199531.3161],[-9115474.1641,5199560.8497],[-9115828.8142,5199662.799],[-9116032.6896,5199727.7137],[-9116133.4287,5199754.4251],[-9116219.6839,5199791.4473],[-9116611.122,5199876.7276],[-9116727.6175,5199917.4902],[-9116907.9337,5199954.8668],[-9117066.9361,5199970.7923],[-9117119.4948,5199963.4617],[-9117273.5935,5199986.2088],[-9117389.8583,5199972.7812],[-9117549.451,5199908.7697],[-9117662.5347,5199881.8266],[-9117698.0657,5199923.4405],[-9117685.3599,5199998.0802],[-9117709.0904,5200072.3317],[-9117674.8066,5200148.5574],[-9117619.1805,5200180.9849],[-9117527.062,5200216.5103],[-9116959.7135,5200162.2549],[-9114992.5688,5199973.5953],[-9114916.9069,5200227.6985],[-9115112.6719,5200495.2459],[-9115138.9506,5201194.0214],[-9115130.453,5201302.494],[-9115101.1375,5201339.3788],[-9115101.7387,5201397.6298],[-9115060.6388,5201469.863],[-9115088.9331,5201595.5693],[-9115059.5745,5201628.391],[-9115007.2144,5201656.0322],[-9115108.9199,5201701.0405],[-9115126.4446,5201711.0198],[-9115107.8219,5201725.4396],[-9115116.2001,5201752.4499],[-9115301.5125,5202049.9527],[-9115329.83,5202046.9478],[-9115355.5181,5202050.7448],[-9115391.9063,5202044.9457],[-9115367.2799,5202074.3332],[-9115326.5307,5202123.5352],[-9115177.2773,5202307.3289],[-9115126.9298,5202366.7934],[-9115048.1471,5202483.4624],[-9115044.6986,5202541.7624],[-9115030.0039,5202556.82],[-9114997.8167,5202577.4792],[-9114994.0326,5202603.2634],[-9114960.5093,5202625.2915],[-9114952.3263,5202617.2465],[-9114926.8323,5202632.4161],[-9114910.7734,5202646.1328],[-9114887.7557,5202639.5966],[-9114880.7971,5202619.3439],[-9114856.4017,5202610.112],[-9114797.9555,5202702.8582],[-9114748.3024,5202731.828],[-9114686.7229,5202782.6015],[-9114665.1803,5202788.2446],[-9114667.6016,5202761.1192],[-9114543.6896,5202789.5016],[-9114529.3691,5202841.1406],[-9114543.3688,5202889.777],[-9114526.3205,5202938.7347],[-9114491.9732,5203012.2623],[-9114463.7915,5203028.8141],[-9114489.8989,5203073.2612],[-9114461.8281,5203100.6526],[-9114463.5671,5203138.5765],[-9114440.8542,5203161.8474],[-9114433.0463,5203190.3846],[-9114429.4965,5203239.2042],[-9114443.1351,5203252.6142],[-9114428.4105,5203264.962],[-9114375.8174,5203270.9254],[-9114361.3704,5203310.3722],[-9114391.2709,5203333.7777],[-9114442.4242,5203314.9557],[-9114470.4957,5203287.5638],[-9114507.6817,5203358.9996],[-9114492.0658,5203416.0754],[-9114470.8969,5203458.3027],[-9114375.7417,5203527.0415],[-9114338.426,5203488.1281],[-9114321.6444,5203518.1139],[-9114371.9555,5203552.828],[-9114355.044,5203615.3386],[-9114369.1689,5203676.1742],[-9114342.4044,5203699.488],[-9114337.5318,5203751.0341],[-9114292.477,5203834.1639],[-9114243.0661,5203887.5251],[-9114219.0701,5203917.5864],[-9114143.9656,5203967.1469],[-9114078.1447,5204000.3491],[-9114044.642,5204025.0873],[-9113978.765,5204052.8689],[-9113949.1877,5204065.3697],[-9113926.1258,5204054.7651],[-9113896.4379,5204056.4254],[-9113885.5544,5204048.406],[-9113835.1353,5204135.6569],[-9113833.0829,5204170.2359],[-9113820.7952,5204185.9471],[-9113788.6827,5204214.7363],[-9113754.063,5204262.5244],[-9113681.5433,5204301.2146],[-9113633.3388,5204341.0105],[-9113608.0586,5204377.861],[-9113545.1122,5204428.6498],[-9113521.0989,5204457.3559],[-9113515.9323,5204480.4482],[-9113474.6559,5204537.7916],[-9113429.0947,5204572.1393],[-9113415.5932,5204572.2773],[-9113410.4951,5204602.1455],[-9113394.6782,5204640.255],[-9113370.5402,5204656.7651],[-9113306.3229,5204715.6985],[-9113269.887,5204755.3741],[-9113230.1865,5204797.7937],[-9113201.1548,5204864.5],[-9113139.5258,5204912.5646],[-9113105.9626,5204931.8812],[-9113086.1207,5204972.7432],[-9113064.6955,5204990.5808],[-9113064.1127,5205066.4857],[-9113081.0829,5205142.2123],[-9113104.2978,5205196.8678],[-9113145.7097,5205256.7594],[-9113186.9006,5205282.0915],[-9113218.9527,5205288.5414],[-9113273.0591,5205297.4768],[-9113277.3296,5205319.1192],[-9113257.57,5205368.1147],[-9113250.3197,5205452.223],[-9113230.4637,5205491.7323],[-9113193.9923,5205490.749],[-9113180.6266,5205504.4393],[-9113218.7916,5205539.2906],[-9113212.1911,5205554.2675],[-9113164.8897,5205550.6837],[-9113115.7992,5205503.7449],[-9113093.8245,5205467.373],[-9113051.8013,5205451.5363],[-9112988.5847,5205476.5772],[-9112899.9858,5205528.984],[-9112889.6213,5205572.4626],[-9112861.7711,5205622.8962],[-9112844.3949,5205640.6933],[-9112843.4548,5205681.3657],[-9112803.2597,5205712.9491],[-9112778.123,5205764.7111],[-9112781.1926,5205801.2769],[-9112774.7552,5205832.5177],[-9112722.7068,5205894.0417],[-9112690.6944,5205933.675],[-9112661.287,5205963.7937],[-9112653.5125,5205996.4039],[-9112648.0299,5206122.5196],[-9112623.0822,5206193.2585],[-9112598.8434,5206200.2818],[-9112546.3965,5206222.5014],[-9112534.7201,5206270.0626],[-9112529.3595,5206362.2923],[-9112537.7472,5206436.7616],[-9112564.8159,5206513.7532],[-9112516.563,5206478.9979],[-9112486.9763,5206491.4975],[-9112476.5952,5206533.6246],[-9112483.7289,5206571.5079],[-9112523.1097,5206592.7979],[-9112559.3944,5206574.808],[-9112575.2587,5206540.7584],[-9112592.6234,5206521.6046],[-9112607.6965,5206543.1406],[-9112585.0255,5206571.8371],[-9112582.802,5206619.3042],[-9112589.9362,5206657.1878],[-9112560.434,5206669.6869],[-9112536.2725,5206692.9765],[-9112514.9924,5206725.7259],[-9112491.0247,5206759.8582],[-9112486.2224,5206819.5527],[-9112420.9615,5206911.0384],[-9112379.6816,5206969.7473],[-9112339.6701,5207020.3098],[-9112294.0794,5207053.3056],[-9112247.0834,5207080.8931],[-9112218.6547,5207074.4021],[-9112214.345,5207048.6887],[-9112249.3814,5206905.9954],[-9112238.2785,5206876.2843],[-9112262.1522,5206832.664],[-9112249.5268,5206794.1572],[-9112236.0174,5206785.4824],[-9112202.6904,5206829.1978],[-9112113.0161,5207045.6446],[-9112067.0101,5207172.1824],[-9112037.0195,5207279.5811],[-9111948.7285,5207500.0896],[-9111910.6185,5207606.2176],[-9111835.7602,5207819.8187],[-9111781.5212,5207934.2464],[-9111760.7227,5208015.8008],[-9111716.4096,5208177.5831],[-9111664.6389,5208268.9411],[-9111650.2678,5208317.8942],[-9111644.1899,5208385.7457],[-9111602.7774,5208432.2591],[-9111582.6286,5208519.9121],[-9111581.1521,5208566.7033],[-9111542.6964,5208638.9488],[-9111528.8235,5208738.0654],[-9111568.7514,5208813.5936],[-9111505.387,5208826.432],[-9111488.3263,5208876.7705],[-9111437.0644,5208884.0637],[-9111384.0712,5208988.9981],[-9111357.5943,5209043.4993],[-9111281.8106,5209166.29],[-9111255.4673,5209234.3499],[-9111259.6947,5209251.9348],[-9111265.3268,5209274.9294],[-9111255.0316,5209326.5582],[-9111236.7793,5209393.1824],[-9111195.1856,5209422.0733],[-9111199.682,5209466.7751],[-9111220.6579,5209538.4319],[-9111244.1071,5209587.0128],[-9111227.4743,5209680.7424],[-9111220.0417,5209748.6168],[-9111259.7426,5209801.1042],[-9111228.8199,5209816.3296],[-9111202.0574,5209842.3615],[-9111200.0686,5209914.2507],[-9111174.8987,5209964.6755],[-9111175.2484,5209999.929],[-9111127.8717,5209990.91],[-9111120.0619,5210020.821],[-9111144.4325,5210026.0017],[-9111108.0713,5210174.175],[-9111080.5343,5210258.5265],[-9111060.4981,5210281.7798],[-9111050.3889,5210352.3972],[-9111026.6218,5210408.2343],[-9111013.8458,5210484.9343],[-9111045.1972,5210525.4107],[-9111079.3354,5210551.3502],[-9111111.981,5210581.9438],[-9111181.8307,5210636.9015],[-9111231.6462,5210690.5133],[-9111262.6759,5210713.3917],[-9111333.745,5210735.8706],[-9111455.6925,5210764.0232],[-9111594.3491,5210768.8165],[-9111664.9387,5210743.3715],[-9111717.0191,5210715.0187],[-9111757.4823,5210723.6615],[-9111762.1263,5210759.3995],[-9111706.857,5210827.1593],[-9111867.7377,5210998.4149],[-9112041.6158,5210857.1886],[-9112107.5685,5210831.2891],[-9112242.3302,5210836.9543],[-9112295.9816,5210815.8119],[-9112319.9314,5210813.2669],[-9112376.8755,5210807.2173],[-9112414.9462,5210771.0363],[-9112604.8347,5210686.6338],[-9112784.6613,5210487.0007],[-9112871.2718,5210402.7182],[-9113088.0681,5210361.4032],[-9113381.9697,5210320.4194],[-9113611.5254,5210250.1293],[-9113663.638,5210214.8984],[-9113752.7156,5210139.4482],[-9113848.789,5210111.1517],[-9114002.8724,5209984.8107],[-9114144.5214,5209699.9438],[-9114312.3807,5209600.5809],[-9114441.8132,5209574.836],[-9114540.3285,5209564.3251],[-9114650.9594,5209549.6198],[-9114708.4463,5209490.7172],[-9114761.8799,5209431.8567],[-9114834.8671,5209435.1673],[-9114858.3764,5209487.8058],[-9114971.3998,5209443.2408],[-9115004.0933,5209338.4925],[-9114932.6898,5209226.6916],[-9115023.5651,5209130.8323],[-9115117.2802,5209048.5026],[-9115627.029,5208701.5008],[-9115678.9609,5208629.0971],[-9115743.6123,5208610.7941],[-9115819.7709,5208530.0016],[-9115830.0405,5208478.3725],[-9115824.1862,5208435.0475],[-9115794.2876,5208417.7353],[-9115803.5309,5208397.3012],[-9115839.7737,5208375.2283],[-9115887.203,5208389.6448],[-9115961.4201,5208382.0869],[-9116028.8696,5208373.2437],[-9116066.4766,5208352.5115],[-9116262.3112,5208349.0957],[-9116364.6792,5208320.9012],[-9116485.1607,5208216.59],[-9116570.9776,5208156.0295],[-9116578.2571,5208077.3178],[-9116595.5169,5208048.6644],[-9116628.7993,5208002.2168],[-9116717.1865,5207929.4275],[-9116746.7292,5207912.846],[-9116913.8224,5207489.4494],[-9116970.7977,5207384.4582],[-9117099.5925,5207301.7519],[-9117272.1572,5207215.19],[-9117402.8698,5207250.4882],[-9117560.0828,5207344.0111],[-9117771.6006,5207296.9536],[-9117871.1256,5207211.8905],[-9117795.4162,5207145.1445],[-9117610.7672,5207125.074],[-9117619.1054,5207103.1946],[-9117593.4448,5207116.1205],[-9117484.7256,5207088.6936],[-9117495.8413,5207038.8997],[-9117503.8619,5206980.2271],[-9117479.9972,5206896.5613],[-9117597.1072,5206846.0881],[-9117613.0567,5206839.2132],[-9117627.838,5206804.0379],[-9117735.2086,5206611.7229],[-9117735.262,5206611.7928],[-9117749.4861,5206585.6656],[-9117822.6329,5206549.6069],[-9117879.861,5206500.9311],[-9117898.5294,5206520.8436],[-9117952.9469,5206482.3737],[-9118022.4009,5206384.7159],[-9118076.7258,5206305.6802],[-9118166.8568,5206135.5019],[-9118360.1712,5205870.3854],[-9118396.8226,5205850.851],[-9118249.4792,5205693.8542],[-9118261.8304,5205644.3123],[-9118324.924,5205549.6866],[-9118371.5157,5205489.7418],[-9118507.8873,5205284.6606],[-9118592.5602,5205272.3408],[-9118721.233,5205277.4609],[-9118787.2735,5205299.7328],[-9118865.9187,5205256.3589],[-9118914.8251,5205244.7192],[-9118990.4979,5205221.6786],[-9119057.9708,5205171.7397],[-9119109.7671,5205134.6699],[-9119147.8161,5205117.0462],[-9119210.1157,5205114.566],[-9119190.6862,5205064.4363],[-9119251.4423,5205064.8661],[-9119303.4554,5204995.3832],[-9119327.1198,5204942.4246],[-9119339.4487,5204887.1551],[-9119361.5677,5204840.7002],[-9119394.3729,5204771.0691],[-9119448.3619,5204745.0669],[-9119502.5478,5204737.2152],[-9119551.2877,5204727.6089],[-9119585.5933,5204682.7919],[-9119630.3601,5204643.7999],[-9119698.8191,5204629.9396],[-9119798.596,5204641.9677],[-9119860.7875,5204623.3201],[-9119926.6206,5204585.1095],[-9119968.8099,5204537.7106],[-9120069.3858,5204436.613],[-9120126.4272,5204398.7188],[-9120190.5979,5204331.5071],[-9120320.8215,5204259.8074],[-9120424.9609,5204200.9065],[-9120464.7798,5204191.8858],[-9120544.7306,5204163.3174],[-9120807.3996,5203611.5849],[-9120719.2551,5203452.6499],[-9120670.9763,5203235.0099],[-9120618.5854,5203135.31],[-9120628.4595,5202926.5233],[-9120703.4771,5202872.8527],[-9120820.0724,5202837.8464],[-9120821.3852,5202821.703],[-9120836.5926,5202764.2902],[-9120888.9644,5202746.1269],[-9120936.0251,5202713.5395],[-9120958.3594,5202682.2597],[-9121006.0973,5202617.5947],[-9121032.2012,5202554.2037],[-9121055.0664,5202477.4006],[-9121059.5506,5202416.3178],[-9121076.5815,5202380.5242],[-9121102.237,5202358.2556],[-9121524.3296,5202629.3767],[-9121582.6416,5202653.1204],[-9121517.3928,5202121.3435],[-9121378.2007,5201616.1561],[-9121332.2643,5200997.5164],[-9121254.0814,5200514.7414],[-9121118.6667,5200597.5186],[-9121035.2606,5200622.8233],[-9121010.0051,5200535.0458],[-9120942.2922,5200390.84],[-9120830.3025,5200351.4271],[-9120799.3777,5200362.8662],[-9120764.1093,5200371.4403],[-9120748.3555,5200372.7867],[-9120710.7001,5200373.1274],[-9120696.3233,5200366.5865],[-9120686.1014,5200350.1921],[-9120661.8206,5200330.2742],[-9120623.6156,5200321.1746],[-9120603.363,5200327.5607],[-9120591.2334,5200333.5148],[-9120568.6346,5200339.0028],[-9120553.5622,5200356.1869],[-9120527.6286,5200367.5392],[-9120514.518,5200388.1413],[-9120483.019,5200398.208],[-9120446.3781,5200407.6996],[-9120424.9956,5200404.1774],[-9120414.0733,5200397.4289],[-9120401.1227,5200398.893],[-9120378.257,5200388.0581],[-9120359.8513,5200390.304],[-9120319.2239,5200399.6044],[-9120306.6959,5200402.455],[-9120284.7832,5200404.1606],[-9120257.892,5200400.0806],[-9120257.2729,5200382.4671],[-9120235.1329,5200380.7667],[-9120219.7442,5200384.1767],[-9120206.7356,5200381.4187],[-9120198.1317,5200374.2517],[-9120184.1392,5200382.4352],[-9120175.2564,5200382.7721],[-9120154.8971,5200386.2053],[-9120114.0908,5200390.4809],[-9120095.1153,5200402.665],[-9120073.6388,5200404.6485],[-9120051.2835,5200418.4543],[-9120000.608,5200429.0796],[-9119979.5896,5200422.7727],[-9119927.3299,5200417.114],[-9119866.6293,5200413.4517],[-9119865.463,5200334.9771],[-9119832.632,5200332.9967],[-9119832.0196,5200291.728],[-9119626.1708,5200227.6757],[-9119601.4976,5200231.5704],[-9119553.2354,5200257.1765],[-9119542.3226,5200266.2481],[-9119538.3906,5200273.8444],[-9119529.3053,5200278.2997],[-9119515.5675,5200262.5845],[-9119494.2189,5200238.3607],[-9119473.847,5200241.3739],[-9119457.7203,5200244.0619],[-9119432.6554,5200234.9109],[-9119342.6959,5200231.9436],[-9119314.6154,5200241.5505],[-9119306.7313,5200259.4253],[-9119296.114,5200266.6389],[-9119270.0884,5200270.5528],[-9119226.6104,5200280.2776],[-9119186.1979,5200295.4405],[-9119158.1786,5200290.4335],[-9119115.1033,5200269.0571],[-9119102.0024,5200255.147],[-9119075.6439,5200250.3142],[-9119054.5183,5200252.1656],[-9119033.5351,5200247.5306],[-9119007.5121,5200252.3243],[-9118959.2088,5200264.8147],[-9118904.3437,5200286.0443],[-9118868.7442,5200311.9641],[-9118851.1424,5200329.4235],[-9118813.625,5200365.3397],[-9118780.0144,5200390.5037],[-9118763.0323,5200402.7124],[-9118743.9358,5200410.4463],[-9118729.0692,5200427.1296],[-9118678.1976,5200478.3677],[-9118662.6425,5200496.4484],[-9118648.7072,5200512.7803],[-9118630.4109,5200522.2909],[-9118624.1755,5200527.6225],[-9118608.9561,5200526.7337],[-9118616.54,5200500.333],[-9118608.8933,5200471.9912],[-9118586.2382,5200435.8441],[-9118551.0766,5200416.4712],[-9118514.8699,5200389.7197],[-9118344.5322,5200319.0361],[-9118225.3481,5200304.0931],[-9118019.7163,5200300.2493],[-9117990.5719,5200293.7026],[-9117979.9871,5200282.8471],[-9117981.4234,5200261.2682],[-9117992.2259,5200246.6293],[-9117844.2224,5200213.3716],[-9117893.6248,5199991.7338],[-9117901.6324,5199993.5325],[-9117931.6153,5199983.552],[-9117930.3087,5199900.7772],[-9117930.0094,5199879.7],[-9118015.4969,5199497.4409],[-9118029.997,5199502.5467],[-9118060.123,5199361.8256],[-9118233.5643,5199409.6879],[-9118221.2431,5199463.5901],[-9118264.1416,5199482.9524],[-9118457.9248,5199567.0387],[-9118565.3914,5199607.2892],[-9118611.2309,5199619.1061],[-9118870.395,5199715.7031],[-9118997.7726,5199752.7543],[-9119048.9772,5199754.6878],[-9119109.0164,5199772.7101],[-9119141.4712,5199808.5713],[-9119359.2822,5199888.6038],[-9119442.4902,5199922.7529],[-9119484.2411,5199943.9112],[-9119587.6306,5199969.3709],[-9119649.5372,5199981.1251],[-9119742.9966,5200015.1766],[-9119824.4152,5200033.7613],[-9119858.0462,5200044.9118],[-9119895.7015,5200052.1577],[-9119927.1899,5200066.9632],[-9120011.2559,5200082.8015],[-9120083.7165,5200103.0045],[-9120164.7541,5200123.1633],[-9120191.2772,5200133.1943],[-9120194.782,5200114.7681],[-9120225.144,5200066.1757],[-9120266.6895,5200080.6317],[-9120308.7082,5200106.8379],[-9120350.6076,5200132.968],[-9120371.5588,5200146.033],[-9120447.6636,5200191.5565],[-9120598.7966,5200200.45],[-9120825.417,5200212.1794],[-9121734.3637,5200372.6],[-9122418.1334,5200440.1146],[-9122719.1755,5200442.6683],[-9122997.5893,5200434.2702],[-9123577.1133,5200472.9749],[-9124229.2046,5200610.2307],[-9124719.8203,5200623.9832],[-9125294.5464,5200640.2609],[-9125780.4466,5200620.6472],[-9126337.3709,5200628.9179],[-9126666.7747,5200603.0344],[-9126954.1961,5200625.9009],[-9127166.4835,5200642.8517],[-9128333.9291,5200631.3135],[-9129374.2643,5200626.3366],[-9129801.0507,5200666.0089],[-9130167.6511,5200609.7088],[-9130669.2721,5200544.2049],[-9131062.3774,5200451.6524],[-9131408.9656,5200415.3784],[-9131924.3417,5200331.2624],[-9132277.357,5200205.0068],[-9133025.7594,5200058.7726],[-9133238.4556,5199998.8292],[-9133470.0277,5199907.9246],[-9134384.7087,5199653.533],[-9134844.1679,5199486.0438],[-9135292.8529,5199337.0512],[-9135958.9068,5199166.4225],[-9136556.4824,5198898.5605],[-9137115.8611,5198670.6874],[-9137618.1877,5198425.3385],[-9137924.5726,5198325.8425],[-9138467.4668,5198105.6689],[-9140129.4823,5197242.8617],[-9141928.9927,5196289.5675],[-9142928.4663,5195728.3172],[-9143801.1134,5195176.1433],[-9144762.6327,5194527.4718],[-9145724.9132,5193944.8742],[-9146513.1025,5193489.522],[-9147115.6246,5193113.8368],[-9148272.0018,5192028.7748],[-9148844.3747,5191602.0295],[-9148890.0595,5191652.1268],[-9152365.2351,5195420.8814],[-9153299.6944,5196442.0752],[-9153307.3606,5196471.3014],[-9152696.9449,5197022.3073],[-9153035.2732,5197394.0243],[-9153249.7464,5197627.9356],[-9153215.1102,5197659.4172],[-9153224.2841,5197669.4081],[-9153015.9637,5197858.7421],[-9152923.8348,5197756.3171],[-9152875.7462,5197800.0203],[-9152946.3225,5197878.486],[-9152930.1451,5197882.0532],[-9152915.7511,5197895.1346],[-9152908.08,5197895.1217],[-9152901.7888,5197893.476],[-9152923.7211,5197945.9016],[-9152903.6073,5197964.1846],[-9152654.9259,5198190.1747],[-9152697.1981,5198236.9265],[-9152730.6741,5198274.4095],[-9152841.6075,5198397.3612],[-9152923.32,5198323.1042],[-9152867.2996,5198261.0176],[-9153050.1738,5198094.8229],[-9153101.2241,5198151.4004],[-9153131.6985,5198123.7048],[-9153164.0017,5198094.3468],[-9153114.4739,5198036.3856],[-9153288.0155,5198212.3174],[-9153486.056,5198492.5895],[-9153623.2158,5198683.3697],[-9153672.1532,5198769.8475],[-9153715.1757,5198822.4569],[-9153729.3125,5198871.3536],[-9153764.9965,5198927.6562],[-9153805.0415,5198973.014],[-9153826.1302,5199001.7346],[-9154193.9847,5198667.3184],[-9153947.4418,5198395.0572],[-9154551.5659,5197840.4999],[-9154848.6664,5198160.5058],[-9154979.7481,5198307.5709],[-9156231.5807,5199714.7729],[-9157261.0037,5200863.1779],[-9158210.7257,5201919.9907],[-9159417.7258,5203256.1497],[-9160437.5598,5204389.19],[-9160614.0887,5204586.4028],[-9161642.6926,5205736.2785],[-9163472.3593,5207775.2758],[-9164032.139,5208399.0225],[-9164667.0116,5209120.5806],[-9165797.0843,5210343.9521],[-9166696.9857,5211311.8081],[-9167214.3336,5211900.4206],[-9168037.6853,5212756.5162],[-9168084.9858,5212804.9362],[-9168120.3166,5212924.1449],[-9168101.5058,5213103.4975],[-9167962.4705,5213278.6759],[-9167711.6638,5213434.6177],[-9167469.747,5213509.7004],[-9166648.7164,5213439.3483],[-9166123.4949,5213316.7717],[-9165794.424,5213272.4613],[-9165572.0845,5213306.4901],[-9165411.1395,5213380.242],[-9165301.3295,5213483.0305],[-9165172.2106,5213647.8448],[-9165000.965,5213711.5802],[-9164868.6689,5213672.9607],[-9164729.3136,5213527.9626],[-9164570.0526,5213362.9289],[-9164482.2375,5213313.435],[-9164403.1402,5213308.5683],[-9164206.2306,5213419.4878],[-9164147.6649,5213562.1585],[-9164063.2644,5214000.2876],[-9163975.4017,5214215.3236],[-9163736.3692,5214482.9152],[-9163436.5523,5214751.453],[-9163115.403,5214949.7699],[-9162936.0069,5215145.2071],[-9162787.1771,5215351.0262],[-9162676.5454,5215403.6168],[-9162514.2939,5215395.9483],[-9162361.4011,5215337.2532],[-9162217.8666,5215227.533],[-9162106.101,5215208.9035],[-9161965.0588,5215261.9534],[-9161856.2867,5215436.616],[-9161758.5245,5215671.49],[-9161638.6756,5215785.2697],[-9161447.2902,5215859.4406],[-9161194.2976,5215882.9906],[-9160931.9486,5215958.2378],[-9160700.5103,5216063.5365],[-9160064.5182,5216225.8671],[-9159657.7541,5216130.2682],[-9159526.5142,5216162.7849],[-9159406.286,5216256.1941],[-9159357.6157,5216388.551],[-9159392.2506,5216672.3085],[-9159446.2993,5216895.394],[-9159448.7331,5217057.5203],[-9159369.1971,5217160.5002],[-9159248.3852,5217213.2146],[-9159106.3404,5217205.1808],[-9158780.7585,5217118.487],[-9158467.8575,5217204.614],[-9158217.2535,5217391.5776],[-9157986.0416,5217516.5001],[-9157854.2813,5217518.4714],[-9157578.7571,5217390.9508],[-9157426.7633,5217393.2181],[-9157296.5423,5217496.2611],[-9156999.1488,5217947.8574],[-9156759.3847,5218185.53],[-9156525.6957,5218222.2461],[-9156253.7566,5218264.2724],[-9156143.1917,5218326.302],[-9156063.758,5218439.4455],[-9156056.9001,5218663.491],[-9156164.06,5219057.5558],[-9156136.326,5219241.2042],[-9156026.7612,5219375.1636],[-9155885.4729,5219417.9693],[-9155550.8908,5219412.718],[-9155398.2696,5219374.2416],[-9155141.3218,5219133.6936],[-9154957.8944,5219065.8022],[-9154776.1818,5219118.6832],[-9154494.187,5219244.9644],[-9154292.0914,5219288.6333],[-9153968.0534,5219313.7124],[-9153827.0498,5219376.8431],[-9153690.3074,5219507.1001],[-9153672.0956,5219466.2442],[-9153605.2214,5219390.8684],[-9154413.1981,5218975.3616],[-9154743.5049,5218841.5935],[-9155340.6965,5218843.0191],[-9155329.1723,5218797.4007],[-9154062.6421,5217424.9739],[-9153223.7943,5218018.9501],[-9152831.6294,5217589.0489],[-9152677.4137,5217733.2543],[-9152741.1162,5217803.0943],[-9152501.222,5218023.8406],[-9152481.1948,5218001.8807],[-9152475.7253,5218006.9063],[-9152430.9856,5217957.8533],[-9152402.175,5217908.6093],[-9152135.4195,5217613.8684],[-9152178.768,5217572.3256],[-9152102.7636,5217601.5774],[-9151653.7186,5217112.2143],[-9151781.834,5216990.7152],[-9151278.2983,5216439.2329],[-9150462.1359,5217195.3418],[-9149705.6376,5216376.2226],[-9148619.3854,5217389.4687],[-9148533.8646,5217306.5522],[-9148405.4701,5217426.6391],[-9148425.8037,5217448.4514],[-9148266.4988,5217597.0642],[-9148147.3212,5217468.8775],[-9148091.5148,5217408.853],[-9148047.1098,5217452.8663],[-9148019.8633,5217474.6982],[-9148003.2373,5217486.2245],[-9147971.5718,5217508.7313],[-9147946.1761,5217541.3466],[-9148182.1862,5217795.3607],[-9146660.7106,5219203.2174],[-9145756.603,5220074.3457],[-9145517.8149,5220293.4466],[-9144835.6666,5220931.5238],[-9145132.4988,5221249.729],[-9145262.1632,5221129.2342],[-9145303.7664,5221183.933],[-9145344.8643,5221216.1497],[-9145373.5846,5221227.2083],[-9145416.6374,5221243.6335],[-9145447.1195,5221271.3015],[-9145462.2823,5221294.9278],[-9145491.9926,5221360.0514],[-9145527.032,5221391.5741],[-9145566.0563,5221428.4688],[-9145586.6906,5221476.3878],[-9145585.1337,5221531.1595],[-9145578.5541,5221567.4651],[-9145576.9822,5221607.9616],[-9145573.9855,5221666.395],[-9145587.508,5221718.4202],[-9145585.0964,5221734.7074],[-9145625.4937,5221778.2563],[-9145693.2792,5221851.3275],[-9145076.9303,5222391.7696]]]},"properties":{"OBJECTID":14,"WARD_ID":5,"WARD_NAME":"2","WARD_NO":2,"GLOBALID":"e6d2e4b5-91e1-47d4-8539-af2d92f84ab2"}}]}