{"type": "FeatureCollection", "features": [{"type": "Feature", "properties": {"district_id": "Kelowna"}, "geometry": {"type": "Polygon", "coordinates": [[[-119.58824398, 49.773437], [-119.58859885, 49.78063244], [-119.5886395, 49.78145654], [-119.58865553, 49.78162721], [-119.58869949, 49.78249103], [-119.58870361, 49.78257189], [-119.58872986, 49.80174538], [-119.58467161, 49.80281562], [-119.58282966, 49.80333219], [-119.57393841, 49.80593336], [-119.56454951, 49.81000732], [-119.55648984, 49.81486328], [-119.54963329, 49.81888064], [-119.54297921, 49.82255274], [-119.53935539, 49.82441836], [-119.53631178, 49.82626475], [-119.53521827, 49.82696096], [-119.53234352, 49.82854146], [-119.52900092, 49.83084015], [-119.52741243, 49.83203205], [-119.52369657, 49.83521058], [-119.52218398, 49.83686624], [-119.51705507, 49.84535623], [-119.51545301, 49.85093591], [-119.51368722, 49.86303803], [-119.51229825, 49.87301436], [-119.51150101, 49.87873852], [-119.51296767, 49.8864937], [-119.51307747, 49.88707419], [-119.51416615, 49.89282882], [-119.51573856, 49.8948151], [-119.51759841, 49.89716424], [-119.51862524, 49.90054513], [-119.51827454, 49.90397709], [-119.51489815, 49.90995427], [-119.50696994, 49.91796453], [-119.50451937, 49.92043922], [-119.50242287, 49.92255644], [-119.48451283, 49.94093747], [-119.48167902, 49.94767517], [-119.47978784, 49.96178303], [-119.47929992, 49.96429667], [-119.4789525, 49.96696021], [-119.47565276, 49.9748855], [-119.47533913, 49.97576417], [-119.47520177, 49.9761039], [-119.47513948, 49.97625794], [-119.47492504, 49.97678826], [-119.47390443, 49.97905673], [-119.47228218, 49.98271005], [-119.46873208, 49.99067026], [-119.46881421, 49.99203421], [-119.46885504, 49.99323043], [-119.46902947, 49.99793764], [-119.46918654, 50.00078389], [-119.4669497, 50.00308649], [-119.46661632, 50.00581056], [-119.44088377, 50.00574709], [-119.43817185, 50.00574103], [-119.43787638, 50.00574022], [-119.43512646, 50.00573849], [-119.43313117, 50.00574048], [-119.43301385, 50.0057406], [-119.43294386, 50.00574067], [-119.43240648, 50.0057412], [-119.43106815, 50.00574251], [-119.43101206, 50.00574202], [-119.42936894, 50.00574193], [-119.42915434, 50.00574208], [-119.42436615, 50.0057462], [-119.41997909, 50.00574633], [-119.41987865, 50.00574501], [-119.41964631, 50.00573996], [-119.41959033, 50.0057435], [-119.41867848, 50.0057357], [-119.4163126, 50.00571222], [-119.41542995, 50.00570378], [-119.41514923, 50.0057011], [-119.41452107, 50.00569509], [-119.41172658, 50.00566831], [-119.40893886, 50.00564153], [-119.40874633, 50.00579067], [-119.40682399, 50.00579589], [-119.40406292, 50.00580332], [-119.4031368, 50.00580641], [-119.40313492, 50.0058058], [-119.4027094, 50.00580722], [-119.40270942, 50.00582576], [-119.40271117, 50.0071031], [-119.40271193, 50.007655], [-119.40271194, 50.00767206], [-119.40271207, 50.00776731], [-119.4027121, 50.00779033], [-119.40271227, 50.00790715], [-119.40271228, 50.00791797], [-119.40271409, 50.00923424], [-119.40271361, 50.00925428], [-119.40271319, 50.00927433], [-119.40271283, 50.00929439], [-119.40271252, 50.00931443], [-119.40271227, 50.00933448], [-119.40271207, 50.00935452], [-119.40271193, 50.00937457], [-119.40271184, 50.00939463], [-119.4027118, 50.00941467], [-119.40271182, 50.00943472], [-119.40271189, 50.00945478], [-119.40271201, 50.00947482], [-119.40271221, 50.00949487], [-119.40271245, 50.00951491], [-119.40271273, 50.00953495], [-119.40271307, 50.00955501], [-119.40271348, 50.00957506], [-119.40271394, 50.0095951], [-119.40271445, 50.00961515], [-119.40271501, 50.00963519], [-119.40271563, 50.00965524], [-119.40271631, 50.00967528], [-119.40271703, 50.00969533], [-119.40271782, 50.00971537], [-119.40271866, 50.00973542], [-119.40271955, 50.00975545], [-119.40272049, 50.00977549], [-119.40272149, 50.00979552], [-119.40272255, 50.00981557], [-119.40272367, 50.0098356], [-119.40272484, 50.00985564], [-119.40272604, 50.00987567], [-119.40272733, 50.0098957], [-119.40272865, 50.00991573], [-119.40273004, 50.00993576], [-119.40273148, 50.00995579], [-119.40273297, 50.00997582], [-119.40273452, 50.00999584], [-119.40273612, 50.01001587], [-119.40273777, 50.01003588], [-119.40273949, 50.0100559], [-119.40274125, 50.01007591], [-119.40274307, 50.01009593], [-119.40274496, 50.01011594], [-119.40274688, 50.01013596], [-119.40274887, 50.01015595], [-119.4027509, 50.01017597], [-119.402753, 50.01019597], [-119.40275515, 50.01021597], [-119.40275734, 50.01023597], [-119.4027596, 50.01025597], [-119.40314419, 50.01404466], [-119.4031444, 50.0142272], [-119.40314558, 50.01557631], [-119.40314462, 50.01560392], [-119.40314466, 50.01563146], [-119.40314633, 50.01570564], [-119.40315752, 50.01620348], [-119.4031532, 50.01765667], [-119.403151, 50.01839813], [-119.403151, 50.01839826], [-119.40314733, 50.01963608], [-119.40314758, 50.01998472], [-119.4031476, 50.02002864], [-119.40239953, 50.0200298], [-119.40109198, 50.02003183], [-119.39994079, 50.0200336], [-119.39903681, 50.02003498], [-119.39867008, 50.02003554], [-119.39860483, 50.02003564], [-119.39856066, 50.02003571], [-119.39854822, 50.02011088], [-119.39853745, 50.02017365], [-119.3985348, 50.02019352], [-119.39852457, 50.02024764], [-119.39852419, 50.02024959], [-119.3985197, 50.02027224], [-119.39851894, 50.02027605], [-119.39851643, 50.02028846], [-119.39851389, 50.02030087], [-119.39851132, 50.02031327], [-119.39850532, 50.0203416], [-119.39849917, 50.02036992], [-119.39849284, 50.02039822], [-119.39848286, 50.02044147], [-119.3984725, 50.0204847], [-119.39846175, 50.02052788], [-119.39840452, 50.0207358], [-119.39833848, 50.02094263], [-119.39826367, 50.02114822], [-119.39825393, 50.02117328], [-119.39824405, 50.02119831], [-119.39823405, 50.02122332], [-119.39821866, 50.02126172], [-119.39820297, 50.02130006], [-119.39818697, 50.02133836], [-119.39812848, 50.0214703], [-119.39806635, 50.02160155], [-119.39800061, 50.02173206], [-119.39798927, 50.02175374], [-119.39798357, 50.02176457], [-119.39797784, 50.0217754], [-119.39790718, 50.02190489], [-119.39783294, 50.02203354], [-119.39775517, 50.02216132], [-119.39771309, 50.02222779], [-119.39767005, 50.02229401], [-119.39762605, 50.02235997], [-119.39743526, 50.02264777], [-119.39743502, 50.02264813], [-119.39645544, 50.0240906], [-119.39645267, 50.02409474], [-119.39645041, 50.02409811], [-119.3963001, 50.02432231], [-119.39573331, 50.02516774], [-119.39573166, 50.0251702], [-119.39557, 50.02541133], [-119.39556996, 50.02541174], [-119.39536438, 50.02541074], [-119.39537015, 50.02416561], [-119.39536902, 50.02351541], [-119.39536902, 50.02351534], [-119.39536727, 50.02250951], [-119.39536728, 50.0225094], [-119.39536709, 50.02240161], [-119.39536596, 50.02174861], [-119.3953658, 50.02165686], [-119.39534204, 50.02165671], [-119.39442362, 50.02165053], [-119.39417105, 50.02164884], [-119.39395732, 50.02164741], [-119.39395718, 50.02164741], [-119.39336206, 50.02164342], [-119.39320803, 50.02164236], [-119.39320793, 50.02164236], [-119.39307349, 50.02164143], [-119.39293143, 50.02164045], [-119.3923696, 50.02163658], [-119.39187172, 50.02163314], [-119.39186975, 50.02190035], [-119.39186943, 50.02194329], [-119.39186637, 50.02235792], [-119.39186113, 50.02306879], [-119.39185973, 50.02326263], [-119.39185314, 50.02417253], [-119.39185093, 50.02453025], [-119.38894512, 50.02452102], [-119.38886134, 50.02452076], [-119.38876368, 50.02452045], [-119.38766638, 50.02451696], [-119.38685699, 50.02451438], [-119.38681513, 50.02451425], [-119.38487653, 50.02450806], [-119.38488688, 50.02313984], [-119.3848942, 50.02217126], [-119.38489889, 50.02154722], [-119.38490148, 50.02120447], [-119.38490909, 50.02018651], [-119.38490915, 50.02017765], [-119.38491195, 50.02008418], [-119.38491216, 50.02003021], [-119.38290135, 50.01999067], [-119.38278362, 50.0199893], [-119.37937417, 50.01994342], [-119.37911216, 50.01993817], [-119.37527154, 50.01984745], [-119.37531737, 50.01757818], [-119.37532127, 50.01739881], [-119.3754057, 50.01376179], [-119.37543143, 50.01264473], [-119.37515294, 50.0075821], [-119.37503099, 50.00535125], [-119.37505807, 49.99803317], [-119.37491938, 49.99097157], [-119.37477717, 49.98373581], [-119.37463561, 49.97650424], [-119.36598662, 49.97644004], [-119.36598404, 49.97630371], [-119.36597854, 49.97601186], [-119.36597155, 49.97564346], [-119.36596803, 49.97545922], [-119.36594291, 49.97525712], [-119.36596065, 49.9750589], [-119.36595674, 49.97441727], [-119.36595312, 49.97382381], [-119.36595178, 49.97360288], [-119.36535223, 49.97339443], [-119.3652179, 49.97337988], [-119.36396087, 49.97316759], [-119.36382539, 49.97241685], [-119.36381189, 49.97234068], [-119.36378014, 49.97216123], [-119.36376404, 49.97207098], [-119.36376398, 49.97207068], [-119.36374833, 49.97198291], [-119.36374833, 49.97198255], [-119.36375229, 49.97174017], [-119.36375347, 49.97166824], [-119.36375347, 49.97166789], [-119.36377969, 49.970063], [-119.36377984, 49.9700538], [-119.36380392, 49.9685797], [-119.36380432, 49.96856972], [-119.36384591, 49.96856948], [-119.36426828, 49.96856804], [-119.36454587, 49.96856531], [-119.36454716, 49.9685653], [-119.36474609, 49.96856411], [-119.36477711, 49.96856425], [-119.36485213, 49.96856734], [-119.36492652, 49.96857428], [-119.36499982, 49.96858502], [-119.36508246, 49.96860207], [-119.36516232, 49.96862396], [-119.36523871, 49.9686505], [-119.3652736, 49.96866346], [-119.36530905, 49.96867575], [-119.36534503, 49.96868738], [-119.36543781, 49.9687132], [-119.36553343, 49.96873425], [-119.36563131, 49.96875041], [-119.36573086, 49.96876158], [-119.36574736, 49.96876288], [-119.36576389, 49.96876406], [-119.36578044, 49.96876511], [-119.36579882, 49.96876612], [-119.36581721, 49.96876697], [-119.36583563, 49.96876767], [-119.36584212, 49.96876789], [-119.36584861, 49.96876808], [-119.3658551, 49.96876826], [-119.36587172, 49.96876861], [-119.36588835, 49.96876883], [-119.36590498, 49.96876893], [-119.36592153, 49.96876878], [-119.36593808, 49.96876851], [-119.36595462, 49.96876812], [-119.36595553, 49.96876808], [-119.36596349, 49.96876785], [-119.36597146, 49.96876758], [-119.36597942, 49.96876728], [-119.3659894, 49.96876686], [-119.36599937, 49.96876639], [-119.36600934, 49.96876587], [-119.36601587, 49.96876552], [-119.3660224, 49.96876515], [-119.36602893, 49.96876476], [-119.3660454, 49.96876367], [-119.36606184, 49.96876245], [-119.36607827, 49.96876111], [-119.36617493, 49.9687525], [-119.36633953, 49.96873783], [-119.3664294, 49.96872982], [-119.36643446, 49.96872936], [-119.36655474, 49.96871446], [-119.36667228, 49.96869226], [-119.36678603, 49.96866297], [-119.36680835, 49.96865625], [-119.36690139, 49.96863079], [-119.36699763, 49.96861088], [-119.36709626, 49.96859667], [-119.36711194, 49.96859488], [-119.36739335, 49.96856288], [-119.36762718, 49.96853629], [-119.36765094, 49.9685336], [-119.36767478, 49.96853122], [-119.36769869, 49.96852915], [-119.36770667, 49.96852853], [-119.36771466, 49.96852794], [-119.36772266, 49.96852738], [-119.36773066, 49.96852686], [-119.36773867, 49.96852638], [-119.36774668, 49.96852593], [-119.36776271, 49.96852513], [-119.36777876, 49.96852446], [-119.36779482, 49.96852394], [-119.36781089, 49.96852355], [-119.36782697, 49.9685233], [-119.36784305, 49.96852318], [-119.36805213, 49.96852196], [-119.36826121, 49.96852074], [-119.36847029, 49.96851952], [-119.36879159, 49.96851765], [-119.36902857, 49.96851626], [-119.36913531, 49.96856762], [-119.36915056, 49.96860184], [-119.36925458, 49.96883514], [-119.36933162, 49.96900796], [-119.36938941, 49.96913756], [-119.36944719, 49.96926717], [-119.36950498, 49.96939679], [-119.36956626, 49.96953422], [-119.36956662, 49.96953504], [-119.36964316, 49.9697087], [-119.36978969, 49.97003534], [-119.3699096, 49.97027943], [-119.36985238, 49.97034136], [-119.37026171, 49.9703707], [-119.37432901, 49.97037126], [-119.374329, 49.97037011], [-119.37426576, 49.96006285], [-119.37355238, 49.96006018], [-119.37321526, 49.96005891], [-119.36899974, 49.96002494], [-119.36891891, 49.9545222], [-119.36892348, 49.95427908], [-119.36892171, 49.95414391], [-119.36892136, 49.95411709], [-119.36888372, 49.95123092], [-119.36887742, 49.95073645], [-119.3688335, 49.94728787], [-119.36881663, 49.94596277], [-119.36881662, 49.94596226], [-119.36880864, 49.94533555], [-119.36846778, 49.94459104], [-119.36846732, 49.94459004], [-119.36822462, 49.94405992], [-119.36818875, 49.94398156], [-119.36805937, 49.94369074], [-119.36778496, 49.94341011], [-119.3669811, 49.94264017], [-119.36647578, 49.94199497], [-119.3661152, 49.94162681], [-119.36555594, 49.9412631], [-119.36530546, 49.94114192], [-119.36486639, 49.9409359], [-119.36436932, 49.94053685], [-119.36429884, 49.94045267], [-119.36426796, 49.93999225], [-119.36578164, 49.93999099], [-119.36578175, 49.94004579], [-119.36622756, 49.94004542], [-119.36622743, 49.93999062], [-119.3752929, 49.93998262], [-119.37529393, 49.94003742], [-119.37742864, 49.94003416], [-119.37753573, 49.93993751], [-119.3775418, 49.93810209], [-119.37754778, 49.93629395], [-119.37755362, 49.93453756], [-119.37532633, 49.93453567], [-119.37532544, 49.93453567], [-119.37532469, 49.93453567], [-119.37532213, 49.93413193], [-119.37531894, 49.93362921], [-119.37531718, 49.93224978], [-119.37531718, 49.93224851], [-119.37531543, 49.93088415], [-119.37531585, 49.93088415], [-119.38138771, 49.93089261], [-119.38139324, 49.92909837], [-119.38139352, 49.92904343], [-119.37880267, 49.9290381], [-119.37136749, 49.92902156], [-119.37136607, 49.92764707], [-119.37136457, 49.92621478], [-119.37136324, 49.92478234], [-119.37136179, 49.92335005], [-119.37088018, 49.92334937], [-119.37087951, 49.92285897], [-119.37087944, 49.92267734], [-119.37159177, 49.92267583], [-119.37196143, 49.92230823], [-119.37207441, 49.92181498], [-119.37120406, 49.92181269], [-119.37111884, 49.92181255], [-119.3708781, 49.92181213], [-119.37041398, 49.92181245], [-119.3698023, 49.92181286], [-119.3684243, 49.92180982], [-119.36702377, 49.92180697], [-119.36562322, 49.92180436], [-119.36429042, 49.92180123], [-119.36424593, 49.92180125], [-119.36400908, 49.92180109], [-119.36400996, 49.92128012], [-119.36401065, 49.92027526], [-119.35931677, 49.9202536], [-119.35856716, 49.92025022], [-119.35397244, 49.92022942], [-119.35311791, 49.92023289], [-119.35288796, 49.92023332], [-119.35189747, 49.91836309], [-119.35175472, 49.91809311], [-119.34933203, 49.91807509], [-119.34810885, 49.91806597], [-119.34807576, 49.91806572], [-119.34789503, 49.91806438], [-119.34751977, 49.91806183], [-119.347214, 49.91805958], [-119.34715462, 49.91805932], [-119.34703115, 49.9180584], [-119.34687044, 49.9180572], [-119.34631407, 49.91805305], [-119.34410333, 49.91803558], [-119.34389104, 49.91803398], [-119.34356264, 49.91803152], [-119.34306738, 49.9180278], [-119.34184547, 49.91801861], [-119.34149728, 49.91801629], [-119.33454931, 49.91796401], [-119.3344971, 49.91796362], [-119.33445358, 49.91796329], [-119.33061646, 49.91793319], [-119.33063165, 49.91646329], [-119.3306795, 49.91183166], [-119.33071928, 49.90798809], [-119.33073831, 49.90613504], [-119.33076573, 49.9034321], [-119.33082411, 49.88911095], [-119.33082467, 49.88893157], [-119.33093643, 49.87936875], [-119.33094012, 49.87904017], [-119.33094142, 49.87892122], [-119.33095677, 49.87750484], [-119.33095739, 49.87744739], [-119.33096439, 49.87680206], [-119.33097517, 49.87580681], [-119.33097338, 49.8740629], [-119.32684577, 49.87403345], [-119.32641225, 49.87403027], [-119.31977079, 49.87403551], [-119.31972359, 49.86901287], [-119.31972136, 49.86885731], [-119.31972108, 49.86883813], [-119.31972078, 49.86881739], [-119.31971812, 49.8686319], [-119.31971736, 49.86857912], [-119.31971638, 49.86851092], [-119.31969228, 49.86683302], [-119.31952442, 49.86265337], [-119.31946037, 49.86187075], [-119.31945571, 49.86174632], [-119.31950448, 49.86012136], [-119.31950632, 49.86006027], [-119.31951253, 49.8598534], [-119.31954766, 49.85863686], [-119.31969188, 49.85541322], [-119.31969579, 49.85532492], [-119.31970472, 49.85519644], [-119.31970475, 49.8551961], [-119.31971225, 49.85508822], [-119.31987433, 49.85275786], [-119.3199027, 49.85234984], [-119.33217487, 49.85229942], [-119.33225556, 49.85229908], [-119.33370971, 49.85229302], [-119.33401108, 49.85229302], [-119.33665878, 49.85229178], [-119.33681022, 49.85229204], [-119.337389, 49.85229302], [-119.33747621, 49.85229302], [-119.34031296, 49.85229301], [-119.34154048, 49.85229462], [-119.34232561, 49.85229175], [-119.34247634, 49.85229541], [-119.34247423, 49.85205218], [-119.34247422, 49.85205192], [-119.34244528, 49.84947884], [-119.34244537, 49.84947777], [-119.34244157, 49.84917759], [-119.34244156, 49.8491764], [-119.34248983, 49.84538553], [-119.34252696, 49.84231163], [-119.34252952, 49.84223773], [-119.34254579, 49.84088394], [-119.3425486, 49.84065446], [-119.34254933, 49.84059496], [-119.34255964, 49.8397546], [-119.34255964, 49.8397541], [-119.3425648, 49.83933404], [-119.34257699, 49.83834118], [-119.34257738, 49.8383095], [-119.34260059, 49.83641317], [-119.34260314, 49.83620384], [-119.34261542, 49.8352056], [-119.34261799, 49.83499616], [-119.34266795, 49.83093548], [-119.34266806, 49.83092607], [-119.35253446, 49.83092073], [-119.35288357, 49.83092052], [-119.35437396, 49.83091963], [-119.35436597, 49.82978965], [-119.35436391, 49.82949934], [-119.35432293, 49.82370207], [-119.36528893, 49.82376026], [-119.36813588, 49.8237752], [-119.37650683, 49.82381844], [-119.38084778, 49.82378966], [-119.38149872, 49.82378122], [-119.38213645, 49.82377613], [-119.38492746, 49.82375379], [-119.38767327, 49.82373175], [-119.38895441, 49.82372747], [-119.39072839, 49.8237209], [-119.39072895, 49.82377555], [-119.39317772, 49.82375465], [-119.39308847, 49.82369407], [-119.39309118, 49.82340727], [-119.39316573, 49.82343173], [-119.39324447, 49.82344987], [-119.39332614, 49.82346138], [-119.39340941, 49.82346607], [-119.39349292, 49.82346388], [-119.39357532, 49.82345483], [-119.39365528, 49.82343907], [-119.39370373, 49.82342597], [-119.39375041, 49.82341041], [-119.39379501, 49.82339248], [-119.39394775, 49.82332501], [-119.39399006, 49.82330632], [-119.39447151, 49.82309366], [-119.3945084, 49.82307773], [-119.39454582, 49.82306233], [-119.39458374, 49.82304745], [-119.39458966, 49.82304523], [-119.39462938, 49.82303052], [-119.39466959, 49.82301638], [-119.39471028, 49.82300283], [-119.39471328, 49.82300187], [-119.39475384, 49.82298914], [-119.39479482, 49.82297698], [-119.3948362, 49.82296542], [-119.39487899, 49.82295417], [-119.39492217, 49.82294355], [-119.39496571, 49.82293356], [-119.39496726, 49.82293321], [-119.39501062, 49.82292398], [-119.39505429, 49.82291538], [-119.39509824, 49.8229074], [-119.39510359, 49.82290646], [-119.39514456, 49.82289972], [-119.39518574, 49.82289353], [-119.39522711, 49.82288789], [-119.39523319, 49.82288708], [-119.39526433, 49.82288327], [-119.39529556, 49.82287978], [-119.39532687, 49.82287659], [-119.39533938, 49.8228754], [-119.39535192, 49.82287426], [-119.39536446, 49.82287316], [-119.39537126, 49.82287262], [-119.395416, 49.82286926], [-119.39546085, 49.82286653], [-119.39550578, 49.82286443], [-119.39550982, 49.82286428], [-119.39555532, 49.82286287], [-119.39560086, 49.82286211], [-119.39564641, 49.822862], [-119.3956926, 49.82286256], [-119.39573875, 49.82286378], [-119.39578485, 49.82286568], [-119.39583087, 49.82286824], [-119.39587679, 49.82287148], [-119.39592259, 49.82287537], [-119.39592808, 49.82287586], [-119.39597189, 49.82288031], [-119.39601554, 49.82288537], [-119.39605901, 49.82289103], [-119.39762327, 49.82310547], [-119.39765126, 49.82310974], [-119.397679, 49.82311464], [-119.39770646, 49.82312016], [-119.39778609, 49.82314014], [-119.39786211, 49.82316532], [-119.39793371, 49.82319545], [-119.39793573, 49.82319639], [-119.39795736, 49.82320698], [-119.39797844, 49.82321802], [-119.39799895, 49.8232295], [-119.3980037, 49.82323222], [-119.39800877, 49.82323524], [-119.39802735, 49.8232465], [-119.39804539, 49.82325813], [-119.39806287, 49.82327011], [-119.3980639, 49.82327082], [-119.39812753, 49.82325543], [-119.39813198, 49.82325887], [-119.39813638, 49.82326233], [-119.39814075, 49.8232658], [-119.39814935, 49.82327283], [-119.39815779, 49.82327994], [-119.39816605, 49.82328713], [-119.39817383, 49.82329413], [-119.39818144, 49.8233012], [-119.39818889, 49.82330835], [-119.39819676, 49.82331614], [-119.39820443, 49.82332401], [-119.3982119, 49.82333196], [-119.39822064, 49.82334167], [-119.39822909, 49.8233515], [-119.39823724, 49.82336143], [-119.39824194, 49.82336729], [-119.39824564, 49.82337202], [-119.39824926, 49.82337678], [-119.39825282, 49.82338157], [-119.39825862, 49.82338959], [-119.39826423, 49.82339767], [-119.39826965, 49.8234058], [-119.39827003, 49.82340636], [-119.39827718, 49.82341775], [-119.39828395, 49.82342923], [-119.39829035, 49.8234408], [-119.39829291, 49.82344565], [-119.39829541, 49.82345051], [-119.39829783, 49.82345539], [-119.39830426, 49.82346909], [-119.39831016, 49.82348288], [-119.39831553, 49.82349677], [-119.39831747, 49.82350201], [-119.39832038, 49.82351054], [-119.39832309, 49.8235191], [-119.3983256, 49.82352769], [-119.39832678, 49.82353199], [-119.3983279, 49.8235363], [-119.39832898, 49.82354061], [-119.39833098, 49.82354925], [-119.39833278, 49.82355791], [-119.39833438, 49.82356659], [-119.3983351, 49.82357093], [-119.39833577, 49.82357528], [-119.3983364, 49.82357963], [-119.39833728, 49.82358673], [-119.39833803, 49.82359384], [-119.39833864, 49.82360096], [-119.39833922, 49.82360928], [-119.39833994, 49.8236239], [-119.39834042, 49.82363852], [-119.39834066, 49.82365315], [-119.3988345, 49.82364102], [-119.39919266, 49.82363924], [-119.39974755, 49.82363648], [-119.39999861, 49.82363523], [-119.40069748, 49.82363175], [-119.40109072, 49.82362979], [-119.40163128, 49.82362709], [-119.40226451, 49.82362424], [-119.40249171, 49.82362331], [-119.4031004, 49.8236207], [-119.40992491, 49.82359186], [-119.4099327, 49.82235113], [-119.4099331, 49.8222866], [-119.40993311, 49.82228555], [-119.4099343, 49.82209533], [-119.40994, 49.82118836], [-119.40994397, 49.82098055], [-119.40994364, 49.82060929], [-119.40994456, 49.82046318], [-119.40994456, 49.82046238], [-119.4099453, 49.82034514], [-119.40995372, 49.81900661], [-119.40996076, 49.81788758], [-119.40997008, 49.81640632], [-119.41180257, 49.8163898], [-119.41304397, 49.8163786], [-119.41553922, 49.81635601], [-119.41619917, 49.81635003], [-119.41890851, 49.81632545], [-119.42110835, 49.81630543], [-119.4209813, 49.80900836], [-119.42381386, 49.80897987], [-119.42664641, 49.80895133], [-119.43231147, 49.80889404], [-119.4341277, 49.8088596], [-119.44010493, 49.80885913], [-119.4405123, 49.80885909], [-119.4413598, 49.80885899], [-119.44354672, 49.80885872], [-119.44362155, 49.80885871], [-119.44362762, 49.80703101], [-119.44364805, 49.80150055], [-119.44364497, 49.80000004], [-119.44364498, 49.79999985], [-119.44364456, 49.79999981], [-119.44363331, 49.79452542], [-119.455371, 49.79457704], [-119.45557846, 49.78850549], [-119.47220706, 49.78853547], [-119.47691606, 49.78850246], [-119.47709178, 49.78850121], [-119.47713132, 49.78850093], [-119.47715092, 49.7885008], [-119.47913254, 49.78850419], [-119.48269181, 49.78851019], [-119.4882934, 49.78851941], [-119.490877, 49.78851337], [-119.49499678, 49.78850331], [-119.49626406, 49.78850073], [-119.49921023, 49.78849272], [-119.49942296, 49.78849254], [-119.49957932, 49.7884922], [-119.50044717, 49.78849029], [-119.50086324, 49.78848937], [-119.50128783, 49.78848844], [-119.50221537, 49.78848739], [-119.50277033, 49.78848515], [-119.50288883, 49.78848489], [-119.50303347, 49.78848457], [-119.50326422, 49.78848517], [-119.50366004, 49.78848433], [-119.50405593, 49.78848329], [-119.50456522, 49.78848197], [-119.50500777, 49.78848016], [-119.50533087, 49.78847944], [-119.5056295, 49.78847876], [-119.50592709, 49.7884781], [-119.50622118, 49.78847815], [-119.50652301, 49.78847746], [-119.5066984, 49.78847771], [-119.50682921, 49.7884779], [-119.50696086, 49.78847715], [-119.50713601, 49.78847615], [-119.50741435, 49.78847554], [-119.50767718, 49.78847495], [-119.507713, 49.78847487], [-119.50801163, 49.78847409], [-119.50859103, 49.78847207], [-119.50867361, 49.78847187], [-119.50893548, 49.78847106], [-119.50906965, 49.78847075], [-119.50934748, 49.7884701], [-119.50962547, 49.78846955], [-119.50987534, 49.78846889], [-119.51039835, 49.78846765], [-119.51044904, 49.78846765], [-119.51058329, 49.78846764], [-119.51059527, 49.78846722], [-119.51059779, 49.78837782], [-119.51059912, 49.78833075], [-119.51060628, 49.78807712], [-119.51060862, 49.78799415], [-119.51060997, 49.78794641], [-119.51061048, 49.78792844], [-119.51061225, 49.78786573], [-119.51062123, 49.78754746], [-119.51062518, 49.7874077], [-119.5106258, 49.78738577], [-119.5106278, 49.78731493], [-119.51063231, 49.78715516], [-119.5106349, 49.78706327], [-119.51079695, 49.78132255], [-119.51624561, 49.78124319], [-119.51625127, 49.78124311], [-119.51766032, 49.7812231], [-119.51767765, 49.78122282], [-119.51786867, 49.78121969], [-119.51798216, 49.78121739], [-119.51904566, 49.78120277], [-119.51961688, 49.78119375], [-119.5201223, 49.78118637], [-119.52026002, 49.78118438], [-119.52126729, 49.78116983], [-119.52194643, 49.78115999], [-119.52195274, 49.7811599], [-119.52367425, 49.78113738], [-119.52394867, 49.78113376], [-119.52395027, 49.78113374], [-119.52395067, 49.78113373], [-119.5240457, 49.78113171], [-119.52434905, 49.78112725], [-119.52438546, 49.78112672], [-119.52462551, 49.78112357], [-119.52513398, 49.78111692], [-119.52650402, 49.78109895], [-119.52674831, 49.78109575], [-119.53290679, 49.78101351], [-119.5370468, 49.78099334], [-119.54407639, 49.78095873], [-119.54402971, 49.77735524], [-119.54401008, 49.77365037], [-119.55515711, 49.77362338], [-119.55700168, 49.77361882], [-119.55991726, 49.77361154], [-119.56295183, 49.77360388], [-119.56406227, 49.77360106], [-119.56524907, 49.77359803], [-119.566304, 49.77359533], [-119.56734547, 49.77358743], [-119.56838646, 49.77357955], [-119.56924485, 49.77357303], [-119.57021644, 49.77356565], [-119.57111863, 49.77355879], [-119.5720902, 49.7735514], [-119.57315721, 49.77354327], [-119.57360074, 49.77353978], [-119.57417203, 49.77353553], [-119.57525113, 49.77352729], [-119.57612507, 49.77352057], [-119.57655913, 49.77351716], [-119.57741638, 49.77351072], [-119.57783835, 49.77350768], [-119.58307155, 49.77347228], [-119.58824398, 49.773437]]]}}]}