{"type":"FeatureCollection","features":[{"type":"Feature","id":1,"geometry":{"type":"Polygon","coordinates":[[[-80.278995892048968,43.568822532247452],[-80.279100161925555,43.568746973795726],[-80.279493634852173,43.568461843798872],[-80.279791685489997,43.568679204788594],[-80.27979736467357,43.568683346454755],[-80.280657013094071,43.568074371785123],[-80.28714610349428,43.563476891759478],[-80.288645876226383,43.562414158747266],[-80.294503256768124,43.563313057998776],[-80.294639535704334,43.563213977446253],[-80.298931005772943,43.560124919698026],[-80.300659063222355,43.558890212412514],[-80.30158288444116,43.558222227248827],[-80.302912186473009,43.557255537026229],[-80.303524345929404,43.556810348909345],[-80.303527338808621,43.556808330047268],[-80.303567584943977,43.556781181898216],[-80.302757077633572,43.556197723842978],[-80.301879321023918,43.555558939173928],[-80.301741430246693,43.555458587759226],[-80.301715979234146,43.555440507746411],[-80.301715627230664,43.555440246752219],[-80.301806153267421,43.555373897742619],[-80.30189990628223,43.55530461772026],[-80.303076023583699,43.554422994514276],[-80.303359785716694,43.5542156832011],[-80.288787871701388,43.543386315676536],[-80.274369650167358,43.53316378345685],[-80.267161018607382,43.528163173089304],[-80.264727045011043,43.526978475020023],[-80.26131447719564,43.526194461626083],[-80.261301684479804,43.526191522362048],[-80.261275188802315,43.526328475577358],[-80.261230529037618,43.526296638084048],[-80.260708097283143,43.52706839761624],[-80.259793754084029,43.528419052300613],[-80.256298456003051,43.531483920948205],[-80.254077770438244,43.533127582956404],[-80.25285663275281,43.533756037097056],[-80.250676779705088,43.5348778252636],[-80.246882658340638,43.536625376766516],[-80.24332766106869,43.538088500574219],[-80.241941064796904,43.538772261676201],[-80.242082846855752,43.538870937692074],[-80.242964403189205,43.539517145762879],[-80.243063259229302,43.539626932777878],[-80.243092972246245,43.539715827792627],[-80.243720118500946,43.540412754883839],[-80.248971099332891,43.542156959945757],[-80.249137464391538,43.542327115957534],[-80.254308483504744,43.54761457164048],[-80.254431681925027,43.547740826138792],[-80.25536507794331,43.5486973547848],[-80.256887984552463,43.550153593961006],[-80.268304887913672,43.558380133865469],[-80.277197664331467,43.564922939587746],[-80.27758215247998,43.56525954861587],[-80.277724110539154,43.565404429645042],[-80.278316951872014,43.566965511891098],[-80.278165591833584,43.567076563913403],[-80.278135016827122,43.567096987909245],[-80.278143570611334,43.56711752021711],[-80.27838342979652,43.566941392047482],[-80.278748385889344,43.568062346558797],[-80.278995892048968,43.568822532247452]]]},"properties":{"OBJECTID":1,"WARD":"3","COUNC1":"Phil Allt","COUNC2":"Michele Richardson","NAME":"St. John's","COUNC1WEB":"https://guelph.ca/city-hall/mayor-and-council/city-council/#ward-3","COUNC2WEB":null,"Shape__Area":10558025.576061511,"Shape__Length":14420.817337110011,"GlobalID":"{4FCEC1EC-C144-45C0-A85A-7739125D03DF}","POPULATION_2016":18458,"POPULATION_2022":23995,"POP_CHANGE_2016_2022":30,"COUNC1PIC":"https://guelph.ca/wp-content/uploads/Phil-Allt-2023.jpg","COUNC2PIC":"https://guelph.ca/wp-content/uploads/Councillor-Michelle-Richardson.jpg","COUNC1PHONE":null,"COUNC2PHONE":"226-332-4513","COUNC1EMAIL":"phil.allt@guelph.ca","COUNC2EMAIL":"michele.richardson@guelph.ca","COUNC1MAILTO":"\u003ca href = \"mailto:phil.allt@guelph.ca\"\u003eEmail\u003c/a\u003e","COUNC2MAILTO":"\u003ca href = \"mailto:michele.richardson@guelph.ca\"\u003eEmail\u003c/a\u003e","COUNC1PHONELINK":"","COUNC2PHONELINK":null}},{"type":"Feature","id":2,"geometry":{"type":"Polygon","coordinates":[[[-80.268548659886761,43.594303533353475],[-80.268972157622983,43.594203886550183],[-80.2690719558273,43.594103853536062],[-80.269115590448763,43.594060116100394],[-80.269210029352209,43.593974046079936],[-80.269374443804693,43.593824200746965],[-80.269582626863382,43.593681314832736],[-80.269584647576295,43.593680235080242],[-80.269597638958842,43.5936732931753],[-80.269915758253902,43.593503306449968],[-80.270101454815361,43.593410836030124],[-80.270178856156406,43.593372292702888],[-80.270181723490225,43.593369020550711],[-80.270320453096616,43.593210705559912],[-80.270326734201689,43.593204931843182],[-80.270366306089315,43.593168556539197],[-80.270462804379306,43.593079853079644],[-80.270521773838752,43.593025646790615],[-80.270611449545086,43.592943214284851],[-80.27067814808575,43.592872700098333],[-80.270766254521888,43.592779553036635],[-80.270776076104454,43.59276916953651],[-80.270831550252169,43.592739417069062],[-80.271227756378565,43.59252691809931],[-80.271229868598184,43.592523094248854],[-80.271325820076441,43.592349387702946],[-80.271425280745362,43.592098317763465],[-80.27149879982791,43.59199052953943],[-80.271618287090192,43.591815345222336],[-80.271808888526039,43.591684148520571],[-80.271896505662895,43.59162383869144],[-80.272303340680224,43.591495061681719],[-80.272702168579414,43.591453883866109],[-80.272703910754046,43.591453703981045],[-80.272745278581411,43.591425527036357],[-80.27292153968645,43.59130546954222],[-80.273088910928593,43.591106143586778],[-80.273093060882346,43.591102356076497],[-80.273134030153159,43.591064965008094],[-80.273318615282761,43.590896500516592],[-80.273504614591175,43.59061288834328],[-80.27350716775797,43.590608995247699],[-80.273649366350924,43.590334204126975],[-80.273711516014956,43.590214102388416],[-80.273729301125599,43.590070185680155],[-80.273749310990411,43.589908265356414],[-80.273715066550835,43.589704832118159],[-80.273703072853792,43.589633581755585],[-80.273685453423781,43.589537566203731],[-80.273661659233952,43.589407901305613],[-80.273661936744105,43.589404734652121],[-80.273685101287896,43.589140411652608],[-80.273736290119757,43.588912183912008],[-80.273740719543497,43.588892435014365],[-80.273752342667493,43.588840612514616],[-80.273755938101544,43.588822702297222],[-80.273826813688345,43.588469641924377],[-80.273828400109707,43.588461739264844],[-80.273931286085443,43.588340734218995],[-80.274099962218727,43.588142351583173],[-80.27411265044239,43.588116948582403],[-80.274116976959675,43.588108286463914],[-80.274130619326186,43.58808097313387],[-80.273837072327254,43.58785916474848],[-80.247677776338151,43.568957841685354],[-80.242018748179106,43.564915920250726],[-80.220686005027474,43.549574538585588],[-80.218608784240345,43.548096917427443],[-80.214800699869741,43.54538370108618],[-80.207016370816405,43.539836306526148],[-80.205872199063407,43.538993762991559],[-80.205123348006794,43.538516963621454],[-80.20351881424881,43.537495302646256],[-80.203055959428966,43.537280900286092],[-80.201949058147946,43.538103920343325],[-80.201779520151646,43.538229974846253],[-80.201347142296669,43.538551451915069],[-80.200663729954556,43.53905956510485],[-80.185424789493581,43.55038631758196],[-80.185563779497841,43.550485986667148],[-80.187487108246685,43.551865146016858],[-80.188397316407546,43.55251779493738],[-80.188394592058756,43.55251975562831],[-80.187686735886302,43.553045152759189],[-80.18783670613594,43.553154877184909],[-80.188397549160513,43.553565207820199],[-80.18851416353499,43.553669248757231],[-80.188935524926364,43.553989168456241],[-80.189009147737622,43.553934505983484],[-80.191991564000503,43.556085575667581],[-80.192171675928364,43.55593858048141],[-80.193883851446856,43.557170121822288],[-80.193677067210018,43.557334396943368],[-80.196124712740385,43.559056585679407],[-80.195159445179655,43.559789425005647],[-80.196780391781445,43.560937909027004],[-80.194910465098843,43.562293920267351],[-80.195139859661111,43.562458185290645],[-80.195428910558945,43.56266516716164],[-80.197914075058009,43.564444640818799],[-80.199000980207046,43.565222857112673],[-80.201321512397385,43.566884240241102],[-80.202425247554629,43.567674410126166],[-80.203760244912147,43.56863808902763],[-80.205937618248839,43.570209745014381],[-80.208737841199849,43.572230801381842],[-80.21033287649712,43.573381924726668],[-80.211886178416691,43.574502866155989],[-80.214221827550887,43.576188271387991],[-80.215999807572004,43.577471167719892],[-80.22047095919676,43.580696952533778],[-80.222035904585624,43.581825885462806],[-80.223537070799011,43.582908749293232],[-80.224242207893809,43.583417378672728],[-80.225156939029091,43.584077173193073],[-80.225158653830732,43.584078410057003],[-80.228767648427549,43.581575534496459],[-80.22877025853596,43.581573726624008],[-80.233288608047204,43.584820549621696],[-80.233384918492888,43.584750080941312],[-80.237881092275202,43.581460033354787],[-80.239403885963284,43.580345615813691],[-80.240258866014557,43.579719893374261],[-80.244164084553063,43.576861586434539],[-80.244165721458984,43.576862739853972],[-80.245850751567957,43.578050021375937],[-80.246127442682635,43.57824458638656],[-80.246371141758857,43.578412231401721],[-80.246614790859851,43.578579912424573],[-80.25198631590996,43.582428820840896],[-80.252523697121063,43.582813831884614],[-80.252657580162335,43.582937262894198],[-80.252662256169714,43.582940685905747],[-80.255583042291079,43.585069515129966],[-80.268243705110407,43.594097748114827],[-80.268257841382535,43.594094868903966],[-80.268548659886761,43.594303533353475]]]},"properties":{"OBJECTID":2,"WARD":"1","COUNC1":"Dan Gibson","COUNC2":"Erin Caton","NAME":"St. Patrick's","COUNC1WEB":"https://guelph.ca/city-hall/mayor-and-council/city-council/#ward-1","COUNC2WEB":null,"Shape__Area":14969092.917796468,"Shape__Length":21278.295276469398,"GlobalID":"{126E0B09-9CC9-4AD1-B780-F08F45AE7822}","POPULATION_2016":24735,"POPULATION_2022":25121,"POP_CHANGE_2016_2022":1.5600000000000001,"COUNC1PIC":"https://guelph.ca/wp-content/uploads/Dan-Gibson-2023.jpg","COUNC2PIC":"https://guelph.ca/wp-content/uploads/Councillor-Erin-Caton.jpg","COUNC1PHONE":"519-827-6407","COUNC2PHONE":"226-821-3200","COUNC1EMAIL":"dan.gibson@guelph.ca","COUNC2EMAIL":"erin.caton@guelph.ca","COUNC1MAILTO":"\u003ca href = \"mailto:dan.gibson@guelph.ca\"\u003eEmail\u003c/a\u003e","COUNC2MAILTO":"\u003ca href = \"mailto:erin.caton@guelph.ca\"\u003eEmail\u003c/a\u003e","COUNC1PHONELINK":"\u003ca href=\"tel:519-827-6407\"\u003e519-827-6407\u003c/a\u003e","COUNC2PHONELINK":null}},{"type":"Feature","id":3,"geometry":{"type":"Polygon","coordinates":[[[-80.220296560308867,43.54929751728605],[-80.22042005661396,43.549385363540146],[-80.220686005027474,43.549574538585588],[-80.220869286085872,43.549434607543212],[-80.220897068094359,43.549415323538483],[-80.220925841086213,43.549386014542321],[-80.220956304096234,43.549359372536159],[-80.220995480103994,43.549329433531611],[-80.221037746111051,43.549303646525594],[-80.221075404121478,43.549285278519839],[-80.221135915139712,43.549252350508937],[-80.221189166151248,43.549220073501132],[-80.221227213165037,43.54919908849967],[-80.22127352618628,43.549173993485383],[-80.221320937200744,43.549146397474047],[-80.2213652532146,43.549118927466381],[-80.221411851211712,43.549087490471386],[-80.221454819222032,43.549062261464151],[-80.221498995235862,43.54903386845541],[-80.221548860254785,43.548996810446702],[-80.22159421626796,43.548967282430866],[-80.221641326269207,43.548935442432303],[-80.221690921300961,43.548907529420468],[-80.221727169302341,43.548888340417982],[-80.221782371315129,43.548858104412638],[-80.221821004323871,43.548830890396765],[-80.221858749329641,43.548809646387106],[-80.221901360351112,43.548800347392223],[-80.221957768371794,43.548786753385798],[-80.222045675388429,43.548819622392671],[-80.222129249430836,43.548799021384845],[-80.222196784448684,43.548771856364418],[-80.222258348448207,43.548739783363658],[-80.222314143477846,43.548710731355584],[-80.222363241476202,43.548681929349229],[-80.222421779499797,43.548648581333119],[-80.222476159516887,43.548619114324559],[-80.22253470353742,43.54858919632558],[-80.222604784544615,43.548561200318787],[-80.222667527578338,43.548535958306545],[-80.222722152587494,43.548503210300233],[-80.222782238593894,43.548467659298147],[-80.222837167618749,43.548442843290182],[-80.222914991632507,43.54840413027933],[-80.222968864651875,43.548374623269446],[-80.223021748672238,43.548343191259043],[-80.223069339683661,43.548317255242956],[-80.223120732685643,43.548279469234181],[-80.223168062696956,43.548250138228838],[-80.223206793704222,43.548223146220415],[-80.22326199772381,43.54818081321811],[-80.223304443732019,43.5481448102069],[-80.223355316745696,43.548108090197907],[-80.223410126759589,43.548064832188047],[-80.223474923778809,43.548009914175537],[-80.223518781778637,43.547974474171326],[-80.223590908801896,43.54790145914766],[-80.22362155780182,43.547864123149971],[-80.223608353703952,43.54781051696483],[-80.223603485800837,43.547790754135868],[-80.223607796804075,43.547755082123466],[-80.223623251804028,43.547720335114228],[-80.223648225806087,43.547694466118038],[-80.223684148809411,43.547649162097876],[-80.223719766814924,43.547603892097811],[-80.223731291525766,43.547587918320346],[-80.223736448418151,43.547580770613749],[-80.223752547833385,43.547558456077518],[-80.223764707815576,43.547527559085182],[-80.223790062837452,43.547499664071069],[-80.223839747836521,43.547444827067551],[-80.223866167841493,43.547393226053515],[-80.223905078842932,43.547340233034397],[-80.223935143849658,43.547308867038574],[-80.223964437875395,43.547270415030503],[-80.223989307880728,43.547236874014331],[-80.224015385872832,43.54720795200533],[-80.224050984876129,43.547175996011262],[-80.224083197889939,43.547151062003628],[-80.224115919900072,43.547114107986729],[-80.224140655906254,43.547083073989825],[-80.224162755897083,43.547036200977018],[-80.224193686906361,43.547012326964513],[-80.224217866914799,43.546985161958453],[-80.224227667411313,43.546970426319206],[-80.224242993921095,43.546947381953125],[-80.224281357927765,43.546909285949056],[-80.224309332946319,43.546882699937917],[-80.224347620956394,43.546842722930073],[-80.224372169962678,43.546814379925088],[-80.224420201975533,43.546789478923465],[-80.224451093115363,43.546779616844759],[-80.224476307987487,43.546771566912064],[-80.224521834984984,43.546752180911511],[-80.224566498003071,43.546732936908455],[-80.224635061033993,43.54672816489304],[-80.224695971837136,43.546732967265697],[-80.224737937063722,43.546736275900223],[-80.224796593080811,43.546721146886597],[-80.22480534307654,43.546718881891358],[-80.224867260098819,43.546706467883631],[-80.224924017124621,43.546681219877577],[-80.224968108120763,43.546659131867671],[-80.225026435152117,43.546634078865118],[-80.225079678158124,43.546606078855604],[-80.225108959176467,43.546588315850698],[-80.225154105180337,43.54655911683821],[-80.225204241201979,43.546528181834262],[-80.225245643204474,43.546506296827353],[-80.225290107215613,43.546478826827119],[-80.225319336224757,43.546441368813866],[-80.22535107021946,43.546394338798969],[-80.225392476232344,43.546352279789446],[-80.225423953232223,43.546309489787127],[-80.225445960247015,43.546269770784761],[-80.225502734254363,43.546203621772165],[-80.225534359269616,43.546165110757833],[-80.225576476280239,43.546130838750109],[-80.225608420287443,43.54609911574719],[-80.225649275289527,43.546060445729829],[-80.225690308302873,43.546019711716596],[-80.225727486302901,43.545979136719239],[-80.225750691472697,43.545951522345163],[-80.22576548432049,43.545933918705565],[-80.225806130319739,43.54589572770336],[-80.225841479333013,43.545867346681881],[-80.22588798533809,43.54583081767872],[-80.225940301351585,43.545799933674765],[-80.225989180377496,43.545768103670454],[-80.226031550377613,43.545741762654792],[-80.226070217383494,43.545715580658502],[-80.226112312396467,43.545690896650818],[-80.226171448414604,43.545669869641223],[-80.226218472435207,43.545656246634678],[-80.226247462451184,43.545645304624003],[-80.226296008459116,43.545623725621937],[-80.226336731469502,43.545595307618221],[-80.226394048486185,43.545577660617184],[-80.226438761495032,43.54556634560398],[-80.226488446501634,43.545550823597232],[-80.226533801524852,43.54553685660283],[-80.226578018528215,43.545524653600943],[-80.226610572548793,43.545512555587479],[-80.226669496561243,43.545496136586699],[-80.226709546575364,43.545484678586149],[-80.226753268597747,43.545467566576136],[-80.226794917597729,43.545446014574274],[-80.226838552600981,43.545427795566326],[-80.226884145616438,43.545407118555801],[-80.226893775021509,43.545402811809069],[-80.226930448627655,43.545386409560052],[-80.226977524649257,43.545364709544323],[-80.227024207666886,43.545338064538207],[-80.227061393660733,43.545312647533343],[-80.227104134681426,43.545280996529797],[-80.227145001701899,43.545253169521516],[-80.227181585702311,43.545231251516142],[-80.227225434712878,43.545204182514404],[-80.227272011719705,43.545165956502252],[-80.227307797725132,43.545134959492891],[-80.227343826740437,43.54509290048663],[-80.227376226753947,43.545061106482613],[-80.227416818752303,43.545023061468015],[-80.227451601766717,43.544991246452881],[-80.2274915887823,43.544952865453453],[-80.227513825385657,43.544928486254364],[-80.227519973774562,43.544921745450871],[-80.227552075797959,43.544893379435024],[-80.227591504051077,43.544869062946169],[-80.227597150796356,43.544865580430738],[-80.227650655810081,43.544836731424645],[-80.227667883881935,43.544810633039823],[-80.227668906819389,43.544809083418563],[-80.227678067825209,43.544778571417915],[-80.227698090816418,43.544755065411174],[-80.22772481283711,43.544711246397675],[-80.227747221821645,43.544675623385267],[-80.227780492841902,43.544635131374662],[-80.227802582842116,43.544608578374763],[-80.227826707856096,43.544573520372431],[-80.22784413384305,43.544539043365297],[-80.227851311853414,43.544504976362582],[-80.227877428857411,43.54447679135108],[-80.227888352862124,43.544435226340703],[-80.227890328859829,43.544415471339654],[-80.227892667854206,43.544379233332585],[-80.227907962848661,43.544332903322463],[-80.227926457858331,43.544301974310251],[-80.22795270384907,43.544259627302523],[-80.227979043866682,43.544209941303912],[-80.228010279871143,43.544165969294419],[-80.228035663876099,43.54410775727893],[-80.228069706880135,43.544054399259451],[-80.228077664880118,43.543995000258626],[-80.228082071862048,43.54395556724117],[-80.228090879864013,43.54391693824379],[-80.228105455883707,43.543883217231091],[-80.228116132869204,43.543857029222053],[-80.228130141876974,43.543816112215922],[-80.228146311886391,43.543780631208236],[-80.228160567872692,43.543756090216569],[-80.228180461892535,43.543726794206719],[-80.228201739883275,43.543696289200405],[-80.228231902894194,43.543656919183512],[-80.22826618289136,43.543624695188328],[-80.228305054903686,43.54359017916682],[-80.228334121922671,43.543561165172697],[-80.228375900932605,43.543513428155919],[-80.228398730933208,43.54348846615224],[-80.228435164931085,43.543446261135749],[-80.228469594946063,43.543414186136594],[-80.228499031944011,43.54338395712675],[-80.228522723951841,43.543359038115575],[-80.228556528970529,43.543320283115037],[-80.228583768980059,43.543291367108843],[-80.228616553982107,43.543253085092431],[-80.22864228498004,43.543227220089811],[-80.228670953994197,43.543201560087986],[-80.228702151994625,43.543176359081656],[-80.228733570008799,43.543145886076879],[-80.22875159701394,43.543119785067695],[-80.228783857012047,43.543086884057956],[-80.228816081021961,43.543056785058177],[-80.228859354036544,43.543019015053261],[-80.228896997496307,43.542991513960281],[-80.22889917104574,43.54298992603912],[-80.228935880048525,43.542961923030077],[-80.228959816065441,43.542937669033094],[-80.228978571071266,43.542918101026174],[-80.229010759076644,43.542886858010384],[-80.229051430071877,43.542850325008573],[-80.229067824089398,43.542833065005446],[-80.229102142103002,43.542805672002252],[-80.22913583411102,43.542779713989248],[-80.229156123104133,43.542755213979433],[-80.229170906525496,43.542736587872675],[-80.229182299105318,43.542722233983532],[-80.22921476311285,43.542693132978492],[-80.229246377117462,43.542667122963785],[-80.229250441119234,43.542662503967072],[-80.229274520132392,43.542634967961689],[-80.229308366149127,43.542600859945573],[-80.229352236151684,43.542575891947955],[-80.229387802150228,43.542554076944647],[-80.229418396168143,43.542536469933651],[-80.229450098173189,43.542519385936565],[-80.229482239188329,43.54249979692456],[-80.229508619199095,43.542482566925351],[-80.229541028199677,43.542461799913468],[-80.229574704217754,43.542437095914615],[-80.229599704206308,43.542412811904583],[-80.229620487209601,43.542393219899175],[-80.22965381122097,43.542368254892175],[-80.22967690623031,43.542346281891668],[-80.229689946388262,43.542336699400629],[-80.229713858242079,43.542319127891965],[-80.229738301249185,43.542302732878078],[-80.229770134265422,43.542287383873905],[-80.229810752263433,43.542270876866468],[-80.22983679652593,43.542261092134318],[-80.229846821269348,43.542257325859879],[-80.229881049285169,43.542240959869076],[-80.229902175295166,43.542226275856606],[-80.229935456297525,43.542216652857654],[-80.229975530312075,43.542207038848993],[-80.229994742780761,43.542202041348517],[-80.230010222319677,43.542198014855003],[-80.230035218331352,43.54218601284623],[-80.230071634351248,43.542169034840079],[-80.230103061347549,43.54215766583372],[-80.230142681371419,43.54215184682878],[-80.230193239385315,43.542143151831269],[-80.230229499382261,43.542134469826969],[-80.230272900397139,43.542122406824504],[-80.230325485407505,43.54210575882118],[-80.230369087431313,43.542089824814767],[-80.23041093045039,43.542068715810558],[-80.230446340449305,43.542051103801533],[-80.230474375448367,43.542031339799152],[-80.230506911464531,43.542008470791529],[-80.230530136465575,43.541984211783785],[-80.230553788479028,43.541954312774095],[-80.230579857485765,43.54192568376822],[-80.230606020483577,43.541901628774056],[-80.230626547487674,43.541882219767523],[-80.230642952496154,43.541864000767241],[-80.2306771115001,43.541841032761518],[-80.23071035052169,43.541818684753686],[-80.230737961520518,43.541792426748209],[-80.23076727353795,43.541771933742311],[-80.230802447537286,43.541752917734797],[-80.2308383215437,43.541730698726397],[-80.230868008556314,43.541712531724265],[-80.230897769572067,43.541692631723585],[-80.230930541573883,43.541667072717118],[-80.23097018858887,43.541639235711884],[-80.231002327598645,43.541619646703921],[-80.231031566593188,43.541596866693077],[-80.231054488610852,43.541572457694038],[-80.231076042606759,43.541544019679428],[-80.23109234259914,43.541518164671558],[-80.231104491612399,43.541479742676593],[-80.231122776602419,43.541437193656229],[-80.231153966608247,43.541376586648056],[-80.23118727661182,43.541332700641462],[-80.23120659561846,43.541300559631161],[-80.231244676627526,43.541256263624],[-80.231246210343457,43.541254626420304],[-80.231278598633025,43.541220052610555],[-80.231318157638668,43.54118306861367],[-80.231359083669204,43.54115424459966],[-80.231360368322527,43.541153082372077],[-80.231396473664532,43.541120417589717],[-80.231440031675263,43.541083903582205],[-80.231475499685871,43.541061680574266],[-80.231500630703025,43.541038946579114],[-80.231530646699554,43.541010860566054],[-80.231564756716239,43.540987780559966],[-80.231598369716096,43.540967869558116],[-80.231633847738223,43.540944836545236],[-80.231664151733611,43.540929955550837],[-80.231691379753286,43.54092176654467],[-80.231731724749153,43.5409066945356],[-80.231739750305593,43.540903598322807],[-80.231775133768622,43.540889947539952],[-80.231807673776373,43.540874676528496],[-80.23183255378548,43.540859758534047],[-80.231862003795058,43.540844245519494],[-80.231891114791509,43.540827549517388],[-80.23190966779444,43.540815798523589],[-80.231935085806725,43.540802359507779],[-80.231964896818269,43.54078245951505],[-80.23199898182834,43.540757277501172],[-80.232030290831048,43.540739121491349],[-80.232063416849385,43.540721603489587],[-80.232086207840069,43.540707483487559],[-80.232110679862174,43.540688728483744],[-80.232142062865734,43.540680751487237],[-80.232159354877922,43.540668475485184],[-80.232181741876218,43.540650259481431],[-80.232183371578046,43.540648945576002],[-80.232213499876067,43.540624655472108],[-80.232252596890959,43.540600060461109],[-80.23228344389355,43.54058234345252],[-80.232306049904508,43.540570766449058],[-80.232332395918576,43.540560211447435],[-80.232358699929009,43.540548880443495],[-80.232389219936408,43.540536951448509],[-80.232418713947311,43.540526011445408],[-80.232440928941955,43.540513326433171],[-80.232469680958275,43.540500868429994],[-80.232487688959154,43.540488081428663],[-80.232507370970836,43.540475231430307],[-80.232526476957517,43.540463852422597],[-80.232551369973933,43.540451849415227],[-80.232570441969912,43.540443125425746],[-80.232589714986048,43.540434587410665],[-80.232618793989928,43.540424345418174],[-80.232640514002924,43.540418701412392],[-80.232677329015075,43.540410059414953],[-80.232698514296686,43.540404863851627],[-80.232702504025426,43.540403885412296],[-80.232733778036092,43.5403964604008],[-80.232750407037003,43.540392404403356],[-80.232784920052836,43.540389464398437],[-80.232809400058173,43.540386088404894],[-80.232829264052853,43.540378882398251],[-80.232865946073375,43.540376767394513],[-80.232877523694938,43.540374199847989],[-80.232902908078259,43.54036857038686],[-80.232930118090636,43.54036971139076],[-80.232949110090431,43.540371314385027],[-80.232978989099891,43.540369928380215],[-80.233013476106365,43.540369016382584],[-80.233050496117343,43.540372215378603],[-80.233078879136983,43.540376868379461],[-80.233106781147129,43.540383510387635],[-80.233126434140658,43.540388952381235],[-80.233153472153376,43.540395699381264],[-80.233173030174825,43.540400624386209],[-80.233195968182372,43.540406900388149],[-80.233214495170458,43.54041314738938],[-80.233231552178296,43.540419421389593],[-80.233248543194691,43.54042687437861],[-80.233258523190543,43.540431477386704],[-80.233270715207965,43.540437571388701],[-80.233288856199806,43.540446286383826],[-80.233302173222114,43.540451612382903],[-80.233319725214272,43.540458811392305],[-80.233335104226569,43.540465442391159],[-80.233353142222072,43.540474341390997],[-80.233366192242983,43.540480698387682],[-80.233387664236574,43.540490615384499],[-80.233402724248734,43.540498461396076],[-80.233417850259059,43.540505054383523],[-80.233428633246987,43.540510327397946],[-80.233434332373207,43.540513061870193],[-80.233444456273119,43.540517919396905],[-80.233465171273721,43.540527574392428],[-80.233480243284987,43.5405344614001],[-80.233498465285734,43.540544799394219],[-80.233513520290444,43.540552977397709],[-80.233532071289403,43.540561400387475],[-80.233545677303894,43.540567871394664],[-80.233562602312489,43.540576541395481],[-80.233581141304469,43.540585923401814],[-80.233598533321086,43.540593711391793],[-80.233613097322035,43.540600668403961],[-80.233633578329545,43.540608772398329],[-80.233660364336572,43.54061949939468],[-80.233675391342629,43.54062590739634],[-80.233696729352985,43.540634422405681],[-80.233714731357026,43.540642103404871],[-80.233734795365137,43.540651089397443],[-80.233741181347298,43.540654594736431],[-80.233761732367014,43.540665875399363],[-80.233786671389595,43.540678286399135],[-80.233858309413463,43.540710263410894],[-80.233878057417499,43.540720279406436],[-80.233900420430729,43.540727916404016],[-80.233928127446546,43.540737875403565],[-80.233953837450088,43.540749444401989],[-80.233980103454826,43.5407612004025],[-80.234007726472171,43.540765811405393],[-80.234036168465337,43.54076983740584],[-80.23406284047276,43.54078152340692],[-80.234091289498892,43.540784996406664],[-80.234126659513095,43.540786413403495],[-80.234164985514042,43.540786596400721],[-80.234213326524653,43.540788690398848],[-80.234258596544208,43.540780990403505],[-80.234305316556117,43.540774960394664],[-80.234339700575063,43.540770174397949],[-80.234384596589038,43.540764021389165],[-80.234427604597258,43.540758813386688],[-80.234465880598492,43.540750919388415],[-80.234517590630517,43.540747134377803],[-80.234613377665042,43.540753861385134],[-80.234680443672005,43.540754605370417],[-80.234723783690313,43.54075924737834],[-80.234756440696387,43.54077067837791],[-80.234831271718903,43.540782833374315],[-80.234853310742849,43.540783976374321],[-80.234904084743093,43.54079014337497],[-80.234955637772089,43.540802770363648],[-80.234998216780525,43.540815484369112],[-80.235010435789945,43.540819438373092],[-80.235045685796052,43.540826312371983],[-80.235058766808692,43.54082628937374],[-80.235108541818548,43.540835216363512],[-80.235141672824597,43.540849378362871],[-80.235210211847644,43.540861860367023],[-80.235240913874947,43.540875601364036],[-80.235278284884544,43.540899233374681],[-80.235305101879121,43.54091951337648],[-80.235353623907415,43.540959448379787],[-80.23541190893468,43.540976951381296],[-80.235501825962743,43.540986846381614],[-80.235559936968144,43.540994131375022],[-80.235642063999293,43.541002610379145],[-80.235697594030086,43.540993466361847],[-80.235789326049613,43.54098817835812],[-80.235854071067976,43.540983964364109],[-80.235934880104836,43.540984430350406],[-80.236011006106708,43.540970334355777],[-80.236113295151711,43.54095202434781],[-80.236218058180299,43.54093848733644],[-80.236339059220612,43.540956003328226],[-80.236439785259392,43.540949041326925],[-80.236511667276815,43.540949779324976],[-80.23658932130661,43.5409471633211],[-80.236647522320339,43.540947293320372],[-80.236740934342208,43.540937369311791],[-80.236785030367571,43.540926304299227],[-80.236849309367585,43.540914821299772],[-80.236926827396374,43.540886792292021],[-80.236987284407761,43.540872922285423],[-80.237020894437109,43.540865144275756],[-80.237103879458274,43.540845781272125],[-80.237178555483695,43.540830052272767],[-80.237232468489196,43.540824400264945],[-80.237310008517454,43.540794638257772],[-80.237383957539137,43.540780231243644],[-80.237458208550535,43.540761954245227],[-80.237551093593069,43.540749554242645],[-80.237607069599903,43.540733147234093],[-80.237694822638147,43.540713595220495],[-80.23779993865061,43.540696187223105],[-80.23788193668652,43.540682719208831],[-80.237952817698201,43.540670320197954],[-80.238041318726246,43.540655788201029],[-80.238107407752878,43.54065759319699],[-80.238198015778011,43.540664946195726],[-80.238282378801827,43.540668975181127],[-80.238332302832333,43.54067008218879],[-80.238386287833265,43.540674905189256],[-80.238424932855594,43.540677965177693],[-80.238472574863792,43.540683151182435],[-80.238510585882722,43.54068827218515],[-80.238557294900275,43.540695148181996],[-80.238606872921409,43.54069153218331],[-80.238651029925862,43.540699792177492],[-80.238706970955789,43.540698137167013],[-80.238759370970214,43.540708038177542],[-80.23879047598011,43.540718055175432],[-80.238846682990143,43.540731596176833],[-80.238908524024808,43.540736544165036],[-80.238950568037396,43.540747519169059],[-80.239000473041742,43.540742098167023],[-80.239064147070195,43.540742411163805],[-80.239118417091333,43.540740707165263],[-80.239190671096154,43.54072798514936],[-80.239245421122121,43.540712232146362],[-80.239296221142098,43.54069615815078],[-80.239329637152835,43.540679599138137],[-80.239381193156746,43.540655859134546],[-80.239422049168468,43.540636288127949],[-80.239444858162628,43.540608484127105],[-80.239482250190051,43.540574102110128],[-80.23950760830067,43.540549989382406],[-80.23951175419522,43.540546047110915],[-80.239547850193617,43.540501808102192],[-80.239561934201873,43.540478445090066],[-80.239595541193168,43.540418479088672],[-80.239619488150282,43.540375430953958],[-80.239621787207199,43.540371298078085],[-80.239668175225447,43.540314920061],[-80.239706161214841,43.54025741705145],[-80.239736630233537,43.540213178040339],[-80.239769554242386,43.540171131023556],[-80.239820298257001,43.540127211016674],[-80.239854203262325,43.540095903009018],[-80.239889858259758,43.540058521006351],[-80.239890123025475,43.540058313203581],[-80.239935941282141,43.540022351990253],[-80.239974899283439,43.539984253993431],[-80.240021567290071,43.539950006979616],[-80.240074284301912,43.539914360977335],[-80.240110926313164,43.539887127958103],[-80.240114591627886,43.539882808897758],[-80.240148647323281,43.539842678947323],[-80.240191685335532,43.539806747938606],[-80.240241524357359,43.539766140938177],[-80.240271490360257,43.539733552931388],[-80.240296450371133,43.539699934928542],[-80.24032362037002,43.539676068924422],[-80.240359785367176,43.539646472904423],[-80.240401175392364,43.539612558900373],[-80.240497698424662,43.539584801899117],[-80.240684064248654,43.53959201396836],[-80.240773385502024,43.539595470460775],[-80.240780709515334,43.539595753888811],[-80.240935907763031,43.539485613276291],[-80.241893925498431,43.538805716628268],[-80.241897071799826,43.538803483697684],[-80.241941064796904,43.538772261676201],[-80.242360889287909,43.538565240438984],[-80.24332766106869,43.538088500574219],[-80.245221725926299,43.537308986436244],[-80.246882658340638,43.536625376766516],[-80.248362909235496,43.535943608511182],[-80.250215402778025,43.535090345153684],[-80.250676779705088,43.5348778252636],[-80.251130354086257,43.534644415342136],[-80.251157856310599,43.534630262545704],[-80.25285663275281,43.533756037097056],[-80.254077770438244,43.533127582956404],[-80.256298456003051,43.531483920948205],[-80.259793754084029,43.528419052300613],[-80.260708097283143,43.52706839761624],[-80.260892218058601,43.526796408751451],[-80.261080731359101,43.526517928198089],[-80.261085729143588,43.526510545213824],[-80.261230529037618,43.526296638084048],[-80.261275188802315,43.526328475577358],[-80.261301684479804,43.526191522362048],[-80.261422962784977,43.525303910029344],[-80.262194482334209,43.524341708414724],[-80.262710175411954,43.523520165298521],[-80.263261460313686,43.522348256884698],[-80.263857605387713,43.521931864967875],[-80.264148627604754,43.521845965161447],[-80.264532578931181,43.522115199938703],[-80.264548581430745,43.520945120462386],[-80.264446066731011,43.520200166310978],[-80.264137538704347,43.519607175360449],[-80.264475015469799,43.518320340443488],[-80.264509855377,43.517743137906955],[-80.264387887533218,43.517016151855451],[-80.2642275397925,43.516311355284522],[-80.263638846717015,43.515524927247796],[-80.263222778632397,43.515287587403797],[-80.262383696381306,43.514831128894222],[-80.261716083558795,43.514630209737035],[-80.261111965099175,43.513274766274193],[-80.259935872276344,43.512206008570324],[-80.259927496920966,43.512198481730152],[-80.259922834012727,43.512197256948788],[-80.259919768279914,43.512196451672288],[-80.259912406923718,43.512189471654757],[-80.259897368885376,43.512184512929693],[-80.25985305850908,43.512153978141875],[-80.259843454127235,43.512149835236933],[-80.259826288925964,43.512140661349072],[-80.259806521180138,43.512138733426525],[-80.25980445276312,43.512137405418478],[-80.259798727408878,43.512133731530675],[-80.259790975444346,43.512125309205445],[-80.259790201877649,43.512121793441572],[-80.259738026516274,43.512066990784135],[-80.259691404909333,43.512033649657923],[-80.259720126470484,43.512020872208574],[-80.259585923898243,43.511924848172008],[-80.259574091424241,43.511899655113112],[-80.259486613792646,43.511845433203874],[-80.259473770553953,43.511736061015249],[-80.259391855287689,43.511660720481558],[-80.259397619713809,43.511656436681925],[-80.259368291548483,43.511627169311261],[-80.259239956699403,43.511535323032533],[-80.259193033087882,43.511485056264391],[-80.259186183314227,43.511472921340669],[-80.259169367839618,43.511443131342048],[-80.259130692276202,43.51140852620297],[-80.259122646413346,43.511401327137918],[-80.259121008649331,43.511397288726805],[-80.259098780019116,43.511342477417095],[-80.259069552492392,43.51131329974875],[-80.259014914179915,43.511274169859483],[-80.259011201643972,43.511271511088452],[-80.259010502615439,43.511269048804493],[-80.259009847698209,43.511266741968619],[-80.259007714283669,43.511259227206104],[-80.259005235796138,43.511250497046106],[-80.258958413066637,43.511208602076323],[-80.258929581282658,43.511195521766098],[-80.258919650278756,43.511191016301694],[-80.258894396085736,43.511179559054575],[-80.258873216584391,43.511151486998969],[-80.258866779637884,43.51114431656633],[-80.258800651291239,43.511070652820649],[-80.258700200489244,43.510998816735608],[-80.258686150482234,43.510997040202085],[-80.258607538031754,43.510987100166375],[-80.258592804722838,43.510920930171416],[-80.258589016548612,43.510903916741427],[-80.258584236676057,43.510882449411902],[-80.258525168359512,43.510855823727169],[-80.258497854608564,43.510843511731636],[-80.258363166140867,43.51078279915442],[-80.258345216141507,43.510720275880615],[-80.258345066505711,43.510719754681013],[-80.258333767937032,43.510711652567778],[-80.258298446559408,43.510686323847438],[-80.258253278559124,43.51065102414816],[-80.25820654678364,43.510614502268773],[-80.258183761490997,43.510598660451905],[-80.258109834263692,43.510547261376431],[-80.258030002789184,43.510490130050805],[-80.258014732720568,43.510471339078642],[-80.257969792659196,43.510416036864761],[-80.257889518363868,43.51035516784421],[-80.257878650988644,43.510346927506461],[-80.257762042198777,43.510273324434017],[-80.257722796058445,43.510251435149996],[-80.257656542996642,43.510214482881963],[-80.257534783346401,43.510194156658685],[-80.257476344612854,43.510157591805317],[-80.257377329698585,43.510089876099151],[-80.257313537046514,43.510015860131894],[-80.257259724179008,43.509930579824342],[-80.257218768545897,43.509892954243853],[-80.257194609423834,43.509830579434372],[-80.257165075724089,43.509754328115712],[-80.25706867753307,43.509674476117219],[-80.256994940161505,43.509571733932496],[-80.256929278950352,43.509473297544446],[-80.256912675674343,43.509448406598025],[-80.256917633395176,43.50937686947222],[-80.256897517814707,43.509354287368666],[-80.256876578059007,43.509330780037331],[-80.25686819516973,43.509116018386557],[-80.256851479274985,43.509080490076379],[-80.256779314752208,43.508927109628701],[-80.256702868027631,43.508830737241368],[-80.256717517771207,43.508794657451908],[-80.256742314393946,43.508733587533577],[-80.256638920283777,43.508647812494104],[-80.256596191756927,43.508612365108966],[-80.25654937293082,43.508562187955803],[-80.256544980943687,43.508519970518982],[-80.25653623369746,43.508435888172755],[-80.256343599078008,43.508281234539041],[-80.256337530661753,43.508260308808616],[-80.25630836242135,43.508239427326288],[-80.256232367484785,43.508168250553652],[-80.256234538229009,43.508136244918724],[-80.256237225560994,43.508096622737526],[-80.25616714716476,43.508046563356906],[-80.256183333914308,43.507941250510086],[-80.256142482838015,43.507903535171927],[-80.255922303778704,43.507740173685207],[-80.255757315950817,43.507627895584193],[-80.255698164598144,43.507510478699409],[-80.255627686975359,43.507426657650342],[-80.255581902337582,43.507387431268128],[-80.255526733280774,43.507340164635757],[-80.255467128128501,43.50726546265124],[-80.255459903871156,43.507257097446775],[-80.255381326625965,43.507166110038007],[-80.255344938767763,43.507176621761971],[-80.255120590999667,43.507241431042615],[-80.255097119134689,43.507248211534396],[-80.255098718138314,43.507249991538828],[-80.250026492656303,43.50869847002577],[-80.248384588187221,43.509169654185918],[-80.247447400615627,43.509774929670712],[-80.247084289327603,43.510009436967913],[-80.246898176791717,43.510129632423912],[-80.246871771793195,43.510146313437467],[-80.246845465790713,43.51016306843205],[-80.246819311775909,43.510179898437414],[-80.246793206777625,43.510196839450607],[-80.246767202753205,43.510213818447902],[-80.246741349758608,43.51023090846008],[-80.246715545759344,43.510248109464634],[-80.246689892741742,43.510265348458148],[-80.24666434073356,43.510282699467517],[-80.246638837725726,43.510300123463864],[-80.246613485727806,43.510317622480677],[-80.246588234711041,43.510335196482259],[-80.246563133704143,43.510352881477097],[-80.246538082704859,43.510370640486727],[-80.246513182708611,43.510388437486029],[-80.246488332684706,43.510406345500165],[-80.246463633678331,43.510424365504434],[-80.246439034680435,43.510442422512881],[-80.246414536663679,43.510460554506558],[-80.246390188677807,43.510478797509641],[-80.246365940652638,43.510497115522348],[-80.246341794662371,43.510515507521994],[-80.246317747648135,43.510533937524798],[-80.246293801634295,43.510552478538941],[-80.246270006631121,43.510571094528224],[-80.24256780172017,43.51340102520173],[-80.24246607007187,43.51328843786753],[-80.239047627253896,43.50950492169023],[-80.234870988874121,43.506431382982903],[-80.234688878665253,43.506297359714175],[-80.234686320151155,43.506295476789163],[-80.234670462008637,43.50628380601276],[-80.234661040937468,43.506276872574539],[-80.234635060566063,43.506257752325773],[-80.234600020572913,43.506283648126548],[-80.234599634827816,43.506283933192393],[-80.234461648678874,43.506392813630058],[-80.233735995259366,43.506965394103062],[-80.233590411630871,43.507080265702996],[-80.233580564377405,43.507088035584012],[-80.232066952152636,43.508282301721259],[-80.229849119214265,43.509824113345076],[-80.229251187546055,43.510122781450434],[-80.227939244842048,43.510503112119167],[-80.225378038079484,43.511004698074892],[-80.225292801157153,43.511027305338814],[-80.224617292035774,43.51120646674709],[-80.22453739272791,43.511227657638564],[-80.223947233607788,43.511384177482746],[-80.223367941735248,43.51183491915026],[-80.22302153474655,43.512104450595409],[-80.222969611329333,43.51214485072213],[-80.222886271590895,43.512209694835867],[-80.222184114957358,43.512756013560256],[-80.220618205448673,43.513974330661199],[-80.22061587500076,43.513976143757318],[-80.220586361735471,43.51399910515471],[-80.217538655466981,43.516228380505687],[-80.217447030311234,43.516295396800366],[-80.21744183935661,43.516299193576181],[-80.216620893502039,43.516899638134319],[-80.215431370800886,43.517749136255233],[-80.214902683320986,43.518126686882489],[-80.214897428353439,43.518531961689241],[-80.214897169655288,43.518551912848842],[-80.214896505684138,43.5186031191271],[-80.2148912539039,43.5190081381702],[-80.214890327895787,43.51907955134665],[-80.214898039155713,43.519099917550129],[-80.215016943314424,43.519413952961017],[-80.215008913164866,43.520033314763552],[-80.214343696598434,43.520838752212128],[-80.213691399488198,43.521272388681417],[-80.213470686053952,43.521419113095057],[-80.213444975439018,43.521436204742088],[-80.212494183800231,43.522068252001134],[-80.212492836769059,43.522069147444455],[-80.212428289594342,43.522112054985698],[-80.211540786899278,43.521630047089801],[-80.211250528930094,43.52147240313441],[-80.209762559930937,43.520664237934255],[-80.207356341898986,43.519408747725443],[-80.206094011311748,43.51860233642477],[-80.206067355065528,43.518585307291758],[-80.205018820140992,43.517915447025224],[-80.202950965828691,43.51641639633548],[-80.202908051842485,43.51638528548078],[-80.20137395168193,43.515180222528471],[-80.201300019748032,43.515122145957598],[-80.199458887460807,43.513675809697645],[-80.199457899820629,43.513675033809093],[-80.19944299611403,43.513663325511601],[-80.199367681981272,43.513720580575352],[-80.199367386298988,43.513720805362198],[-80.199366994517916,43.513721103197817],[-80.192846770295731,43.518677281317942],[-80.18981932522297,43.520978107974905],[-80.18940643309061,43.521291881702695],[-80.185642133713955,43.524152306599206],[-80.185616062716718,43.524183766081848],[-80.185615651053439,43.524184262850497],[-80.185436174128128,43.524400833923778],[-80.188906479450125,43.526938273658345],[-80.188966431593101,43.526982107058473],[-80.198548302507646,43.533986579506148],[-80.199654326132304,43.53479494168414],[-80.199851654657323,43.534939160267299],[-80.20138685032552,43.536061131316572],[-80.203016477322379,43.537252047983088],[-80.203018210736843,43.537253314707137],[-80.203055901662466,43.537280858072904],[-80.203055959428966,43.537280900286092],[-80.20351881424881,43.537495302646256],[-80.203907494204657,43.537742793544794],[-80.205123348006794,43.538516963621454],[-80.205756383066216,43.538920022846227],[-80.205872199063208,43.538993763007021],[-80.207016370816405,43.539836306526148],[-80.207087943952828,43.539887319151369],[-80.214800700084169,43.545383700948449],[-80.218608784240345,43.548096917427443],[-80.218828323143185,43.548253090565098],[-80.220296560308867,43.54929751728605]]]},"properties":{"OBJECTID":3,"WARD":"5","COUNC1":"Leanne Caron","COUNC2":"Cathy Downer","NAME":"St. Andrew's","COUNC1WEB":"https://guelph.ca/city-hall/mayor-and-council/city-council/#ward-5","COUNC2WEB":null,"Shape__Area":16616597.430478364,"Shape__Length":19030.34893208947,"GlobalID":"{BDA09883-4D63-4546-8240-BE3ECDC91786}","POPULATION_2016":20457,"POPULATION_2022":23623,"POP_CHANGE_2016_2022":15.48,"COUNC1PIC":"https://guelph.ca/wp-content/uploads/Councillor-Leanne-Caron-2023.jpg","COUNC2PIC":"https://guelph.ca/wp-content/uploads/Councillor-Cathy-Downer-2023.jpg","COUNC1PHONE":null,"COUNC2PHONE":"519-827-8390","COUNC1EMAIL":"leanne.caron@guelph.ca","COUNC2EMAIL":"cathy.downer@guelph.ca","COUNC1MAILTO":"\u003ca href = \"mailto:leanne.caron@guelph.ca\"\u003eEmail\u003c/a\u003e","COUNC2MAILTO":"\u003ca href = \"mailto:cathy.downer@guelph.ca\"\u003eEmail\u003c/a\u003e","COUNC1PHONELINK":"","COUNC2PHONELINK":null}},{"type":"Feature","id":4,"geometry":{"type":"Polygon","coordinates":[[[-80.262710175411954,43.523520165298521],[-80.262194482334209,43.524341708414724],[-80.261422962784977,43.525303910029344],[-80.261301684479804,43.526191522362048],[-80.26131447719564,43.526194461626083],[-80.264727045011043,43.526978475020023],[-80.267161018607382,43.528163173089304],[-80.274369650167358,43.53316378345685],[-80.288787871701388,43.543386315676536],[-80.303359785716694,43.5542156832011],[-80.303739371750908,43.553938361390351],[-80.304557416953259,43.553339744251645],[-80.305535257184815,43.552623961072776],[-80.305806051257179,43.552424603027752],[-80.306696357477421,43.551769132867456],[-80.307587719704244,43.551112849708645],[-80.308487191924925,43.550450597555141],[-80.30876598999609,43.550254600509412],[-80.309290131134901,43.549869925422847],[-80.310354839399167,43.54909026822628],[-80.310704638482704,43.548834209174991],[-80.311557227695957,43.54821332601346],[-80.311737558744412,43.548082081994316],[-80.313181400113194,43.54701423972628],[-80.314061509330386,43.54637650057802],[-80.315917617788074,43.545023349249576],[-80.316180602856321,43.544831370207078],[-80.317810742272485,43.543644460916269],[-80.31842912839538,43.543195244765933],[-80.319531009697926,43.542394776617741],[-80.319524374230255,43.542389913954537],[-80.319761029794805,43.542215897631365],[-80.318059392350264,43.54096276377939],[-80.318224772159738,43.54083702541778],[-80.321100032971756,43.538740471644289],[-80.322304964167685,43.537861806689612],[-80.322579908245245,43.537661216654215],[-80.323451084467308,43.537025968492557],[-80.32366612822868,43.536869196084062],[-80.32371579653136,43.536832986449745],[-80.324822873677121,43.536025563396329],[-80.325476227963478,43.535549038145035],[-80.32575012904563,43.535349172087038],[-80.327072680363045,43.53438469985398],[-80.325998748953737,43.533609288773071],[-80.325464682754017,43.533223827730026],[-80.324912170538809,43.532824904691729],[-80.324384202347971,43.532443863642392],[-80.324380736337801,43.532436540642038],[-80.323996493197228,43.532163855620198],[-80.323583040043317,43.531865327580924],[-80.323253665905355,43.531614097555739],[-80.321797552353956,43.530573531447999],[-80.319694713550263,43.529070665276315],[-80.318116029964173,43.527942356155854],[-80.316111875200946,43.526509718001812],[-80.314189564462822,43.525135880854933],[-80.31407801541269,43.525058867845516],[-80.314009445393452,43.524950799835032],[-80.311197882316179,43.522871603600841],[-80.307048636285742,43.519839787263848],[-80.307046691728388,43.519838366273696],[-80.305456705268426,43.520456918450471],[-80.305142082602643,43.520582122058855],[-80.301235308085893,43.522136700939406],[-80.301152166057989,43.522169237954543],[-80.300852688975723,43.522286681984141],[-80.300851690972152,43.522285347994],[-80.300710156942856,43.522340173014484],[-80.300601306900944,43.522382363017492],[-80.300492457876103,43.52242455303098],[-80.300383607837404,43.52246674404789],[-80.300274758817707,43.522508933064422],[-80.300167741784136,43.522550397071917],[-80.299591314624081,43.52277372413144],[-80.297560540058612,43.523543629369726],[-80.297551584980795,43.523537055723146],[-80.297392682990932,43.523420410349985],[-80.297232158899789,43.523305972001921],[-80.29722694692434,43.523302256341928],[-80.292100208365255,43.519591088066441],[-80.291975340909673,43.519494977927565],[-80.291973984914421,43.519493936931553],[-80.29184770787721,43.519396783916442],[-80.291022415551126,43.518803632854109],[-80.290032985212051,43.518461245843966],[-80.289710868103214,43.518374159844242],[-80.289376707985085,43.518315728844172],[-80.288374216669396,43.518271136883513],[-80.285219989464309,43.516011398643194],[-80.285208485460743,43.516019993638146],[-80.284939191361957,43.515825899624097],[-80.284763165299154,43.515698959601465],[-80.284495684186368,43.515506055578022],[-80.284508558189103,43.515497321582792],[-80.284131644290184,43.515226025455227],[-80.283927060441599,43.515078767979432],[-80.283873042950361,43.515039886528577],[-80.283064199649132,43.514455779464193],[-80.283062994638016,43.514454813463395],[-80.283059867037551,43.514456975697243],[-80.283044702628359,43.51446745946371],[-80.282934514586458,43.514387473463202],[-80.282911653579802,43.514370844454142],[-80.282762450406864,43.514262526055624],[-80.282587171455845,43.514135276429208],[-80.282605512460009,43.514122814432582],[-80.282200893316215,43.51382902239321],[-80.282192615258907,43.513835122261824],[-80.28218729531433,43.513839042397343],[-80.281920240202481,43.513645767384226],[-80.281744281143858,43.513518454362654],[-80.281476122037532,43.513324580340928],[-80.281212185931182,43.513133682326774],[-80.281037534877782,43.513007372309445],[-80.280959600773002,43.512950969460114],[-80.280770989761166,43.512814466281263],[-80.280722653758133,43.512779604283487],[-80.280472188659047,43.512598342263743],[-80.280262419571443,43.512446767251951],[-80.280013515481556,43.512266583227827],[-80.27996563345198,43.512231982225408],[-80.279697535362146,43.512038104210873],[-80.279520631286857,43.511910155195658],[-80.279246205193232,43.511711700166714],[-80.279253949185261,43.5117040031679],[-80.278938437063616,43.511479324147842],[-80.27876607999589,43.51137397313326],[-80.278571872110817,43.51123782091485],[-80.278563498409497,43.511231950382857],[-80.278360774849801,43.511089827099212],[-80.278068628783871,43.511303148150184],[-80.277757361651169,43.511079894135193],[-80.277348479560274,43.511380697202839],[-80.277172110519842,43.511514088230051],[-80.275694908135364,43.512576365493302],[-80.275361665051364,43.512817781547945],[-80.274409100806452,43.513516617708298],[-80.274353274798813,43.513476910714168],[-80.274259912760513,43.513410632707028],[-80.274150977724091,43.513332969693202],[-80.273891800613299,43.513148576668605],[-80.273786933588795,43.513074000666016],[-80.273131614324853,43.512607712612457],[-80.272556259267901,43.514053454893975],[-80.272459741272698,43.514296257943279],[-80.272300413252978,43.514696845015443],[-80.272174791235315,43.515012561085314],[-80.272096827236311,43.515208237115758],[-80.272038662233385,43.515354691149703],[-80.271977840218781,43.515507177173177],[-80.271919361225955,43.515654441207438],[-80.271859945204,43.515803690237675],[-80.271800580214631,43.515952939264082],[-80.271665808201107,43.516291537325166],[-80.271244566061213,43.51634214636011],[-80.270013068691,43.5165022114533],[-80.269470561520521,43.516572804484049],[-80.269604175611704,43.517100139563453],[-80.269422231612225,43.517212804819998],[-80.268941555443377,43.517510450668951],[-80.269005449479451,43.517780203718601],[-80.268395215306271,43.517863893760925],[-80.268235560242417,43.517881681765417],[-80.268236709086935,43.517885694855117],[-80.268576735474767,43.519073434959211],[-80.268392624411916,43.519093352976981],[-80.267654734437357,43.519190642761266],[-80.267571498163932,43.519201617041624],[-80.267572062699728,43.519203917275846],[-80.267720071264463,43.519806980140224],[-80.265761472951482,43.521225329082256],[-80.264529683641555,43.522117296426352],[-80.264148627604754,43.521845965161447],[-80.263857605387713,43.521931864967875],[-80.263261460313686,43.522348256884698],[-80.262710175411954,43.523520165298521]]]},"properties":{"OBJECTID":4,"WARD":"4","COUNC1":"Linda Busuttil","COUNC2":"Christine Billings","NAME":"St. David's","COUNC1WEB":"https://guelph.ca/city-hall/mayor-and-council/city-council/#ward-4","COUNC2WEB":null,"Shape__Area":11865201.580463506,"Shape__Length":15694.764251995401,"GlobalID":"{C31C4635-1162-4541-A51E-C402556FD7AB}","POPULATION_2016":21017,"POPULATION_2022":22950,"POP_CHANGE_2016_2022":9.1999999999999993,"COUNC1PIC":"https://guelph.ca/wp-content/uploads/01-Linda-Busuttil-scaled-e1686080046266-768x637.jpg","COUNC2PIC":"https://guelph.ca/wp-content/uploads/Councillor-Christine-Billings-2023.jpg","COUNC1PHONE":null,"COUNC2PHONE":"519-826-0567","COUNC1EMAIL":"linda.busuttil@guelph.ca","COUNC2EMAIL":"christine.billings@guelph.ca","COUNC1MAILTO":"\u003ca href = \"mailto:linda.busuttil@guelph.ca\"\u003eEmail\u003c/a\u003e","COUNC2MAILTO":"\u003ca href = \"mailto:christine.billings@guelph.ca\"\u003eEmail\u003c/a\u003e","COUNC1PHONELINK":"","COUNC2PHONELINK":null}},{"type":"Feature","id":5,"geometry":{"type":"Polygon","coordinates":[[[-80.221821004323871,43.548830890396765],[-80.221782371315129,43.548858104412638],[-80.221727169302341,43.548888340417982],[-80.221690921300961,43.548907529420468],[-80.221641326269207,43.548935442432303],[-80.22159421626796,43.548967282430866],[-80.221548860254785,43.548996810446702],[-80.221498995235862,43.54903386845541],[-80.221454819222032,43.549062261464151],[-80.221411851211712,43.549087490471386],[-80.2213652532146,43.549118927466381],[-80.221320937200744,43.549146397474047],[-80.22127352618628,43.549173993485383],[-80.221227213165037,43.54919908849967],[-80.221189166151248,43.549220073501132],[-80.221135915139712,43.549252350508937],[-80.221075404121478,43.549285278519839],[-80.221037746111051,43.549303646525594],[-80.220995480103994,43.549329433531611],[-80.220956304096234,43.549359372536159],[-80.220925841086213,43.549386014542321],[-80.220897068094359,43.549415323538483],[-80.220869286085872,43.549434607543212],[-80.220686005027474,43.549574538585588],[-80.242018748179106,43.564915920250726],[-80.247677776338151,43.568957841685354],[-80.273837072327254,43.58785916474848],[-80.274130619326186,43.58808097313387],[-80.274260200862741,43.587821537159421],[-80.274456612004954,43.587550464851901],[-80.274643912561842,43.587246834902373],[-80.274942895838436,43.5868375967543],[-80.275224810225694,43.586403403600038],[-80.275297380149979,43.586189766177654],[-80.27537956169283,43.585963338933219],[-80.275360206723633,43.58584843700843],[-80.27536555193727,43.585615671820612],[-80.275380482188453,43.585367302887619],[-80.275298118261134,43.585200237702466],[-80.275279138303034,43.584985863183604],[-80.275423763089037,43.584722292582548],[-80.27563705400415,43.584396590751076],[-80.275637072128902,43.584224737100925],[-80.275652545767556,43.583981953186949],[-80.275631427410474,43.583715890418993],[-80.275699961787524,43.583494418687977],[-80.275715405326096,43.583330764658001],[-80.275717743679635,43.583169817974657],[-80.275609821339287,43.583013484220871],[-80.275414046472349,43.582892602916523],[-80.275185192033618,43.582762239084573],[-80.274983028357994,43.582578121010272],[-80.274827450410555,43.582469556443371],[-80.274563235212042,43.582298726674338],[-80.274459482150434,43.582186800568017],[-80.274440706105807,43.581981338491161],[-80.274450988829827,43.581720426981889],[-80.274529121628333,43.581499286016324],[-80.274652039005943,43.581256913762935],[-80.274645574758452,43.581063683588518],[-80.274486127403321,43.580827081272965],[-80.274471508648759,43.580658105090265],[-80.274409689907145,43.580311844012833],[-80.27441276005014,43.580081674496036],[-80.274593400855935,43.579718318013008],[-80.274763350546166,43.579458489709644],[-80.274775886688843,43.579439323695972],[-80.274794505662825,43.579272087100726],[-80.274808660583588,43.579168530414314],[-80.274790364416361,43.579113081550425],[-80.274770302006559,43.579047538091466],[-80.274756521870486,43.579000678902261],[-80.274705709602102,43.57882789177215],[-80.274659387275051,43.578775196866445],[-80.27454017518852,43.578639584182014],[-80.274495539412669,43.578588807467121],[-80.274392522531869,43.578424671788241],[-80.274409129129467,43.578138863291962],[-80.274581674544507,43.577870879416061],[-80.274843408232584,43.577600130390977],[-80.275147508988567,43.577322086799363],[-80.275337787040172,43.577227058601693],[-80.27556980933241,43.577006261829318],[-80.275618189293439,43.576906372972715],[-80.275739103296587,43.576838450948074],[-80.275817960398058,43.576590037249524],[-80.275854630703449,43.57629121218644],[-80.275742448467369,43.576039607351653],[-80.27558959931163,43.575875156972508],[-80.275444803784225,43.575703464959517],[-80.275418277216403,43.575565112016783],[-80.275475432979476,43.575337895366744],[-80.275414819750807,43.575095439242816],[-80.275314039482112,43.574736508352714],[-80.275175320495038,43.574262827469781],[-80.275038108723649,43.573901954512507],[-80.27499483263108,43.573806435995209],[-80.274894305913435,43.573690568758316],[-80.27475942367586,43.573603920740823],[-80.274615260062063,43.573516314171592],[-80.274464457204104,43.573420382360325],[-80.27436448790435,43.573368795201759],[-80.274270648299762,43.57333408012903],[-80.274196784071506,43.573294271187727],[-80.274030020009008,43.573209490856279],[-80.273949092331037,43.573205015991775],[-80.27384606118062,43.573178885279631],[-80.273672744968991,43.573070026232834],[-80.273565889642072,43.573039279743043],[-80.27348027704231,43.572948802268471],[-80.273394775253564,43.572849233943124],[-80.273209577199296,43.572802954941366],[-80.273124076051957,43.572703385518395],[-80.273025902112607,43.572621650997412],[-80.272927179118312,43.572594016141778],[-80.272816533565873,43.572530385999869],[-80.272805045274893,43.572458294129838],[-80.272693357936575,43.572322377326678],[-80.272599287172923,43.572224870755335],[-80.276491801985443,43.569337187581354],[-80.276888700489835,43.569038324303484],[-80.276904152609205,43.569027049319416],[-80.276555094431671,43.568279844202905],[-80.276870876968161,43.568050486299661],[-80.277065416338829,43.567909187923249],[-80.278146308830884,43.567124092913595],[-80.278143570611334,43.56711752021711],[-80.278135016827122,43.567096987909245],[-80.278165591833584,43.567076563913403],[-80.278316951872014,43.566965511891098],[-80.277724110539154,43.565404429645042],[-80.27758215247998,43.56525954861587],[-80.277197664331467,43.564922939587746],[-80.268304887913672,43.558380133865469],[-80.256887984552463,43.550153593961006],[-80.25536507794331,43.5486973547848],[-80.254431681925027,43.547740826138792],[-80.254308483504744,43.54761457164048],[-80.249137464391538,43.542327115957534],[-80.248971099332891,43.542156959945757],[-80.243720118500946,43.540412754883839],[-80.243092972246245,43.539715827792627],[-80.243063259229302,43.539626932777878],[-80.242964403189205,43.539517145762879],[-80.242082846855752,43.538870937692074],[-80.241941064796904,43.538772261676201],[-80.240780709515334,43.539595753888811],[-80.240497698424662,43.539584801899117],[-80.240401175392364,43.539612558900373],[-80.240359785367176,43.539646472904423],[-80.24032362037002,43.539676068924422],[-80.240296450371133,43.539699934928542],[-80.240271490360257,43.539733552931388],[-80.240241524357359,43.539766140938177],[-80.240191685335532,43.539806747938606],[-80.240148647323281,43.539842678947323],[-80.240110926313164,43.539887127958103],[-80.240074284301912,43.539914360977335],[-80.240021567290071,43.539950006979616],[-80.239974899283439,43.539984253993431],[-80.239935941282141,43.540022351990253],[-80.239889858259758,43.540058521006351],[-80.239854203262325,43.540095903009018],[-80.239820298257001,43.540127211016674],[-80.239769554242386,43.540171131023556],[-80.239736630233537,43.540213178040339],[-80.239706161214841,43.54025741705145],[-80.239668175225447,43.540314920061],[-80.239621787207199,43.540371298078085],[-80.239595541193168,43.540418479088672],[-80.239561934201873,43.540478445090066],[-80.239547850193617,43.540501808102192],[-80.23951175419522,43.540546047110915],[-80.239482250190051,43.540574102110128],[-80.239444858162628,43.540608484127105],[-80.239422049168468,43.540636288127949],[-80.239381193156746,43.540655859134546],[-80.239329637152835,43.540679599138137],[-80.239296221142098,43.54069615815078],[-80.239245421122121,43.540712232146362],[-80.239190671096154,43.54072798514936],[-80.239118417091333,43.540740707165263],[-80.239064147070195,43.540742411163805],[-80.239000473041742,43.540742098167023],[-80.238950568037396,43.540747519169059],[-80.238908524024808,43.540736544165036],[-80.238846682990143,43.540731596176833],[-80.23879047598011,43.540718055175432],[-80.238759370970214,43.540708038177542],[-80.238706970955789,43.540698137167013],[-80.238651029925862,43.540699792177492],[-80.238606872921409,43.54069153218331],[-80.238557294900275,43.540695148181996],[-80.238510585882722,43.54068827218515],[-80.238472574863792,43.540683151182435],[-80.238424932855594,43.540677965177693],[-80.238386287833265,43.540674905189256],[-80.238332302832333,43.54067008218879],[-80.238282378801827,43.540668975181127],[-80.238198015778011,43.540664946195726],[-80.238107407752878,43.54065759319699],[-80.238041318726246,43.540655788201029],[-80.237952817698201,43.540670320197954],[-80.23788193668652,43.540682719208831],[-80.23779993865061,43.540696187223105],[-80.237694822638147,43.540713595220495],[-80.237607069599903,43.540733147234093],[-80.237551093593069,43.540749554242645],[-80.237458208550535,43.540761954245227],[-80.237383957539137,43.540780231243644],[-80.237310008517454,43.540794638257772],[-80.237232468489196,43.540824400264945],[-80.237178555483695,43.540830052272767],[-80.237103879458274,43.540845781272125],[-80.237020894437109,43.540865144275756],[-80.236987284407761,43.540872922285423],[-80.236926827396374,43.540886792292021],[-80.236849309367585,43.540914821299772],[-80.236785030367571,43.540926304299227],[-80.236740934342208,43.540937369311791],[-80.236647522320339,43.540947293320372],[-80.23658932130661,43.5409471633211],[-80.236511667276815,43.540949779324976],[-80.236439785259392,43.540949041326925],[-80.236339059220612,43.540956003328226],[-80.236218058180299,43.54093848733644],[-80.236113295151711,43.54095202434781],[-80.236011006106708,43.540970334355777],[-80.235934880104836,43.540984430350406],[-80.235854071067976,43.540983964364109],[-80.235789326049613,43.54098817835812],[-80.235697594030086,43.540993466361847],[-80.235642063999293,43.541002610379145],[-80.235559936968144,43.540994131375022],[-80.235501825962743,43.540986846381614],[-80.23541190893468,43.540976951381296],[-80.235353623907415,43.540959448379787],[-80.235305101879121,43.54091951337648],[-80.235278284884544,43.540899233374681],[-80.235240913874947,43.540875601364036],[-80.235210211847644,43.540861860367023],[-80.235141672824597,43.540849378362871],[-80.235108541818548,43.540835216363512],[-80.235058766808692,43.54082628937374],[-80.235045685796052,43.540826312371983],[-80.235010435789945,43.540819438373092],[-80.234998216780525,43.540815484369112],[-80.234955637772089,43.540802770363648],[-80.234904084743093,43.54079014337497],[-80.234853310742849,43.540783976374321],[-80.234831271718903,43.540782833374315],[-80.234756440696387,43.54077067837791],[-80.234723783690313,43.54075924737834],[-80.234680443672005,43.540754605370417],[-80.234613377665255,43.540753861369652],[-80.234517590630517,43.540747134377803],[-80.234465880598492,43.540750919388415],[-80.234427604597258,43.540758813386688],[-80.234384596589038,43.540764021389165],[-80.234339700575063,43.540770174397949],[-80.234305316556117,43.540774960394664],[-80.234258596544208,43.540780990403505],[-80.234213326524653,43.540788690398848],[-80.234164985514042,43.540786596400721],[-80.234126659513095,43.540786413403495],[-80.234091289498892,43.540784996406664],[-80.23406284047276,43.54078152340692],[-80.234036168465337,43.54076983740584],[-80.234007726472171,43.540765811405393],[-80.233980103454826,43.5407612004025],[-80.233953837450088,43.540749444401989],[-80.233928127446546,43.540737875403565],[-80.233900420430729,43.540727916404016],[-80.233878057417499,43.540720279406436],[-80.233858309413463,43.540710263410894],[-80.233786671389595,43.540678286399135],[-80.233761732367014,43.540665875399363],[-80.233734795365137,43.540651089397443],[-80.233714731357026,43.540642103404871],[-80.233696729352985,43.540634422405681],[-80.233675391342629,43.54062590739634],[-80.233660364336572,43.54061949939468],[-80.233633578329545,43.540608772398329],[-80.233613097322035,43.540600668403961],[-80.233598533321086,43.540593711391793],[-80.233581141304469,43.540585923401814],[-80.233562602312489,43.540576541395481],[-80.233545677303894,43.540567871394664],[-80.233532071289403,43.540561400387475],[-80.233513520290444,43.540552977397709],[-80.233498465285734,43.540544799394219],[-80.233480243284987,43.5405344614001],[-80.233465171273721,43.540527574392428],[-80.233444456273119,43.540517919396905],[-80.233428633246987,43.540510327397946],[-80.233417850259059,43.540505054383523],[-80.233402724248734,43.540498461396076],[-80.233387664236574,43.540490615384499],[-80.233366192242983,43.540480698387682],[-80.233353142222072,43.540474341390997],[-80.233335104226569,43.540465442391159],[-80.233319725214272,43.540458811392305],[-80.233302173222114,43.540451612382903],[-80.233288856199806,43.540446286383826],[-80.233270715207965,43.540437571388701],[-80.233258523190543,43.540431477386704],[-80.233248543194691,43.54042687437861],[-80.233231552178296,43.540419421389593],[-80.233214495170458,43.54041314738938],[-80.233195968182372,43.540406900388149],[-80.233173030174825,43.540400624386209],[-80.233153472153376,43.540395699381264],[-80.233126434140658,43.540388952381235],[-80.233106781147129,43.540383510387635],[-80.233078879136983,43.540376868379461],[-80.233050496117343,43.540372215378603],[-80.233013476106365,43.540369016382584],[-80.232978989099891,43.540369928380215],[-80.232949110090431,43.540371314385027],[-80.232930118090636,43.54036971139076],[-80.232902908078259,43.54036857038686],[-80.232865946073375,43.540376767394513],[-80.232829264052853,43.540378882398251],[-80.232809400058173,43.540386088404894],[-80.232784920052836,43.540389464398437],[-80.232750407037003,43.540392404403356],[-80.232733778036092,43.5403964604008],[-80.232702504025426,43.540403885412296],[-80.232677329015075,43.540410059414953],[-80.232640514002924,43.540418701412392],[-80.232618793989928,43.540424345418174],[-80.232589714986048,43.540434587410665],[-80.232570441969912,43.540443125425746],[-80.232551369973933,43.540451849415227],[-80.232526476957517,43.540463852422597],[-80.232507370970836,43.540475231430307],[-80.232487688959154,43.540488081428663],[-80.232469680958275,43.540500868429994],[-80.232440928941955,43.540513326433171],[-80.232418713947311,43.540526011445408],[-80.232389219936408,43.540536951448509],[-80.232358699929009,43.540548880443495],[-80.232332395918576,43.540560211447435],[-80.232306049904508,43.540570766449058],[-80.23228344389355,43.54058234345252],[-80.232252596890959,43.540600060461109],[-80.232213499876067,43.540624655472108],[-80.232181741876218,43.540650259481431],[-80.232159354877922,43.540668475485184],[-80.232142062865734,43.540680751487237],[-80.232110679862174,43.540688728483744],[-80.232086207840069,43.540707483487559],[-80.232063416849385,43.540721603489587],[-80.232030290831048,43.540739121491349],[-80.23199898182834,43.540757277501172],[-80.231964896818269,43.54078245951505],[-80.231935085806725,43.540802359507779],[-80.23190966779444,43.540815798523589],[-80.231891114791509,43.540827549517388],[-80.231862003795058,43.540844245519494],[-80.23183255378548,43.540859758534047],[-80.231807673776373,43.540874676528496],[-80.231775133768622,43.540889947539952],[-80.231731724749153,43.5409066945356],[-80.231691379753286,43.54092176654467],[-80.231664151733611,43.540929955550837],[-80.231633847738223,43.540944836545236],[-80.231598369716096,43.540967869558116],[-80.231564756716239,43.540987780559966],[-80.231530646699554,43.541010860566054],[-80.231500630703025,43.541038946579114],[-80.231475499685871,43.541061680574266],[-80.231440031675263,43.541083903582205],[-80.231396473664532,43.541120417589717],[-80.231359083669204,43.54115424459966],[-80.231318157638668,43.54118306861367],[-80.231278598633025,43.541220052610555],[-80.231244676627526,43.541256263624],[-80.23120659561846,43.541300559631161],[-80.23118727661182,43.541332700641462],[-80.231153966608247,43.541376586648056],[-80.231122776602419,43.541437193656229],[-80.231104491612399,43.541479742676593],[-80.23109234259914,43.541518164671558],[-80.231076042606759,43.541544019679428],[-80.231054488610852,43.541572457694038],[-80.231031566593188,43.541596866693077],[-80.231002327598645,43.541619646703921],[-80.23097018858887,43.541639235711884],[-80.230930541573883,43.541667072717118],[-80.230897769572067,43.541692631723585],[-80.230868008556314,43.541712531724265],[-80.2308383215437,43.541730698726397],[-80.230802447537286,43.541752917734797],[-80.23076727353795,43.541771933742311],[-80.230737961520518,43.541792426748209],[-80.23071035052169,43.541818684753686],[-80.2306771115001,43.541841032761518],[-80.230642952496154,43.541864000767241],[-80.230626547487674,43.541882219767523],[-80.230606020483577,43.541901628774056],[-80.230579857485765,43.54192568376822],[-80.230553788479028,43.541954312774095],[-80.230530136465575,43.541984211783785],[-80.230506911464531,43.542008470791529],[-80.230474375448367,43.542031339799152],[-80.230446340449305,43.542051103801533],[-80.23041093045039,43.542068715810558],[-80.230369087431313,43.542089824814767],[-80.230325485407505,43.54210575882118],[-80.230272900397139,43.542122406824504],[-80.230229499382261,43.542134469826969],[-80.230193239385315,43.542143151831269],[-80.230142681371419,43.54215184682878],[-80.230103061347549,43.54215766583372],[-80.230071634351248,43.542169034840079],[-80.230035218331352,43.54218601284623],[-80.230010222319677,43.542198014855003],[-80.229975530312075,43.542207038848993],[-80.229935456297525,43.542216652857654],[-80.229902175295166,43.542226275856606],[-80.229881049285169,43.542240959869076],[-80.229846821269348,43.542257325859879],[-80.229810752263433,43.542270876866468],[-80.229770134265422,43.542287383873905],[-80.229738301249185,43.542302732878078],[-80.229713858242079,43.542319127891965],[-80.22967690623031,43.542346281891668],[-80.22965381122097,43.542368254892175],[-80.229620487209601,43.542393219899175],[-80.229599704206308,43.542412811904583],[-80.229574704217754,43.542437095914615],[-80.229541028199677,43.542461799913468],[-80.229508619199095,43.542482566925351],[-80.229482239188329,43.54249979692456],[-80.229450098173189,43.542519385936565],[-80.229418396168143,43.542536469933651],[-80.229387802150228,43.542554076944647],[-80.229352236151684,43.542575891947955],[-80.229308366149127,43.542600859945573],[-80.229274520132392,43.542634967961689],[-80.229250441119234,43.542662503967072],[-80.229246377117462,43.542667122963785],[-80.22921476311285,43.542693132978492],[-80.229182299105318,43.542722233983532],[-80.229156123104133,43.542755213979433],[-80.22913583411102,43.542779713989248],[-80.229102142103002,43.542805672002252],[-80.229067824089398,43.542833065005446],[-80.229051430071877,43.542850325008573],[-80.229010759076644,43.542886858010384],[-80.228978571071266,43.542918101026174],[-80.228959816065441,43.542937669033094],[-80.228935880048525,43.542961923030077],[-80.22889917104574,43.54298992603912],[-80.228859354036544,43.543019015053261],[-80.228816081021961,43.543056785058177],[-80.228783857012047,43.543086884057956],[-80.22875159701394,43.543119785067695],[-80.228733570008799,43.543145886076879],[-80.228702151994625,43.543176359081656],[-80.228670953994197,43.543201560087986],[-80.22864228498004,43.543227220089811],[-80.228616553982107,43.543253085092431],[-80.228583768980059,43.543291367108843],[-80.228556528970529,43.543320283115037],[-80.228522723951841,43.543359038115575],[-80.228499031944011,43.54338395712675],[-80.228469594946063,43.543414186136594],[-80.228435164931085,43.543446261135749],[-80.228398730933208,43.54348846615224],[-80.228375900932605,43.543513428155919],[-80.228334121922671,43.543561165172697],[-80.228305054903686,43.54359017916682],[-80.22826618289136,43.543624695188328],[-80.228231902894194,43.543656919183512],[-80.228201739883275,43.543696289200405],[-80.228180461892535,43.543726794206719],[-80.228160567872692,43.543756090216569],[-80.228146311886391,43.543780631208236],[-80.228130141876974,43.543816112215922],[-80.228116132869204,43.543857029222053],[-80.228105455883707,43.543883217231091],[-80.228090879864013,43.54391693824379],[-80.228082071862048,43.54395556724117],[-80.228077664880118,43.543995000258626],[-80.228069706880135,43.544054399259451],[-80.228035663876099,43.54410775727893],[-80.228010279871143,43.544165969294419],[-80.227979043866682,43.544209941303912],[-80.22795270384907,43.544259627302523],[-80.227926457858331,43.544301974310251],[-80.227907962848661,43.544332903322463],[-80.227892667854206,43.544379233332585],[-80.227890328859829,43.544415471339654],[-80.227888352862124,43.544435226340703],[-80.227877428857411,43.54447679135108],[-80.227851311853414,43.544504976362582],[-80.22784413384305,43.544539043365297],[-80.227826707856096,43.544573520372431],[-80.227802582842116,43.544608578374763],[-80.227780492841902,43.544635131374662],[-80.227747221821645,43.544675623385267],[-80.22772481283711,43.544711246397675],[-80.227698090816418,43.544755065411174],[-80.227678067825209,43.544778571417915],[-80.227668906819389,43.544809083418563],[-80.227650655810081,43.544836731424645],[-80.227597150796356,43.544865580430738],[-80.227552075797959,43.544893379435024],[-80.227519973774562,43.544921745450871],[-80.2274915887823,43.544952865453453],[-80.227451601766717,43.544991246452881],[-80.227416818752303,43.545023061468015],[-80.227376226753947,43.545061106482613],[-80.227343826740437,43.54509290048663],[-80.227307797725132,43.545134959492891],[-80.227272011719705,43.545165956502252],[-80.227225434712878,43.545204182514404],[-80.227181585702311,43.545231251516142],[-80.227145001701899,43.545253169521516],[-80.227104134681426,43.545280996529797],[-80.227061393660733,43.545312647533343],[-80.227024207666886,43.545338064538207],[-80.226977524649257,43.545364709544323],[-80.226930448627655,43.545386409560052],[-80.226884145616438,43.545407118555801],[-80.226838552600981,43.545427795566326],[-80.226794917597729,43.545446014574274],[-80.226753268597747,43.545467566576136],[-80.226709546575364,43.545484678586149],[-80.226669496561243,43.545496136586699],[-80.226610572548793,43.545512555587479],[-80.226578018528215,43.545524653600943],[-80.226533801524852,43.54553685660283],[-80.226488446501634,43.545550823597232],[-80.226438761495032,43.54556634560398],[-80.226394048486185,43.545577660617184],[-80.226336731469502,43.545595307618221],[-80.226296008459116,43.545623725621937],[-80.226247462451184,43.545645304624003],[-80.226218472435207,43.545656246634678],[-80.226171448414604,43.545669869641223],[-80.226112312396467,43.545690896650818],[-80.226070217383494,43.545715580658502],[-80.226031550377613,43.545741762654792],[-80.225989180377496,43.545768103670454],[-80.225940301351585,43.545799933674765],[-80.22588798533809,43.54583081767872],[-80.225841479333013,43.545867346681881],[-80.225806130319739,43.54589572770336],[-80.22576548432049,43.545933918705565],[-80.225727486302901,43.545979136719239],[-80.225690308302873,43.546019711716596],[-80.225649275289527,43.546060445729829],[-80.225608420287443,43.54609911574719],[-80.225576476280239,43.546130838750109],[-80.225534359269616,43.546165110757833],[-80.225502734254363,43.546203621772165],[-80.225445960247015,43.546269770784761],[-80.225423953232223,43.546309489787127],[-80.225392476232344,43.546352279789446],[-80.22535107021946,43.546394338798969],[-80.225319336224757,43.546441368813866],[-80.225290107215613,43.546478826827119],[-80.225245643204474,43.546506296827353],[-80.225204241201979,43.546528181834262],[-80.225154105180337,43.54655911683821],[-80.225108959176467,43.546588315850698],[-80.225079678158124,43.546606078855604],[-80.225026435152117,43.546634078865118],[-80.224968108120763,43.546659131867671],[-80.224924017124621,43.546681219877577],[-80.224867260098819,43.546706467883631],[-80.22480534307654,43.546718881891358],[-80.224796593080811,43.546721146886597],[-80.224737937063722,43.546736275900223],[-80.224635061033993,43.54672816489304],[-80.224566498003071,43.546732936908455],[-80.224521834984984,43.546752180911511],[-80.224476307987487,43.546771566912064],[-80.224420201975533,43.546789478923465],[-80.224372169962678,43.546814379925088],[-80.224347620956394,43.546842722930073],[-80.224309332946319,43.546882699937917],[-80.224281357927765,43.546909285949056],[-80.224242993921095,43.546947381953125],[-80.224217866914799,43.546985161958453],[-80.224193686906361,43.547012326964513],[-80.224162755897083,43.547036200977018],[-80.224140655906254,43.547083073989825],[-80.224115919900072,43.547114107986729],[-80.224083197889939,43.547151062003628],[-80.224050984876129,43.547175996011262],[-80.224015385872832,43.54720795200533],[-80.223989307880728,43.547236874014331],[-80.223964437875395,43.547270415030503],[-80.223935143849658,43.547308867038574],[-80.223905078842932,43.547340233034397],[-80.223866167841493,43.547393226053515],[-80.223839747836521,43.547444827067551],[-80.223790062837452,43.547499664071069],[-80.223764707815576,43.547527559085182],[-80.223752547833385,43.547558456077518],[-80.223719766814924,43.547603892097811],[-80.223684148809411,43.547649162097876],[-80.223648225806087,43.547694466118038],[-80.223623251804028,43.547720335114228],[-80.223607796804075,43.547755082123466],[-80.223603485800837,43.547790754135868],[-80.22362155780182,43.547864123149971],[-80.223590908801896,43.54790145914766],[-80.223518781778637,43.547974474171326],[-80.223474923778809,43.548009914175537],[-80.223410126759589,43.548064832188047],[-80.223355316745696,43.548108090197907],[-80.223304443732019,43.5481448102069],[-80.22326199772381,43.54818081321811],[-80.223206793704222,43.548223146220415],[-80.223168062696956,43.548250138228838],[-80.223120732685643,43.548279469234181],[-80.223069339683661,43.548317255242956],[-80.223021748672238,43.548343191259043],[-80.222968864651875,43.548374623269446],[-80.222914991632507,43.54840413027933],[-80.222837167618749,43.548442843290182],[-80.222782238594078,43.548467659282679],[-80.222722152587494,43.548503210300233],[-80.222667527578338,43.548535958306545],[-80.222604784544615,43.548561200318787],[-80.22253470353742,43.54858919632558],[-80.222476159516887,43.548619114324559],[-80.222421779499797,43.548648581333119],[-80.222363241476202,43.548681929349229],[-80.222314143477846,43.548710731355584],[-80.222258348448207,43.548739783363658],[-80.222196784448684,43.548771856364418],[-80.222129249430836,43.548799021384845],[-80.222045675388429,43.548819622392671],[-80.221957768371794,43.548786753385798],[-80.221901360351112,43.548800347392223],[-80.221858749329641,43.548809646387106],[-80.221821004323871,43.548830890396765]]]},"properties":{"OBJECTID":5,"WARD":"2","COUNC1":"Carly Klassen","COUNC2":"Rodrigo Goller","NAME":"St. George's","COUNC1WEB":"https://guelph.ca/city-hall/mayor-and-council/city-council/#ward-2","COUNC2WEB":null,"Shape__Area":10480067.895180967,"Shape__Length":15572.355740491048,"GlobalID":"{96772941-0A53-45F2-94A2-0C7EB9735B71}","POPULATION_2016":19858,"POPULATION_2022":25984,"POP_CHANGE_2016_2022":30.850000000000001,"COUNC1PIC":"https://guelph.ca/wp-content/uploads/Carly-Klassen.jpg","COUNC2PIC":"https://guelph.ca/wp-content/uploads/rodrigo-goller-2023.jpg","COUNC1PHONE":"226-332-1673","COUNC2PHONE":"226-821-1146","COUNC1EMAIL":"carly.klassen@guelph.ca","COUNC2EMAIL":"rodrigo.goller@guelph.ca","COUNC1MAILTO":"\u003ca href = \"mailto:carly.klassen@guelph.ca\"\u003eEmail\u003c/a\u003e","COUNC2MAILTO":"\u003ca href = \"mailto:rodrigo.goller@guelph.ca\"\u003eEmail\u003c/a\u003e","COUNC1PHONELINK":"\u003ca href=\"tel:226-332-1673\"\u003e226-332-1673\u003c/a\u003e","COUNC2PHONELINK":null}},{"type":"Feature","id":6,"geometry":{"type":"Polygon","coordinates":[[[-80.185436174128128,43.524400833923778],[-80.185642133713955,43.524152306599206],[-80.18940643309061,43.521291881702695],[-80.192846770295731,43.518677281317942],[-80.199367681981272,43.513720580575352],[-80.19944299611403,43.513663325511601],[-80.202908051842485,43.51638528548078],[-80.205018820140992,43.517915447025224],[-80.206067355065528,43.518585307291758],[-80.207356341898986,43.519408747725443],[-80.209762559930937,43.520664237934255],[-80.211250528930094,43.52147240313441],[-80.212428289594342,43.522112054985698],[-80.212494183800231,43.522068252001134],[-80.213444975439018,43.521436204742088],[-80.214343696598434,43.520838752212128],[-80.215008913164866,43.520033314763552],[-80.215016943314424,43.519413952961017],[-80.214898039155713,43.519099917550129],[-80.214890327895787,43.51907955134665],[-80.2148912539039,43.5190081381702],[-80.214896505684138,43.5186031191271],[-80.214897169655288,43.518551912848842],[-80.214902683320986,43.518126686882489],[-80.215431370800886,43.517749136255233],[-80.216620893502039,43.516899638134319],[-80.217538655466981,43.516228380505687],[-80.220586361735471,43.51399910515471],[-80.22061587500076,43.513976143757318],[-80.222184114957358,43.512756013560256],[-80.223947233607788,43.511384177482746],[-80.225292801157153,43.511027305338814],[-80.225378038079484,43.511004698074892],[-80.227939244842048,43.510503112119167],[-80.229251187546055,43.510122781450434],[-80.229849119214265,43.509824113345076],[-80.232066952152636,43.508282301721259],[-80.233580564377405,43.507088035584012],[-80.234461648678874,43.506392813630058],[-80.234599634827816,43.506283933192393],[-80.234635060566063,43.506257752325773],[-80.234670462008637,43.50628380601276],[-80.234686320151155,43.506295476789163],[-80.234870988874121,43.506431382982903],[-80.239047627253896,43.50950492169023],[-80.24256780172017,43.51340102520173],[-80.246270006631121,43.510571094528224],[-80.246293801634295,43.510552478538941],[-80.246317747648135,43.510533937524798],[-80.246341794662371,43.510515507521994],[-80.246365940652638,43.510497115522348],[-80.246390188677807,43.510478797509641],[-80.246414536663679,43.510460554506558],[-80.246439034680435,43.510442422512881],[-80.246463633678331,43.510424365504434],[-80.246488332684706,43.510406345500165],[-80.246513182708611,43.510388437486029],[-80.246538082704859,43.510370640486727],[-80.246563133704143,43.510352881477097],[-80.246588234711041,43.510335196482259],[-80.246613485727806,43.510317622480677],[-80.246638837725726,43.510300123463864],[-80.24666434073356,43.510282699467517],[-80.246689892741742,43.510265348458148],[-80.246715545759344,43.510248109464634],[-80.246741349758608,43.51023090846008],[-80.246767202753205,43.510213818447902],[-80.246793206777625,43.510196839450607],[-80.246819311775909,43.510179898437414],[-80.246845465790713,43.51016306843205],[-80.246871771793195,43.510146313437467],[-80.246898176791717,43.510129632423912],[-80.248384588187221,43.509169654185918],[-80.250026492656303,43.50869847002577],[-80.255098718138314,43.507249991538828],[-80.255097119134689,43.507248211534396],[-80.255381326625965,43.507166110038007],[-80.255364077185277,43.507146136254626],[-80.25532242074047,43.507049539287273],[-80.255281470859373,43.507003449934452],[-80.25523374909956,43.506885837120528],[-80.255186430209648,43.506793524357256],[-80.255182060816125,43.506789257073869],[-80.255122122305252,43.506730719469282],[-80.255079055745,43.506646840724649],[-80.255030202192884,43.506551688668203],[-80.255027282280665,43.506546001553623],[-80.255012339956878,43.506532255599133],[-80.254945479837787,43.506470748551671],[-80.254919799395992,43.506431576582699],[-80.254904226819264,43.506407822749992],[-80.254870683485848,43.506211094855821],[-80.254866931631184,43.506189090653486],[-80.254879935937609,43.506135466069615],[-80.254894548337774,43.506075210175851],[-80.254888382025214,43.506066428306518],[-80.254870989233325,43.506041658064412],[-80.2548589114203,43.505987483620558],[-80.254824439754302,43.50586236097265],[-80.254821641325734,43.505839236132282],[-80.254815987605511,43.505792516633484],[-80.254831785493366,43.505662940356849],[-80.254815081485376,43.505518640103844],[-80.254822509882132,43.505355537758128],[-80.254807969808326,43.505103015076195],[-80.254801335879719,43.505095113485062],[-80.254761085061176,43.505047171256955],[-80.254771477678929,43.504951626432053],[-80.254728928333421,43.504888186057215],[-80.254681299356747,43.504779202762101],[-80.254664916258449,43.504741715300099],[-80.254577049973605,43.504653819232082],[-80.254560037833002,43.504638777615526],[-80.254477758624731,43.50456602868141],[-80.254372701733033,43.504490803712159],[-80.254307192455229,43.504326982581148],[-80.254195971847608,43.504213996617118],[-80.254147015853007,43.504157587969992],[-80.25408434939618,43.504075711374206],[-80.254103890459135,43.503985608144241],[-80.254106302264063,43.503974487389861],[-80.254094876978911,43.503963362014055],[-80.25404189468955,43.503911770360276],[-80.254041008124091,43.503830408097535],[-80.254040793015562,43.503810666092747],[-80.254016934597871,43.503751904435532],[-80.25400392028962,43.503738871125641],[-80.253958392391013,43.503693276646544],[-80.254005549981059,43.503627613067863],[-80.254049513371129,43.503566397032088],[-80.254047263790042,43.503532397591513],[-80.254042547766005,43.503461113453859],[-80.254018068966445,43.503440426719848],[-80.25397824177854,43.503406769197042],[-80.253977939898988,43.503381560718047],[-80.253994529207333,43.503318291608593],[-80.25404024038896,43.503267456471065],[-80.254069345257108,43.503205660391728],[-80.254113103531779,43.503112751582158],[-80.254152307894543,43.50296354478197],[-80.254209344644238,43.502887486915512],[-80.254194874728171,43.502865381103348],[-80.254168095870526,43.502824470782961],[-80.254202278897267,43.50277374047306],[-80.254187383075248,43.502707717736655],[-80.254171451003558,43.502618157421061],[-80.254172953790857,43.50260623697752],[-80.254182076514923,43.502533873964516],[-80.25415832222626,43.502475022962429],[-80.254145789589046,43.5023993207556],[-80.25412207985849,43.502333037922043],[-80.254113191325729,43.502308190711346],[-80.254102285272452,43.502277703684129],[-80.254089813053994,43.502215613637418],[-80.254079430109499,43.50216392445742],[-80.254050045624567,43.502117784630734],[-80.254050010685134,43.502117729768763],[-80.254050136237666,43.502116024001829],[-80.254059932129437,43.501982938635791],[-80.254020826335605,43.50195493197085],[-80.254019084814288,43.501953684738048],[-80.254007080919536,43.501941660687471],[-80.253969981469197,43.50190449892834],[-80.25396064586063,43.501895147632439],[-80.253988862107633,43.501840236483957],[-80.25395699738047,43.501777583216644],[-80.253940647197822,43.501745434976975],[-80.253935482674294,43.501735280325327],[-80.253934782940334,43.501667847368424],[-80.253905362742486,43.501621743587393],[-80.253905496140547,43.501620912541952],[-80.253911200493064,43.501585375405746],[-80.253916189332571,43.501554295801512],[-80.253881106367899,43.501520847448944],[-80.25385475794927,43.501441080987874],[-80.25384501749042,43.501411592885908],[-80.253867171810001,43.501327204579525],[-80.253785477522229,43.501260323561347],[-80.253770468174892,43.501126817105579],[-80.253766349029277,43.501090177859197],[-80.253766081772667,43.501087800524687],[-80.253722240162276,43.501033113983965],[-80.253719068518947,43.501029157791855],[-80.25371645702694,43.501021829763786],[-80.253695111617176,43.50096193318663],[-80.253711700533287,43.500898664986146],[-80.253711390928686,43.500898354372765],[-80.253698613706888,43.500885535475369],[-80.25365326399141,43.500840037703995],[-80.253634670664226,43.500734858232285],[-80.253639437167891,43.500675377789847],[-80.253639732357129,43.500671693976912],[-80.253614028563419,43.500612044049902],[-80.253561999251417,43.500457378580215],[-80.253538247942842,43.500440341881777],[-80.253515389791573,43.500423945813175],[-80.253520449973465,43.500369243746185],[-80.253515047860219,43.500362303397047],[-80.253489114036327,43.500328984892192],[-80.253461711951104,43.500293780025757],[-80.253484266653658,43.500243064023628],[-80.25348004501987,43.500239184698799],[-80.25344331862965,43.500205436186782],[-80.253436088186561,43.500196141917804],[-80.253384682418627,43.500130063130612],[-80.253395207002498,43.500045688995961],[-80.253394579826207,43.500045092758576],[-80.253360022510535,43.500012240725333],[-80.25334051849147,43.499978525166547],[-80.253319940344142,43.49994295281293],[-80.253318777207696,43.499940942164905],[-80.253306550570287,43.499881986159927],[-80.253262735025643,43.49983931698771],[-80.253242148101265,43.499819268672674],[-80.253173142469947,43.499774575265207],[-80.253150272223024,43.499759762703086],[-80.253020729489663,43.49967747470658],[-80.252940856458238,43.499620287040578],[-80.252933173066637,43.499614785855364],[-80.252811337968708,43.499586081931774],[-80.25275896461028,43.49955693233256],[-80.252678174041122,43.499574318283422],[-80.252591221467128,43.499553764949461],[-80.25248337374012,43.499571992276586],[-80.252342685779524,43.499576357002681],[-80.252287454080687,43.49960097093021],[-80.252285150163729,43.49960199766921],[-80.252161870137201,43.499599195314168],[-80.252140561267723,43.499598710918114],[-80.252128034364318,43.499605663670728],[-80.252048542587971,43.4996497835551],[-80.251974216101033,43.499721856361859],[-80.251882496992863,43.499798227389057],[-80.251778652819539,43.499815732879199],[-80.251622435343137,43.499820831586973],[-80.251618216337988,43.499818485536665],[-80.25151758928385,43.499762529730504],[-80.251398477917249,43.499734467098286],[-80.251395753337945,43.49973382517549],[-80.251394131924968,43.499728158281428],[-80.251383727658393,43.49969179468949],[-80.251296873657438,43.499679703229582],[-80.251268228845461,43.499611105901167],[-80.251267056609151,43.499608298678851],[-80.25127262233508,43.49957880745341],[-80.250851520608464,43.49965039289286],[-80.250848572116112,43.499641761396298],[-80.250680163065297,43.499670347413392],[-80.250513021999708,43.499698868421625],[-80.249251540635555,43.499913872524417],[-80.24917627761775,43.499928373378069],[-80.249001265549055,43.499962092546639],[-80.24578952580066,43.500509765654613],[-80.245784301572144,43.500510661797186],[-80.24574514756037,43.500404000773962],[-80.245692271533088,43.500260071757076],[-80.245630040503627,43.500090338724981],[-80.245618700900437,43.500059520787929],[-80.245566674464825,43.499918126702134],[-80.245500174429708,43.499737300668251],[-80.245429953378618,43.49954608664352],[-80.244972216135025,43.498300455450241],[-80.244456888842748,43.49699439723608],[-80.244407823828283,43.496866242218204],[-80.244323293778137,43.496644837182288],[-80.244313456861946,43.496619050955339],[-80.244255053742719,43.496465954160918],[-80.244216685723941,43.496365788148431],[-80.244183911704923,43.496280117127199],[-80.244151341677082,43.496194374124059],[-80.244118517649511,43.496108739101587],[-80.244085641646208,43.496023178096522],[-80.244053173622191,43.49593736207612],[-80.244020349606572,43.495851690068157],[-80.243987677584443,43.495766057044747],[-80.243954904562941,43.495680386033399],[-80.24392228355903,43.495594752026946],[-80.243889410525099,43.495509007013254],[-80.243856738517366,43.495423372988711],[-80.24382411749103,43.495337702986681],[-80.243791447483332,43.49525195897462],[-80.243758623466604,43.495166324949444],[-80.243725852451263,43.495080579938815],[-80.24367865740787,43.49495711992185],[-80.243607621382424,43.494771209896172],[-80.243514708328675,43.494527804854386],[-80.243506199644898,43.494505633341085],[-80.243503490315106,43.494498573527558],[-80.243503129316892,43.494497632846652],[-80.243152908222299,43.494554841876472],[-80.242886305132529,43.494597555889904],[-80.242666024076655,43.49463072890574],[-80.242549302027854,43.494651051916456],[-80.242405094997267,43.494673404929394],[-80.24224976994752,43.494697750939011],[-80.242087169900884,43.494724480952357],[-80.241913634838568,43.494754569970993],[-80.241717849785999,43.49478550598112],[-80.241448692695542,43.49482569200898],[-80.241176357607443,43.494868880025976],[-80.240940593540643,43.49490847504903],[-80.240747557496604,43.49493824705786],[-80.240552164435641,43.494970143079335],[-80.240356475373261,43.495001372080225],[-80.240160515305973,43.495034001100819],[-80.239967712242375,43.495065286109792],[-80.239679393160301,43.49511441314327],[-80.2394239060838,43.49516313115371],[-80.239193085012005,43.495204193182971],[-80.239006944967855,43.495237439192721],[-80.23882080590856,43.495270499208559],[-80.238634665852672,43.495303634229501],[-80.238535198822348,43.495321338234916],[-80.238448327802786,43.495336434239846],[-80.238261993731115,43.495368866244462],[-80.238074491683562,43.495397417268357],[-80.237886889629678,43.49542596728687],[-80.237699590569193,43.495454518290394],[-80.237512190510429,43.495483032302992],[-80.237324586452473,43.495511581322724],[-80.237137084398142,43.495540130328216],[-80.236839995297117,43.495585319358213],[-80.236531299211507,43.495642859378357],[-80.236251601126398,43.495694911407227],[-80.236243830138051,43.495696408402232],[-80.235937836034694,43.495752600422648],[-80.23565641695599,43.495804382456157],[-80.235344934855405,43.495861789473771],[-80.235342194852436,43.495862139480792],[-80.235120942792861,43.495903257490227],[-80.234860082719251,43.495951745520486],[-80.234373961574377,43.496041727547045],[-80.234121681499971,43.496088573572898],[-80.233594271341957,43.496186426618607],[-80.233554854445273,43.496187766819077],[-80.233401043986945,43.495760375843027],[-80.233364855267993,43.495659817852484],[-80.230347219533343,43.487273484788894],[-80.229606732017629,43.485215229590189],[-80.229120928438647,43.483864815142582],[-80.227055756658615,43.47812346170609],[-80.211848506705991,43.480815376967364],[-80.211102866268362,43.480947308363689],[-80.202923463574663,43.482394189490179],[-80.202522977979527,43.482220710883908],[-80.202341357228804,43.482090438743519],[-80.202131368013113,43.48189983234667],[-80.201972161500706,43.481925998864526],[-80.20253971532351,43.482483159270792],[-80.201732528044857,43.482631738536476],[-80.199899874247677,43.481393833209971],[-80.195233633867133,43.478241561377153],[-80.189049199941678,43.474062880271852],[-80.188834477823619,43.473917781126346],[-80.156836298393102,43.497700707833971],[-80.156148522967257,43.498211596429734],[-80.15291970119425,43.500609835147991],[-80.185436174128128,43.524400833923778]]]},"properties":{"OBJECTID":6,"WARD":"6","COUNC1":"Ken Yee Chew","COUNC2":"Dominique O’Rourke","NAME":"St. James'","COUNC1WEB":"https://guelph.ca/city-hall/mayor-and-council/city-council/#ward-6","COUNC2WEB":null,"Shape__Area":24774132.74492779,"Shape__Length":24672.793016536267,"GlobalID":"{1858AE1D-2195-4BB4-9F0B-221C07F52F83}","POPULATION_2016":27269,"POPULATION_2022":28749,"POP_CHANGE_2016_2022":5.4299999999999997,"COUNC1PIC":"https://guelph.ca/wp-content/uploads/Councillor-Ken-Yee-Chew.jpg","COUNC2PIC":"https://guelph.ca/wp-content/uploads/Councillor-Dominique-ORourke-2023.jpg","COUNC1PHONE":"226-332-5406","COUNC2PHONE":"226-821-1126","COUNC1EMAIL":"ken.chew@guelph.ca","COUNC2EMAIL":"dominique.orourke@guelph.ca","COUNC1MAILTO":"\u003ca href = \"mailto:ken.chew@guelph.ca\"\u003eEmail\u003c/a\u003e","COUNC2MAILTO":"\u003ca href = \"mailto:dominique.orourke@guelph.ca\"\u003eEmail\u003c/a\u003e","COUNC1PHONELINK":"\u003ca href=\"tel:226-332-5406\"\u003e226-332-5406\u003c/a\u003e","COUNC2PHONELINK":null}}]}