{"type": "FeatureCollection", "features": [{"type": "Feature", "geometry": {"type": "MultiPolygon", "coordinates": [[[[-98.08046263527, 49.2069532392211], [-98.0694173675064, 49.2069540436482], [-98.0693910545215, 49.2023793378157], [-98.0693756566942, 49.1997025427823], [-98.0693558896328, 49.1962659277742], [-98.0693466344179, 49.1946571792361], [-98.0693461143739, 49.1945667470378], [-98.0693377114353, 49.1931059221915], [-98.0693340706414, 49.1924730657184], [-98.0693207736665, 49.1888934666835], [-98.0859255888685, 49.1887424288226], [-98.0858835718581, 49.1775379046781], [-98.0881959892714, 49.1775367282324], [-98.0886098508057, 49.1775365131327], [-98.0885729055398, 49.1703080421576], [-98.0893103722931, 49.1703068854431], [-98.0899641862995, 49.1703058554982], [-98.0996170706474, 49.1702902215017], [-98.1106691319788, 49.170271330592], [-98.111082930676, 49.1702706027899], [-98.111099212211, 49.1775189430862], [-98.1110998238686, 49.1777923982593], [-98.1114107009577, 49.1777924780753], [-98.1139187695174, 49.1777924420091], [-98.1143325988187, 49.1777924313104], [-98.125428756697, 49.1777913000605], [-98.1285409717102, 49.1777899628261], [-98.1328323133101, 49.1777879820398], [-98.1368455021074, 49.1777859840264], [-98.1372593523436, 49.1777857707749], [-98.1376772674377, 49.1777862286715], [-98.1393489267, 49.177788046023], [-98.1401847571883, 49.1777889451798], [-98.1406026711013, 49.1777893924793], [-98.1443639084786, 49.1777933519976], [-98.1449412558427, 49.177793948301], [-98.1456283053164, 49.1777946553461], [-98.1459042118229, 49.1777949376806], [-98.1462252666924, 49.1777952662032], [-98.1465429778238, 49.1777955898109], [-98.1468606875986, 49.1777959125343], [-98.1471783987607, 49.1777962343937], [-98.1474961099382, 49.1777965553791], [-98.147813821131, 49.1777968754904], [-98.1481315309672, 49.1777971947174], [-98.1484442258492, 49.1777975084735], [-98.1484481103123, 49.1782360101913], [-98.1484683087182, 49.1805162191259], [-98.1485079314912, 49.1849883578518], [-98.1596269026038, 49.1850174156541], [-98.1600409542112, 49.1850199493806], [-98.1600363963822, 49.1920900245709], [-98.1600363908937, 49.1926383200685], [-98.1600380189995, 49.1938926230327], [-98.1600403642929, 49.1947700268984], [-98.160041185382, 49.1952086960903], [-98.1600470122652, 49.1960394431902], [-98.1600481507265, 49.1969167695919], [-98.1600492890471, 49.1977940949617], [-98.1600479808476, 49.1984581806384], [-98.160049688411, 49.1997741727967], [-98.1596354987243, 49.199777703958], [-98.1540683696304, 49.1997528441791], [-98.1512625400148, 49.1997402107418], [-98.1485195270139, 49.1997186142993], [-98.1484692342652, 49.2069928790606], [-98.1484652168713, 49.2072642939603], [-98.148472788823, 49.2097160457763], [-98.1484736778558, 49.2100037838547], [-98.1484876123492, 49.2145162360017], [-98.137305514762, 49.2144714878356], [-98.1368771974293, 49.2144502430671], [-98.1308317875885, 49.2144494540612], [-98.125626197013, 49.2144485114188], [-98.1146963779885, 49.2144457891322], [-98.1139433303943, 49.2144466263116], [-98.1030312501315, 49.2144626900918], [-98.0942087018049, 49.2144749231445], [-98.0928700953319, 49.2144767144349], [-98.0928693352714, 49.2143397438091], [-98.0919492969326, 49.2143409160177], [-98.0919449965967, 49.213176214695], [-98.0919431864195, 49.2126860132985], [-98.0919365042138, 49.2108765520709], [-98.0919230086081, 49.2072225941063], [-98.0919220066376, 49.2069512886357], [-98.0915079184231, 49.2069513793788], [-98.0824816292392, 49.2069529782836], [-98.08046263527, 49.2069532392211]]], [[[-98.0694173675064, 49.2069540436482], [-98.0694176928369, 49.2072253594027], [-98.0690035869041, 49.2072263956947], [-98.0638982199523, 49.2072390426694], [-98.0639021185625, 49.2084746933229], [-98.0690062425543, 49.2094541508839], [-98.0690050563008, 49.2084595615795], [-98.0694191727197, 49.2084585154509], [-98.0694224617603, 49.2111988608051], [-98.0690083219932, 49.2111999310913], [-98.0690069223996, 49.2100253843654], [-98.0639039216652, 49.2090462285064], [-98.0639211545691, 49.2145082623795], [-98.0630847019799, 49.2145100790342], [-98.0630669760537, 49.2088856115373], [-98.0579647610592, 49.2088978826848], [-98.0518233208681, 49.2089123552906], [-98.0518143951541, 49.2072680647261], [-98.0517510262329, 49.2072682137317], [-98.051749663608, 49.2069968955106], [-98.051278950746, 49.2069980007664], [-98.0516689820484, 49.2061262907755], [-98.0561476643467, 49.2069864814412], [-98.0579549348021, 49.2069821527675], [-98.0690032899382, 49.2069550792636], [-98.0694173675064, 49.2069540436482]]]]}, "properties": {"district_id": "Morden", "muni_name": "CITY OF MORDEN"}}]}