{"type": "FeatureCollection", "features": [{"type": "Feature", "properties": {"district_id": "Quispamsis"}, "geometry": {"type": "MultiPolygon", "coordinates": [[[[-65.90137693369434, 45.47865254519634], [-65.90149232598594, 45.47862616182154], [-65.90173580351207, 45.478582459566574], [-65.90185744610237, 45.47856960551844], [-65.90197904063164, 45.47856124997753], [-65.90210058712921, 45.47855739294411], [-65.90222852826791, 45.47855356953841], [-65.90234997878082, 45.478558709513756], [-65.90247777600942, 45.478568381741404], [-65.90259917862251, 45.478578020088], [-65.9027204853852, 45.478596655581676], [-65.9027654271015, 45.47860409085534], [-65.90311628367817, 45.47866172710561], [-65.90314897571112, 45.47859441605854], [-65.90318154537256, 45.47859863672964], [-65.90324539619658, 45.478607971031366], [-65.90330934284037, 45.47860830801933], [-65.90338607881417, 45.47860871235724], [-65.9034436307954, 45.478609015576545], [-65.90345646801201, 45.478604584315654], [-65.90350757744213, 45.47860935245257], [-65.9035652251822, 45.478600658332006], [-65.90362287290452, 45.478591964182044], [-65.90364309727315, 45.478590451096665], [-65.90368047273977, 45.47858776864181], [-65.90370605138949, 45.478587903343026], [-65.90373167790456, 45.47858353939929], [-65.90375420817463, 45.478581678525245], [-65.90378288306175, 45.478579310133625], [-65.9038277892652, 45.47856604989878], [-65.90386634864323, 45.47854825734146], [-65.9039177930094, 45.47852153481836], [-65.90393067801786, 45.47851260486424], [-65.9039694287106, 45.47847681771442], [-65.90400822719663, 45.47843653191184], [-65.90405351594598, 45.47838728247206], [-65.90409236214536, 45.47834249800085], [-65.90409885245103, 45.478333534374556], [-65.90413125611533, 45.47829321487671], [-65.90414389320166, 45.47827150674302], [-65.90414428453235, 45.47827078897969], [-65.90417019784633, 45.478239433099496], [-65.90419630244101, 45.4781900826553], [-65.90419973668796, 45.478179843253535], [-65.90421610802919, 45.47813170128041], [-65.90421625150643, 45.47811820536186], [-65.90421658628631, 45.478086714885244], [-65.90422350696812, 45.47803726349595], [-65.9042236026182, 45.47802826621686], [-65.90423687005585, 45.47798334711119], [-65.90425648423863, 45.47794296028691], [-65.90426970380825, 45.47790253981674], [-65.90427633749616, 45.47788008026126], [-65.90428316245884, 45.47783962614707], [-65.90427705480424, 45.47781260066762], [-65.90427094715548, 45.47778557518783], [-65.90426503079797, 45.477740555149424], [-65.9042656046534, 45.477686571474436], [-65.90427901543546, 45.47762815644444], [-65.90428465300296, 45.477591115240415], [-65.90428588818409, 45.47758320369018], [-65.90428157936961, 45.477567434902376], [-65.90427973273559, 45.47756067685042], [-65.9042609316699, 45.47752458680633], [-65.90424232191971, 45.477470502200795], [-65.90423645344046, 45.47742098352114], [-65.90423072844227, 45.4773579689224], [-65.90423144579545, 45.47729048932843], [-65.9042386532993, 45.47721404609949], [-65.90423893545366, 45.47718750412577], [-65.9042395619308, 45.47712857194674], [-65.90424018362407, 45.47707008963166], [-65.90424070967096, 45.47702060459573], [-65.90421575345167, 45.47696198770198], [-65.90421588247209, 45.476949851272046], [-65.90421647081546, 45.476894508107605], [-65.90421670993624, 45.47687201490947], [-65.90422358263909, 45.476827062158186], [-65.90422372610962, 45.47681356623925], [-65.90423050315364, 45.476777610766746], [-65.90423062844962, 45.4767658243309], [-65.90423102920506, 45.476728125730595], [-65.90421419460546, 45.47668754713258], [-65.90421232409592, 45.47668303839928], [-65.90418722457633, 45.47663791741826], [-65.90416222075332, 45.47658379915245], [-65.90414322876948, 45.4765657036476], [-65.90414258454328, 45.47656615014661], [-65.90421368661202, 45.47641050273389], [-65.90424773235323, 45.476335910292875], [-65.90441036056292, 45.47598000374517], [-65.90470150001669, 45.47538936099129], [-65.90495646528802, 45.47487209867144], [-65.90511566820385, 45.47454901503061], [-65.90531166724008, 45.47415143833758], [-65.90533352613551, 45.47410709149779], [-65.90536452895887, 45.474044197857374], [-65.90543511286914, 45.47390060309601], [-65.90546351127703, 45.47384304763405], [-65.90553685044871, 45.473694411423345], [-65.90593137004127, 45.4728947625052], [-65.90602142051186, 45.47271219394685], [-65.90610781194574, 45.47253683044529], [-65.90656039809025, 45.471619270152765], [-65.90658587713544, 45.47156811633068], [-65.90664338609281, 45.47145099665834], [-65.90669197278454, 45.47136730195503], [-65.90670682572886, 45.47134164072771], [-65.90724908943288, 45.47040682735372], [-65.90784396248554, 45.46907871908025], [-65.90789097557828, 45.468973779973616], [-65.90814229911396, 45.46841264264301], [-65.90809679032591, 45.46830218190989], [-65.90804806122317, 45.46819395376685], [-65.9079980441121, 45.468086618645785], [-65.90797115559887, 45.468029342133654], [-65.90794674850052, 45.46797927681644], [-65.90791794205583, 45.467921990262184], [-65.90789288620338, 45.467872821318686], [-65.90786407986799, 45.46781553475081], [-65.90783902410996, 45.46776636579553], [-65.90780893919886, 45.46770907252618], [-65.90778260485249, 45.46765989687057], [-65.9077198684514, 45.46754619664488], [-65.90771987320451, 45.46754574678064], [-65.90770582038542, 45.4675203894984], [-65.90766590241954, 45.46744963805414], [-65.90763326049849, 45.46739233135941], [-65.90760310944013, 45.46734133613559], [-65.90759933996742, 45.46733501796511], [-65.90754406714375, 45.467241151812125], [-65.90748123659162, 45.46713644874077], [-65.9074453983639, 45.46707912526332], [-65.90741332963971, 45.467028119951436], [-65.90740828154003, 45.46702179508223], [-65.90737244345979, 45.46696447158194], [-65.90735042347261, 45.46693061463623], [-65.90727490211248, 45.46681684723491], [-65.90727490686908, 45.46681639737064], [-65.90725980929324, 45.46679301407445], [-65.90725645559144, 45.466787774203766], [-65.90723779514931, 45.46675861726997], [-65.90721576580968, 45.466725660026825], [-65.90714523593847, 45.46662361578844], [-65.90707177076472, 45.46651826924318], [-65.90706965830726, 45.46651524662241], [-65.90706587943333, 45.466509828162835], [-65.90706461029231, 45.46650892173803], [-65.90705913596521, 45.466501072195946], [-65.90700288879125, 45.466420420212636], [-65.90696065823676, 45.46636306309818], [-65.90692850469274, 45.46632015520646], [-65.90685412085963, 45.4662198901518], [-65.90681125128293, 45.46616252963277], [-65.90679308560733, 45.466138861164765], [-65.90679043919037, 45.466135427241674], [-65.90677215109062, 45.46611148729557], [-65.9067671031455, 45.466105162398065], [-65.90669893695271, 45.46602157571654], [-65.90665984648345, 45.46596963361246], [-65.90664729810932, 45.46594707339268], [-65.90662215377385, 45.465906451591074], [-65.9065906638808, 45.46586129763388], [-65.90656566249, 45.4658071798936], [-65.90654051827602, 45.46576655807404], [-65.90652171967089, 45.465730468403194], [-65.90649652789577, 45.46569434521605], [-65.90648412253297, 45.46565828905222], [-65.90646532400017, 45.46562219937211], [-65.90644027520443, 45.46557258024652], [-65.90641536935331, 45.46550946518938], [-65.90639671381902, 45.465459879571995], [-65.90638430857163, 45.46542382339738], [-65.90636565309295, 45.46537423777491], [-65.90635329552246, 45.46533368295498], [-65.90634098560889, 45.46528862949166], [-65.90630973449532, 45.465220982247374], [-65.90629122207831, 45.46515790068688], [-65.90627266205821, 45.46509931776536], [-65.90626092400346, 45.465000280590004], [-65.90624231641976, 45.464946196305476], [-65.90623635213534, 45.464905675000246], [-65.90623034021188, 45.46486965233661], [-65.90622428064805, 45.46483812831461], [-65.90620581610092, 45.46477054809832], [-65.90618744689942, 45.46469397059519], [-65.90616883948688, 45.46463988629873], [-65.90615652987123, 45.464594832815564], [-65.90613782721188, 45.46454974579788], [-65.90611917223845, 45.46450016013528], [-65.90610686269285, 45.464455106646774], [-65.90610710097731, 45.46443261343723], [-65.90607632721076, 45.464319979710176], [-65.90607026779145, 45.464288455680006], [-65.90606430369904, 45.464247934365694], [-65.90605838727559, 45.464202914409164], [-65.90605223255682, 45.46418038766176], [-65.90605256618326, 45.464148897168485], [-65.90606563817728, 45.46412197239239], [-65.90606592413593, 45.46409498054094], [-65.90607918674542, 45.46405006119553], [-65.90609903296252, 45.463987180816304], [-65.90613180808143, 45.46391087157525], [-65.90615170184206, 45.46384349254439], [-65.90615828543291, 45.463825531508604], [-65.90619082212915, 45.46377171545982], [-65.9062037986715, 45.463753787951255], [-65.90624282353872, 45.46369100813236], [-65.9062429188288, 45.46368201084824], [-65.9062817053927, 45.46364172422601], [-65.90629487243888, 45.46360580213844], [-65.90632077773286, 45.46357444573759], [-65.90635302831043, 45.46354762149397], [-65.90638546939068, 45.463502802672416], [-65.90642416046735, 45.46347151328497], [-65.90649519718198, 45.4634044023152], [-65.90654037630041, 45.46336414911585], [-65.9065726742699, 45.463332826166706], [-65.90665640124263, 45.4632747793955], [-65.90668221096244, 45.46325242019558], [-65.90669504440233, 45.463247988556965], [-65.90671441357497, 45.463230094490356], [-65.90674022325106, 45.4632077352771], [-65.90687547384647, 45.46311396718313], [-65.90693348583774, 45.46306928216473], [-65.90697217630908, 45.46303799258831], [-65.90699808096107, 45.463006636030606], [-65.90701749753549, 45.46298424326901], [-65.90704325939747, 45.46296638262861], [-65.90706262836153, 45.4629484885018], [-65.90708843776896, 45.46292612920839], [-65.90709492579937, 45.46291716540213], [-65.90712073517948, 45.462894806101296], [-65.90717249658606, 45.46283659155367], [-65.90723713873773, 45.46276944663884], [-65.90725660269679, 45.46274255519297], [-65.90732110196718, 45.46268890615791], [-65.90738574377015, 45.462621761157195], [-65.90741794574002, 45.46259943525002], [-65.90744384993936, 45.46256807858894], [-65.90748907524521, 45.46252332636414], [-65.90754078838592, 45.46246961028894], [-65.90761191755915, 45.462393501324954], [-65.90767651114399, 45.462330854799205], [-65.90768943934907, 45.46231742576096], [-65.90771539079091, 45.46228157039384], [-65.9077735438115, 45.462223389011314], [-65.90781886360887, 45.462169639366934], [-65.90786408829317, 45.462124886990544], [-65.90791575319722, 45.462075669385065], [-65.90798678635414, 45.46200855746902], [-65.90804489131094, 45.46195487458876], [-65.90808358039176, 45.46192358462851], [-65.90811587666741, 45.46189226123417], [-65.9081867668917, 45.46183864512141], [-65.90820613510039, 45.4618207507968], [-65.90823199101476, 45.4617938925964], [-65.90830302343547, 45.46172678047983], [-65.90835454516728, 45.46169105860245], [-65.90838679368684, 45.461664233773554], [-65.90842552984344, 45.46162844505176], [-65.90847061121498, 45.461597188361125], [-65.90848997924952, 45.46157929398743], [-65.90854798836409, 45.46153460813351], [-65.90865112599471, 45.461454166842834], [-65.90872850274478, 45.46139158649072], [-65.90881875958961, 45.46132007556044], [-65.90884456754581, 45.46129771586249], [-65.90891555117607, 45.46123510200158], [-65.9089542392738, 45.46120381174096], [-65.90898648722587, 45.4611769867396], [-65.90905737571254, 45.461123370076784], [-65.90912187139449, 45.46106972000552], [-65.90919285442598, 45.46100710596902], [-65.90923802967264, 45.46096685168201], [-65.90928969230156, 45.46091763344297], [-65.90932842736515, 45.460881844409144], [-65.90936067495277, 45.46085501930016], [-65.9093864824785, 45.46083265947746], [-65.9094252174215, 45.46079687041012], [-65.90943809746814, 45.460787939814246], [-65.90947039233166, 45.46075661602941], [-65.9095221966971, 45.46069390175022], [-65.90958044093934, 45.460626722140695], [-65.90961941246725, 45.46056843978428], [-65.90965843128093, 45.460505658769726], [-65.90967135858939, 45.46049222950258], [-65.90969745000695, 45.46044287774148], [-65.90972993397091, 45.46039355930377], [-65.90974934854647, 45.46037116606774], [-65.9097689051804, 45.46033527689487], [-65.90979504379428, 45.46028142646622], [-65.90980797101814, 45.46026799718319], [-65.90981455301323, 45.460250035929775], [-65.90983410956287, 45.46021414674532], [-65.90986701942204, 45.46012434046634], [-65.90988008863856, 45.46009741524116], [-65.90989348927582, 45.460038999502174], [-65.90990655845954, 45.460012074273806], [-65.90991323508453, 45.45998511572516], [-65.90991550767879, 45.45976918078281], [-65.90990963596275, 45.45971966237288], [-65.90990381160316, 45.459665645317976], [-65.90990447445041, 45.459602664292966], [-65.90989869745397, 45.459544148593075], [-65.90989879214706, 45.45953515130376], [-65.90988018283896, 45.459481067607705], [-65.90987412178946, 45.459449543774404], [-65.90986171561464, 45.459413487974686], [-65.90984329578521, 45.459341409694076], [-65.90981838883295, 45.45927829537587], [-65.90978704212307, 45.45921964637127], [-65.90975574283608, 45.45915649871341], [-65.9097307887041, 45.45909788302077], [-65.90963674934551, 45.45892193590921], [-65.90961165333499, 45.45887681612423], [-65.90957391465126, 45.45881813372551], [-65.90952978364022, 45.45875941797427], [-65.90947296268213, 45.45869163823103], [-65.90946041478891, 45.458669078321236], [-65.9094162366294, 45.45861486117064], [-65.90935311835095, 45.45853805073218], [-65.90925822797242, 45.45844307890867], [-65.90919492049683, 45.458384262960166], [-65.90915704036523, 45.458339076356715], [-65.90911281535003, 45.458289357733015], [-65.90904960302622, 45.45822154441535], [-65.90899268835659, 45.45816276172163], [-65.90891025190705, 45.458099346858226], [-65.90884685032557, 45.458049528004864], [-65.90880248351533, 45.458013305193305], [-65.90873278468848, 45.45795445560702], [-65.90865669370103, 45.45789557258907], [-65.90857425802403, 45.45783215748264], [-65.90851085704296, 45.45778233844234], [-65.9084855251567, 45.45775971162999], [-65.90844740871376, 45.457737018010675], [-65.90842207687355, 45.457714391184226], [-65.90838396048711, 45.45769169754366], [-65.9083077752787, 45.457641811580416], [-65.90822529289083, 45.4575828948653], [-65.90809820729409, 45.45751024822329], [-65.90806018616065, 45.457478557186896], [-65.90799034628596, 45.45743320307758], [-65.9079204590217, 45.45739234756902], [-65.90785696410342, 45.45735152545201], [-65.90779342176494, 45.457315201943075], [-65.907717190075, 45.45726981422814], [-65.90770194850384, 45.45726028681469], [-65.90766547758962, 45.45723922114035], [-65.9076255615958, 45.45721762455416], [-65.90762467044308, 45.45721714300864], [-65.90760279524379, 45.45720623120347], [-65.90753286101175, 45.45716987410029], [-65.90751373187746, 45.457165275097736], [-65.90745023751273, 45.45712445275382], [-65.90743750061809, 45.457119887195425], [-65.90738669569545, 45.45708812901776], [-65.90738351860675, 45.45708631283002], [-65.9073485563802, 45.45706768435207], [-65.90731041709279, 45.45704723967357], [-65.90726590940399, 45.45702451219336], [-65.90710686532816, 45.456951697101864], [-65.9070750946185, 45.456933535142376], [-65.90704337150184, 45.45691087453088], [-65.90701155326101, 45.45689721119676], [-65.90700939228539, 45.456896030165716], [-65.90700901065695, 45.45689584821107], [-65.90697978261318, 45.456879049210656], [-65.90689715999153, 45.456833627462466], [-65.90680184832917, 45.45677914138172], [-65.90674465190149, 45.45674734942348], [-65.90668111096936, 45.456711025293345], [-65.90661752251339, 45.45667919977058], [-65.90654754196702, 45.45664734070445], [-65.90642661471473, 45.456597218917175], [-65.90631842435104, 45.45655166268648], [-65.90621028180217, 45.456501607710116], [-65.90612122057502, 45.45646065051368], [-65.9060703216966, 45.45643788903333], [-65.90601932755176, 45.4564241248152], [-65.9059492523457, 45.456401262665715], [-65.9058855216638, 45.45638293266091], [-65.90573253959172, 45.45634163968874], [-65.90568798542384, 45.456323410233146], [-65.90558604524516, 45.456291382788244], [-65.90538206982863, 45.45623632490808], [-65.90522274413772, 45.456190499032864], [-65.90509523604545, 45.45615833681364], [-65.90506341870815, 45.456144672934066], [-65.90496143147503, 45.456117143570225], [-65.90483401919785, 45.45607598377381], [-65.90471934353305, 45.45603938969897], [-65.90468113426505, 45.45602569210109], [-65.90463662845588, 45.45600296359142], [-65.90443284615017, 45.45592990943901], [-65.90433100298564, 45.455888883584215], [-65.90422281569829, 45.45584332535781], [-65.9041209728453, 45.45580229931479], [-65.90402561782714, 45.45575230954812], [-65.90391747887392, 45.455702252389784], [-65.90383476481678, 45.45566582569864], [-65.90378391542372, 45.455638564552885], [-65.90373941028643, 45.455615835692], [-65.90370129722527, 45.4555931404823], [-65.90365044796312, 45.455565879276875], [-65.90358056619482, 45.455525021101494], [-65.90354245325973, 45.45550232583859], [-65.90351707655581, 45.4554841965622], [-65.9034663710547, 45.455443439351434], [-65.90342825822131, 45.455420744050286], [-65.90335198478056, 45.45537985205065], [-65.90332665606226, 45.455357224090875], [-65.90318708513868, 45.455257512736274], [-65.90312994020154, 45.45522122031912], [-65.90310451587199, 45.45520758959161], [-65.90307918733129, 45.455184961576826], [-65.90300940224185, 45.455135105769294], [-65.90297772968395, 45.45510794538371], [-65.90294610505548, 45.455076286348664], [-65.90283219919901, 45.4549677121186], [-65.90281316702314, 45.4549541150432], [-65.90275626220613, 45.45489532923541], [-65.90273093394676, 45.4548727011433], [-65.90266758942731, 45.454818380208714], [-65.90261058904971, 45.45476859160945], [-65.90255998071258, 45.45471883671443], [-65.90254099661793, 45.454700740953044], [-65.90249029253403, 45.45465998330807], [-65.90243968440143, 45.454610228359684], [-65.90239537239505, 45.45456950441167], [-65.90233842045852, 45.454515217035926], [-65.90231948445248, 45.454492622597314], [-65.90230050051186, 45.454474526795934], [-65.90226262857291, 45.45442933790305], [-65.90223110064052, 45.454388681389126], [-65.90219318085701, 45.45434799111354], [-65.90215535705093, 45.45429830354478], [-65.90213646915433, 45.454271210435564], [-65.90212392519707, 45.45424864972076], [-65.90211133328518, 45.45423058764484], [-65.90209888527833, 45.45419902964677], [-65.9020865332186, 45.454158474366885], [-65.90208038117889, 45.454135947406286], [-65.90208066898099, 45.45410895556481], [-65.90207451694897, 45.45408642860389], [-65.90207480475351, 45.454059436762414], [-65.90206889256835, 45.45401441659991], [-65.90206288445604, 45.453978393717634], [-65.90205711619464, 45.45391987763378], [-65.9020511560688, 45.45387935611059], [-65.90204514798192, 45.453843333227375], [-65.90203923584251, 45.453798313063295], [-65.90203976351104, 45.45374882802055], [-65.9020536024787, 45.45364992545739], [-65.90205379435294, 45.45363193089632], [-65.90206071381569, 45.45358247961397], [-65.90206143333349, 45.45351500000972], [-65.90204941722986, 45.45344295424373], [-65.90205028066413, 45.45336197871859], [-65.90204484825796, 45.453271972151654], [-65.9020452320081, 45.453235983029316], [-65.90203936789938, 45.45318646422468], [-65.9020332639529, 45.45315943862116], [-65.90202139187078, 45.453073896931166], [-65.90202244721816, 45.452974926844576], [-65.90201076707439, 45.452871390592115], [-65.90202446195947, 45.45278598395158], [-65.90202638074514, 45.45260603833861], [-65.90203358791379, 45.45252959521478], [-65.90203454728744, 45.45243962240786], [-65.90205463369696, 45.45235424952413], [-65.90206856821324, 45.452246349675164], [-65.90207582324065, 45.45216540790754], [-65.90208985359477, 45.452048510774596], [-65.90209734837921, 45.45194507580308], [-65.90211185824714, 45.45178319226232], [-65.90210632995863, 45.45170218297699], [-65.90210517400213, 45.45167714952578], [-65.90210113742097, 45.451589683208155], [-65.90209565712814, 45.451504175281705], [-65.90209003296279, 45.45143216327628], [-65.90208436084818, 45.45136464991098], [-65.90208508029575, 45.45129717030398], [-65.90207969598059, 45.45120266509553], [-65.90208022357756, 45.45115318005031], [-65.90207421575532, 45.45111715716766], [-65.90206205623976, 45.4510586073228], [-65.90205585657863, 45.45104057900106], [-65.90204355320033, 45.4509955250757], [-65.90202500223472, 45.450936941466026], [-65.90200010777586, 45.45087382544995], [-65.90198770853766, 45.45083776879948], [-65.90197526134399, 45.45080621078806], [-65.90195022307879, 45.450756590682495], [-65.90193148038985, 45.45071600161941], [-65.90191268975177, 45.45067991119369], [-65.90188154799658, 45.45060326546252], [-65.90185660586508, 45.45054464805574], [-65.9018315678206, 45.45049502792422], [-65.90182527232918, 45.4504859968708], [-65.90180648183586, 45.45044990642764], [-65.90176318130614, 45.45031471079119], [-65.90173828741493, 45.45025159471833], [-65.90171973701064, 45.45019301105932], [-65.90170724211723, 45.45016595165917], [-65.901682444342, 45.45009383829356], [-65.90167643688545, 45.45005781539007], [-65.9016702854522, 45.450035288407214], [-65.90167057342074, 45.45000829656536], [-65.9016774447641, 45.44996334394353], [-65.90169719486411, 45.449909461601194], [-65.90170382621422, 45.4498870021793], [-65.90171055354165, 45.44985554547631], [-65.90174337425951, 45.449774738841064], [-65.90177590696693, 45.44972092403837], [-65.90180200026504, 45.44967157409276], [-65.90181497492276, 45.44965364707828], [-65.90182785360888, 45.449644717343155], [-65.90184106815494, 45.44960429712346], [-65.90187340875751, 45.44956847685394], [-65.90191228459061, 45.44951919442146], [-65.90195759966683, 45.44946544710018], [-65.9019963794185, 45.44942516191951], [-65.90205452495987, 45.4493669834435], [-65.90213857136405, 45.44927744947511], [-65.90222891291032, 45.449196946474906], [-65.90231920625543, 45.44912094204262], [-65.9023837424403, 45.44906279714003], [-65.90244823056015, 45.449009150841164], [-65.90246115692734, 45.448995722392404], [-65.90250627934776, 45.44895996941226], [-65.90263515916102, 45.448861673918465], [-65.9027124293405, 45.448808094920366], [-65.90279604272926, 45.44875904822803], [-65.90283467768994, 45.44873225868029], [-65.90288604722666, 45.44871003518616], [-65.90292468211062, 45.448683245607526], [-65.90296961242876, 45.44866548700598], [-65.90304039500867, 45.44862087135694], [-65.90311127323078, 45.44856725838071], [-65.90318854255, 45.44851367905527], [-65.90324654230895, 45.44846899588492], [-65.90331093319804, 45.448424346373194], [-65.90335605461692, 45.448388593051526], [-65.90345917540138, 45.44830815643149], [-65.90349141852828, 45.448281332977686], [-65.90353010067115, 45.44825004454924], [-65.90363312528102, 45.44817860505256], [-65.90367180727395, 45.44814731657524], [-65.90371044139495, 45.44812052672631], [-65.90374902765343, 45.44809823550581], [-65.90378766170376, 45.44807144563035], [-65.90385195607107, 45.44803579309196], [-65.9038969333914, 45.44801353547834], [-65.90397396216021, 45.44798244882187], [-65.90402533055983, 45.44796022480768], [-65.90414094515586, 45.447906846708605], [-65.90423085153864, 45.44786682987466], [-65.90434007459325, 45.44781341793471], [-65.90444271521395, 45.44777796683342], [-65.90453257341322, 45.44774244840091], [-65.90462891815008, 45.44769796622618], [-65.90469316380633, 45.447666811849764], [-65.90474462712329, 45.447635590222895], [-65.90479476441573, 45.447608860494036], [-65.90483462811778, 45.4475865756223], [-65.90494266728703, 45.44752415909252], [-65.90509696082391, 45.447439491084054], [-65.90525248441176, 45.44735932822244], [-65.90539257354445, 45.44728808186326], [-65.90554047466853, 45.44720337967595], [-65.90568326248551, 45.44711865045099], [-65.90584389720098, 45.447038513615375], [-65.90590818907965, 45.44700285990245], [-65.90597115501888, 45.446971698088376], [-65.90604306836659, 45.446940583186795], [-65.90610736000666, 45.44690492936008], [-65.90622822616386, 45.44683808001216], [-65.9063503702406, 45.446771237237705], [-65.9064468546939, 45.44671325757702], [-65.90653041409789, 45.44666870675261], [-65.90654972997172, 45.44665531133877], [-65.90657666746618, 45.44664645476972], [-65.90662041198313, 45.44661969072382], [-65.90666533948206, 45.44660193064792], [-65.90671036212501, 45.44657517326674], [-65.90680050243995, 45.44651266116284], [-65.90685191595168, 45.44648593721567], [-65.90688415640894, 45.44645911278821], [-65.90697424877888, 45.44640109918872], [-65.90700005057387, 45.44637873989063], [-65.90705794997375, 45.44634305204089], [-65.90716096659115, 45.44627160931182], [-65.90721886577815, 45.446235921379234], [-65.90725105837375, 45.446213595490406], [-65.90730247139697, 45.44618687133731], [-65.90734105489983, 45.44616457888499], [-65.90739251536627, 45.44613335604666], [-65.90745685275023, 45.446093202804526], [-65.907514799086, 45.446053016075375], [-65.90757288788771, 45.445999333383504], [-65.90759229831161, 45.44597694050194], [-65.90762463314623, 45.445941118573245], [-65.90765706295838, 45.445896299346536], [-65.90767656832854, 45.445864909161635], [-65.90771595903979, 45.44576613962668], [-65.90772912091485, 45.44573021734894], [-65.90775553961652, 45.44564937549992], [-65.90776235803285, 45.44560892113686], [-65.90777618483325, 45.445510017831616], [-65.90777646507951, 45.445483475829526], [-65.90777292029229, 45.445456014037205], [-65.9077668049044, 45.445429888463714], [-65.90775555306585, 45.445405985462905], [-65.90767572155256, 45.44533988392463], [-65.90758057115154, 45.44527190260216], [-65.90749171679684, 45.44521295194042], [-65.90728844526079, 45.445094916559995], [-65.90718032388068, 45.44504486255299], [-65.90707215513862, 45.44499930708713], [-65.90695759574223, 45.44495371803695], [-65.90652298166366, 45.44475675245237], [-65.90646279688026, 45.44472490865239], [-65.90641626130477, 45.4447083867432], [-65.90619431570362, 45.44460780074423], [-65.90606716679427, 45.44454414917254], [-65.90606656734529, 45.44454390398684], [-65.9059335321065, 45.444489461206345], [-65.90579985002327, 45.44443927172628], [-65.90565977741495, 45.44438904853435], [-65.9055132189402, 45.44434778889312], [-65.9053666129907, 45.44431102770568], [-65.90520188634567, 45.44427723665926], [-65.90498397893376, 45.444232535855846], [-65.9045948597107, 45.444163006385736], [-65.90437655406049, 45.44413410782926], [-65.90420555032256, 45.444111470149586], [-65.90397710830904, 45.44407997199567], [-65.90369371349362, 45.444040896600015], [-65.90356099531786, 45.44402259680533], [-65.90340785724882, 45.44399929533853], [-65.9032483285923, 45.44397595997437], [-65.9031016772401, 45.4439436945011], [-65.9029487311185, 45.44390239784773], [-65.90287054963323, 45.44388038536417], [-65.90280217592522, 45.44386113470425], [-65.90267026318425, 45.443817080143745], [-65.90266778587426, 45.44381625277125], [-65.9022470988837, 45.44367575582668], [-65.90222817462191, 45.44366943572088], [-65.90205749983676, 45.443612434871596], [-65.90204609665471, 45.44360862615655], [-65.90188512887413, 45.443554866938655], [-65.90186555852597, 45.443548010689014], [-65.90183454387568, 45.44353712953531], [-65.90143647929011, 45.44339754721188], [-65.89871253377959, 45.44244233584055], [-65.89861825307601, 45.44240927198158], [-65.8985603086794, 45.44238895123404], [-65.89787453335647, 45.44214845206963], [-65.89762557269364, 45.4420611409886], [-65.89739018769046, 45.4419609124198], [-65.89716124234543, 45.441856218759376], [-65.89694517549637, 45.44174259545451], [-65.89684985074237, 45.44169259970826], [-65.89675447778001, 45.44164710252004], [-65.89665905658651, 45.44160610388953], [-65.8966427042514, 45.441600238346275], [-65.89655719670345, 45.44156956974909], [-65.8964488981192, 45.441537500081225], [-65.89634055124773, 45.441509928947646], [-65.89625771776683, 45.44148699268963], [-65.89616844550542, 45.44146852091914], [-65.89608556372472, 45.44145008317294], [-65.89581745674626, 45.441421659067814], [-65.89563213462485, 45.441420669740815], [-65.89556813350029, 45.44142932579744], [-65.89550408387767, 45.441442480454896], [-65.89544642464685, 45.44145566920667], [-65.89538237496593, 45.441468823795084], [-65.89532466718678, 45.441486511121674], [-65.89526691087377, 45.44150869705564], [-65.89441115613802, 45.44204398952823], [-65.89283213325064, 45.442678872954176], [-65.89226915240748, 45.442869168462806], [-65.89205080579441, 45.44294297188889], [-65.89160055960582, 45.443095156498146], [-65.89152782870826, 45.44308351832105], [-65.89148511189826, 45.443080175455925], [-65.89145375627366, 45.44307772145077], [-65.89137965456783, 45.44307462371264], [-65.89133364223048, 45.4430743763077], [-65.89112933828486, 45.443055281967254], [-65.89101450284835, 45.4430366686291], [-65.89091235098235, 45.443027121217234], [-65.89082307805421, 45.443008645229774], [-65.8907211217288, 45.442981103109595], [-65.89069565709617, 45.442971968248266], [-65.8906318489376, 45.44296262697166], [-65.89052989279048, 45.442935084679675], [-65.89044062013619, 45.44291660839126], [-65.89036422648893, 45.442889203601425], [-65.89024978286328, 45.44283460041937], [-65.89022451398887, 45.44280747091781], [-65.89018656181642, 45.4427712752886], [-65.89016129300103, 45.44274414577308], [-65.8901237322046, 45.44267196105422], [-65.89008597584659, 45.44261777085734], [-65.89007368390273, 45.44257271565426], [-65.89004870873525, 45.442518594312524], [-65.89004419441214, 45.4424606241918], [-65.89004106305977, 45.442420406073246], [-65.89003749304229, 45.442374569167534], [-65.89004052594332, 45.442095653886916], [-65.89004408204832, 45.442074592116974], [-65.890054187417, 45.442014747353404], [-65.89005457874676, 45.441978758284726], [-65.89008111893318, 45.44188892334969], [-65.8901206355885, 45.44178116273666], [-65.89014688212362, 45.441718319587345], [-65.89019878816684, 45.441646616874245], [-65.89025049847719, 45.441592908671886], [-65.89028952562883, 45.4415301343356], [-65.89031577185605, 45.44146729114612], [-65.89036748188849, 45.44141358288945], [-65.89043207040449, 45.44135094616893], [-65.89050973284516, 45.441261386426476], [-65.89061324979942, 45.44114497244186], [-65.89065208076308, 45.44110019251439], [-65.89075510853601, 45.441028764738796], [-65.89080691545159, 45.44096605901076], [-65.89085852684975, 45.44092134779533], [-65.89092301655913, 45.440867708059756], [-65.89118116945913, 45.44063515420888], [-65.89138761214495, 45.440456308515095], [-65.89141356380372, 45.44042045687297], [-65.89147795480577, 45.440375814087176], [-65.8915424872101, 45.440318125223996], [-65.89168810532536, 45.4401954977487], [-65.89169963968615, 45.440185784532225], [-65.89178264000813, 45.44011588939642], [-65.89183802589965, 45.44006924819789], [-65.89190279056707, 45.440014708707025], [-65.89198110290678, 45.43994875986792], [-65.89202786680474, 45.43990937937165], [-65.89213543359872, 45.43981879413264], [-65.89215464265514, 45.43980261757963], [-65.89223007923421, 45.439739090629075], [-65.89228139994488, 45.43969587264305], [-65.89238713298262, 45.43960683214034], [-65.89289943515939, 45.4391753996974], [-65.89328497644651, 45.43885071292745], [-65.89337282521022, 45.43877672973229], [-65.89353603101154, 45.43845818263097], [-65.89367372340313, 45.438134999736626], [-65.89398246251163, 45.43735834403873], [-65.89435161569136, 45.436312077001986], [-65.89435868541935, 45.4362491302789], [-65.89436580369419, 45.43618168491857], [-65.89436653213922, 45.43611420536796], [-65.89436082221417, 45.436051190264045], [-65.8943487225037, 45.435988140969066], [-65.89433667138513, 45.43592059303612], [-65.89431818194622, 45.43585750954624], [-65.89429359418293, 45.43576740003954], [-65.8942626653062, 45.43567275769546], [-65.89422524963477, 45.43558707841882], [-65.8941814929117, 45.435496866293406], [-65.89413129801629, 45.435411118585115], [-65.89407471355159, 45.43532533664892], [-65.89401995069159, 45.435254676230336], [-65.89401169095677, 45.4352440191118], [-65.89387959682428, 45.435049859261184], [-65.89376672121809, 45.43485130329362], [-65.89366662569829, 45.43465281567357], [-65.89357940737652, 45.43444539916207], [-65.89354851418315, 45.434356855511396], [-65.89353903004995, 45.43432967364765], [-65.89349710960535, 45.43420952463204], [-65.89347404217641, 45.434143408504966], [-65.89345826807921, 45.43407754830365], [-65.89344714917347, 45.43403112668672], [-65.89340067450317, 45.43383709033844], [-65.89338340276107, 45.43366154079212], [-65.89334691394676, 45.433490387140836], [-65.89330299183439, 45.433355238795265], [-65.89329314922783, 45.43332495164912], [-65.8932912568734, 45.433319130730126], [-65.89321623711142, 45.43316576607697], [-65.89311556260738, 45.433021261611444], [-65.89298923351254, 45.43288561726555], [-65.89282432504932, 45.4327722603103], [-65.89264658972156, 45.43266333318093], [-65.89245597885073, 45.43256333445276], [-65.89242270667266, 45.43254745829907], [-65.89226527120653, 45.432472332676404], [-65.89208863525543, 45.432391869692154], [-65.89207223445821, 45.43238439891177], [-65.89195622092657, 45.432331551626454], [-65.89064093257993, 45.43173238440161], [-65.89059156859484, 45.431709896768474], [-65.89038354954504, 45.431615132891025], [-65.89038385307217, 45.431615072441076], [-65.89067072609828, 45.431558131536214], [-65.8906128646053, 45.43153217630301], [-65.89032525175952, 45.43142175407954], [-65.89003361576512, 45.43132885514173], [-65.88976567479229, 45.43123113441821], [-65.88975891771537, 45.431147418485686], [-65.88941992055508, 45.43106191072101], [-65.88911648637065, 45.43093790246579], [-65.8887496435735, 45.43082794924081], [-65.88833995539882, 45.43072136240372], [-65.88831192141721, 45.43071401266148], [-65.8879854120174, 45.43059707578648], [-65.8875658484859, 45.43068100337657], [-65.88753220382294, 45.43067290415705], [-65.88743036973689, 45.430636361863606], [-65.8873793545115, 45.43062708794789], [-65.88731556094304, 45.430617744837306], [-65.8872263089372, 45.43059926606307], [-65.88714163331969, 45.43057317016957], [-65.88713715526143, 45.43057178995367], [-65.88703541990479, 45.43052625004103], [-65.88692090638544, 45.430480640820896], [-65.88662828342846, 45.43036208400858], [-65.88653932715654, 45.43031661290131], [-65.88645027264867, 45.43028013898854], [-65.8864120361905, 45.43027093390749], [-65.8863357601092, 45.43023452917871], [-65.8862468042772, 45.43018905784257], [-65.88619987693704, 45.43016805083811], [-65.88614507033961, 45.43014351713298], [-65.88611418814733, 45.43013024164351], [-65.88601787853791, 45.43008884043388], [-65.88590326827435, 45.430052227451824], [-65.88583977104176, 45.43001589172133], [-65.88575081595938, 45.42997041999714], [-65.8856109452525, 45.42990667622972], [-65.88557280770769, 45.42988847360303], [-65.88549672975658, 45.42983407378536], [-65.88542084904115, 45.429761679391106], [-65.88539558836214, 45.42973454882755], [-65.88533209181819, 45.42969821281384], [-65.88529434876205, 45.42964402104287], [-65.88521827141209, 45.42958962103938], [-65.88515477514697, 45.429553284926875], [-65.88511683517491, 45.429517087622344], [-65.88507869805537, 45.42949888483013], [-65.88504075816911, 45.42946268750031], [-65.8849394210111, 45.42938115666292], [-65.88492987515018, 45.42937090398333], [-65.88489513092837, 45.429333586648916], [-65.88488890048484, 45.42932689531712], [-65.88485086220282, 45.42929969518636], [-65.88485030110958, 45.42929888863341], [-65.8848257006451, 45.42926356723451], [-65.88473714218706, 45.42918210566975], [-65.88467414000547, 45.429100782979155], [-65.88463629931675, 45.42905558825293], [-65.88458558202377, 45.42901932129685], [-65.88454764277913, 45.42898312380314], [-65.8844968269188, 45.42895585406938], [-65.88445749924932, 45.42893894657294], [-65.88443323313774, 45.42892851481655], [-65.88438231867427, 45.42891024229335], [-65.88437592969133, 45.42891020754172], [-65.8843301165762, 45.42889286252256], [-65.88428880578631, 45.42887199144666], [-65.88428690844282, 45.42887103275693], [-65.88424627567946, 45.42884741742622], [-65.88420434540836, 45.42882559458104], [-65.88415725462137, 45.42880824253993], [-65.8841088169434, 45.42879718160878], [-65.88406032990477, 45.42879061928763], [-65.88401181324737, 45.42878675612411], [-65.88396199904808, 45.42878468543699], [-65.88372560722884, 45.42878339851111], [-65.88363868761802, 45.428785624532985], [-65.88347759665767, 45.42879284516025], [-65.88347695776083, 45.428792841680014], [-65.88347631886394, 45.428792838199776], [-65.88346480883466, 45.428793675280644], [-65.88330373760635, 45.42879909620827], [-65.8833030987094, 45.42879909272707], [-65.88330245981246, 45.428799089245835], [-65.88327943974603, 45.42880076337112], [-65.88318611134281, 45.42880475368353], [-65.88309403104628, 45.4288114500618], [-65.88300192104936, 45.428820845543044], [-65.88291102945007, 45.42883564627204], [-65.88283290585692, 45.4288514163323], [-65.88275729822328, 45.428870799179634], [-65.88268168063948, 45.42889108170228], [-65.88253421929598, 45.42893706586465], [-65.88244059355682, 45.42896804733926], [-65.88234948369731, 45.429002641586344], [-65.88218779759443, 45.429063843929455], [-65.88218650988868, 45.42906473668029], [-65.88202482342999, 45.429125938789646], [-65.88202353572018, 45.42912683153857], [-65.88187723209056, 45.42918361852898], [-65.88177846462925, 45.42921727071686], [-65.88161685661031, 45.429271274434505], [-65.88161557880603, 45.42927126745299], [-65.88158736795394, 45.42928011111362], [-65.88152324964356, 45.42930045569583], [-65.88145788323494, 45.42931809408096], [-65.88139126873637, 45.42933302626683], [-65.88132213827053, 45.42934434554063], [-65.88125112083125, 45.42935295511641], [-65.88124664850993, 45.42935293066651], [-65.88121365574344, 45.42936432146246], [-65.88116968247094, 45.4293795032703], [-65.88100297209618, 45.429432578436405], [-65.88093878391781, 45.429459220766546], [-65.88082338403618, 45.429494580708834], [-65.88073363950525, 45.429521083109385], [-65.88065657368666, 45.42955665261982], [-65.8804900609718, 45.4295917325143], [-65.88031076992824, 45.42962674220106], [-65.88018259117968, 45.429662031524394], [-65.88010444082872, 45.429680049010294], [-65.88008933178129, 45.42969409460279], [-65.8800747827393, 45.42970418062932], [-65.88005807175516, 45.4297130868976], [-65.8800407367695, 45.429720640075345], [-65.88002150493952, 45.42972638329987], [-65.88000038123714, 45.429729866707504], [-65.87997925256128, 45.42973379997397], [-65.87996384422266, 45.42974046391434], [-65.87995033768945, 45.42974848794151], [-65.87993812802729, 45.42975502543718], [-65.87993619721605, 45.429756058604085], [-65.8799156577201, 45.42976449398676], [-65.87989512816098, 45.42977202964021], [-65.8798726967881, 45.429778205199604], [-65.87984645185091, 45.42978256029888], [-65.8798195878902, 45.42978511244002], [-65.87980988799139, 45.429785059288605], [-65.8798050078637, 45.42978620226126], [-65.87974070334695, 45.42982328072582], [-65.87966327754474, 45.42984508095509], [-65.87958924672633, 45.42983720699927], [-65.87953084719365, 45.42984400412306], [-65.87940614436174, 45.42985851770754], [-65.87932760796627, 45.429842070964696], [-65.8791121212539, 45.42984511802117], [-65.87909162142581, 45.429849954352036], [-65.87901744896155, 45.42984333893705], [-65.87894629627067, 45.42981766470559], [-65.87889818659298, 45.429800304883315], [-65.87868330851786, 45.429783019432506], [-65.87864911413128, 45.42978976002123], [-65.87850298584553, 45.42978409888676], [-65.87846623281601, 45.42979109530437], [-65.87832624902542, 45.429784477925935], [-65.87821381655954, 45.42980554500915], [-65.87815618790813, 45.42979362123448], [-65.87796896046471, 45.42980509935103], [-65.87776963781738, 45.429804003719404], [-65.87776803368851, 45.42967888766843], [-65.87776689739017, 45.429590291766814], [-65.87765184451932, 45.42959415808407], [-65.87751128531923, 45.429593385102926], [-65.87737903061662, 45.42959265763155], [-65.87732729925585, 45.429590572579286], [-65.87727621676943, 45.42958759309291], [-65.87722382780835, 45.42958730483537], [-65.87714967229505, 45.4295904949921], [-65.87707676844337, 45.42959639222954], [-65.87699872208667, 45.429604960453915], [-65.87692192354571, 45.429616234834555], [-65.87684509998445, 45.42962975937571], [-65.87684202727509, 45.42892836289104], [-65.87644985583987, 45.428513653722376], [-65.87619496933287, 45.428469499708726], [-65.87611187274553, 45.42845510498364], [-65.87588653317714, 45.428092150939975], [-65.8756602994715, 45.427522691931806], [-65.87554301272218, 45.427229187981425], [-65.87553597737589, 45.42721158185364], [-65.87547588867483, 45.427042091602274], [-65.8754145746831, 45.42681050971522], [-65.87533426031726, 45.4265639765499], [-65.87515854680149, 45.426163504131445], [-65.87510271432441, 45.42595624639789], [-65.87496824967214, 45.425695916357824], [-65.8747214037275, 45.4250858532486], [-65.87466790843614, 45.42495553942263], [-65.874306888875, 45.42387110741048], [-65.87417854114939, 45.42355846999278], [-65.8741669424482, 45.42353021753463], [-65.87406854964105, 45.42331090529126], [-65.87398179968099, 45.42311754314463], [-65.87390958431519, 45.42294860039743], [-65.87386536966468, 45.42284516537136], [-65.87384849637736, 45.422838479327325], [-65.87385707335493, 45.42280359010672], [-65.87384146088279, 45.4227253559998], [-65.87379094994964, 45.42247224452618], [-65.87373359721131, 45.42194375605909], [-65.87368665987486, 45.42151295137469], [-65.87346948551607, 45.42151732432688], [-65.87341562451842, 45.421518409097494], [-65.87334524163447, 45.42151982615562], [-65.87324150441268, 45.42152191504625], [-65.87286299104908, 45.421529534897786], [-65.87283553068256, 45.421460351566424], [-65.87275239195567, 45.42125088979722], [-65.87167313473125, 45.42127234624278], [-65.87166222864361, 45.42099110427558], [-65.8716492118508, 45.42066981035315], [-65.87220449052047, 45.420658945419326], [-65.87157005892043, 45.4199796890637], [-65.8717335978656, 45.419953007098506], [-65.8718580606288, 45.41993269980758], [-65.87193109918839, 45.41997089596013], [-65.87221210756597, 45.42026353413762], [-65.87261379696226, 45.420047564930435], [-65.8725597392608, 45.419906132865364], [-65.87248283346423, 45.41970492223682], [-65.87241222875569, 45.419628910465256], [-65.87236858032797, 45.41958191940691], [-65.87230531797832, 45.41951876206187], [-65.87223632457952, 45.4194586546388], [-65.87216189496628, 45.41940185340073], [-65.87208234964122, 45.419348603955825], [-65.87199802848747, 45.419299132224666], [-65.87196183149061, 45.41927958517298], [-65.87234329649017, 45.419085507936565], [-65.87247967432815, 45.41901612273809], [-65.87254199348412, 45.41898452696998], [-65.87365732867092, 45.41841664541863], [-65.87389183248686, 45.41829692168669], [-65.87549669118779, 45.41747934093995], [-65.87520348758949, 45.41667511842865], [-65.8750336343236, 45.416209893842066], [-65.87498207753791, 45.416093307987026], [-65.87490320061374, 45.4159149398423], [-65.87462376815701, 45.41528303680602], [-65.87447223264871, 45.414940351096305], [-65.87202409645472, 45.415385038021185], [-65.87183318760307, 45.41541971235853], [-65.87176647842129, 45.41523807584791], [-65.87172904574074, 45.4151361532388], [-65.87155864007057, 45.4146664213608], [-65.87202589296808, 45.41458173648995], [-65.87197777287048, 45.413708399752856], [-65.8719770443562, 45.41369518243189], [-65.87232733776393, 45.41364154826119], [-65.87402714339967, 45.41338126971491], [-65.87480543097462, 45.4132416073278], [-65.87805295164969, 45.41265844909893], [-65.87918383569794, 45.41245526557353], [-65.88191865747525, 45.41196385405916], [-65.88299970635723, 45.411762804074876], [-65.8830554159425, 45.41169202518373], [-65.8841779846312, 45.41026703957402], [-65.88228510542983, 45.4093040435034], [-65.88207753623588, 45.409198438556466], [-65.87568120576896, 45.40594382420562], [-65.87520871865846, 45.405702324616115], [-65.87517696721287, 45.40568595324556], [-65.87465497690665, 45.40541673466479], [-65.87560865073303, 45.40460005159877], [-65.87617478274174, 45.40411504323097], [-65.87623162557625, 45.404057320755925], [-65.87746715814949, 45.40301244544587], [-65.87756573315586, 45.40292907961242], [-65.87778340892284, 45.40274498772631], [-65.87881103758286, 45.40325900983258], [-65.88265434322011, 45.405181278263015], [-65.88651019732569, 45.407140199812964], [-65.88865717475745, 45.40823083098645], [-65.88874735687301, 45.408139538819775], [-65.88883490117664, 45.40805091727833], [-65.89157418863341, 45.405277729477824], [-65.89176985235035, 45.40507948016575], [-65.8944780976295, 45.40641308205512], [-65.89488533746453, 45.4059019362898], [-65.89541004040169, 45.40521685950896], [-65.89567662086226, 45.40489798631163], [-65.89582458494912, 45.404720995300636], [-65.89633264377642, 45.40411325685529], [-65.89664900744917, 45.40373523633077], [-65.89616234076485, 45.4034991493064], [-65.89636793231438, 45.403266303570476], [-65.89649429328443, 45.403096469369956], [-65.89497516385559, 45.40235865263736], [-65.89466152017623, 45.402206316042], [-65.89137663309792, 45.4006107456547], [-65.88946357071569, 45.39968142750374], [-65.89058553189933, 45.3986885934023], [-65.89239537284548, 45.397086948038954], [-65.8929483088211, 45.396597336977024], [-65.8930701475948, 45.396489449273254], [-65.89347660137938, 45.39612953496613], [-65.89210689612383, 45.395361420442796], [-65.8931801115411, 45.39437472437659], [-65.89452813669928, 45.395790551299534], [-65.89506916466232, 45.395537907786526], [-65.89358539337998, 45.393978744759984], [-65.894401580636, 45.39319625900447], [-65.8948617883012, 45.39344930999693], [-65.8962164012301, 45.39411535033979], [-65.89886223787846, 45.39541617388359], [-65.90159369324597, 45.396758962354916], [-65.90160211881526, 45.39674730978413], [-65.90166645148864, 45.396702661036194], [-65.90169228038145, 45.396675804240026], [-65.90175670874285, 45.39662215815367], [-65.90183381178991, 45.39657757683227], [-65.90185944889507, 45.39656871457137], [-65.90194903498362, 45.39655119254274], [-65.90203842942402, 45.39655166501732], [-65.90219938602968, 45.396548016643145], [-65.90236034516967, 45.396544368053455], [-65.90237056167639, 45.39654442201699], [-65.90244708974673, 45.39655382400171], [-65.90248530592923, 45.39656302361849], [-65.90261301230963, 45.396563697955344], [-65.9026518984128, 45.39650991650092], [-65.90265266399511, 45.396437938197714], [-65.90266572169145, 45.39641101375512], [-65.90266677433941, 45.39631204358792], [-65.90268011907794, 45.39625812727976], [-65.90270633003571, 45.396195281098436], [-65.90270690416563, 45.39614129737045], [-65.9027199617663, 45.39611437292131], [-65.90272110999614, 45.39600640546509], [-65.90274732078919, 45.39594355927374], [-65.90277334016943, 45.395898707652314], [-65.90283786227259, 45.39583606365707], [-65.90294079125877, 45.39576462451002], [-65.90299196872913, 45.39575589676623], [-65.90306840020243, 45.39577429561679], [-65.90314502296035, 45.39577469983865], [-65.90319629601746, 45.39575697471379], [-65.9032477602434, 45.395721254988274], [-65.90331256838377, 45.39563161885424], [-65.90331377281359, 45.39551825301543], [-65.9033141934067, 45.39547866494473], [-65.90332715497384, 45.39546073771311], [-65.90334011653266, 45.39544281047998], [-65.90339148480189, 45.395416087976855], [-65.90344275745383, 45.39539836273931], [-65.90349393451328, 45.39538963476743], [-65.90351957081513, 45.39538077212828], [-65.90363507737992, 45.39532739424611], [-65.90368634987443, 45.39530966889775], [-65.90372485198563, 45.39529187622651], [-65.90377621993427, 45.395265153547925], [-65.90384064468607, 45.3952115062654], [-65.90386972650876, 45.39517881755117], [-65.90390526030225, 45.39513986436674], [-65.90395626637837, 45.39502676089107], [-65.90395758287852, 45.395023168709386], [-65.90397073510061, 45.394987246823895], [-65.9039834301354, 45.39487394151185], [-65.9039848421105, 45.39486135204009], [-65.90401085999822, 45.39481650013002], [-65.9040367823725, 45.394780645503616], [-65.90410111085674, 45.394735995360385], [-65.9042290994339, 45.394709675993305], [-65.90439000420282, 45.39471052314119], [-65.9043951122908, 45.39471055003103], [-65.90443351835904, 45.39470175440723], [-65.9045742769165, 45.39467550186836], [-65.90467691546125, 45.39463105300197], [-65.90483063461413, 45.39458687275389], [-65.90494594765205, 45.39455148810767], [-65.90499731434353, 45.39452476487144], [-65.90507441194161, 45.39448018132762], [-65.90515141412502, 45.3944445950221], [-65.90519010575242, 45.3944088072672], [-65.9052799731813, 45.39436429071614], [-65.90534430020222, 45.39431963986232], [-65.90536993572495, 45.3943107768019], [-65.9054343578597, 45.39425712860508], [-65.90547285869691, 45.3942393353357], [-65.90558864672741, 45.394158963573524], [-65.90565316369018, 45.39409631795935], [-65.9056534493234, 45.39406932608396], [-65.9056669810704, 45.393997414830565], [-65.90568003675021, 45.39397049003465], [-65.90568123634927, 45.393857124157364], [-65.90568203607863, 45.39378154690578], [-65.90569509170055, 45.393754622107956], [-65.90570805210848, 45.393736694600484], [-65.9057595128851, 45.393700973723405], [-65.90579801323773, 45.393683180342165], [-65.90590055383187, 45.3936477276506], [-65.9059771737186, 45.393648129947465], [-65.90602834879374, 45.39363940082425], [-65.90613079403006, 45.39361294521582], [-65.90622046920262, 45.393586422497414], [-65.90632310445751, 45.39354197212924], [-65.90643898491673, 45.39345260219718], [-65.90647767503941, 45.39341681399796], [-65.90652942024113, 45.39335410089], [-65.90654083401817, 45.39324078858443], [-65.90654371122162, 45.39321021118458], [-65.90655667123268, 45.39319228357887], [-65.90662118600272, 45.39312963740685], [-65.90663414597039, 45.39311170979214], [-65.90664710592975, 45.39309378217592], [-65.9067750895821, 45.393067459916416], [-65.90681368420208, 45.3930406688943], [-65.90689068331132, 45.393005081397135], [-65.90694214266586, 45.39296935997847], [-65.90696796731625, 45.3929425019668], [-65.90705802095734, 45.39287998940663], [-65.9071992485363, 45.39280874711915], [-65.90722488307762, 45.392799883635924], [-65.90728873203093, 45.392800218137204], [-65.90737840536177, 45.392773694496405], [-65.90741699949244, 45.392746903267216], [-65.90742995911762, 45.392728975560466], [-65.90753203615488, 45.39261613886529], [-65.90755917530528, 45.39258568758701], [-65.90764903794162, 45.39254116914187], [-65.9077004963891, 45.39250544737597], [-65.9077264153383, 45.392469591895214], [-65.90775242912507, 45.39242473911388], [-65.90775362448343, 45.3923113741027], [-65.90775442140152, 45.39223579592896], [-65.90774193635399, 45.392208737200924], [-65.90770467103845, 45.39210956641966], [-65.90769209116316, 45.39209150498071], [-65.90766683655326, 45.39206437939307], [-65.90762900212883, 45.392019192353935], [-65.907616422298, 45.39200113090667], [-65.90756600815605, 45.391937882398004], [-65.90756629285394, 45.39191089051506], [-65.90754122819209, 45.39186577031105], [-65.90754217722164, 45.39177579736808], [-65.90758105527586, 45.39172201419794], [-65.90763251301335, 45.39168629246096], [-65.90767101139167, 45.39166849843723], [-65.90769664533778, 45.3916596348456], [-65.90773495393447, 45.39165983538907], [-65.90783720504913, 45.39165137281351], [-65.90787560848996, 45.39164257601464], [-65.90799053424891, 45.3916431774242], [-65.9081515819948, 45.39162962442912], [-65.90815361908788, 45.39162948032335], [-65.9081752245879, 45.39162794764535], [-65.90818736985727, 45.39162666150659], [-65.90819441693822, 45.39163013192517], [-65.90864345611357, 45.39185129170604], [-65.90885625757629, 45.391955878355894], [-65.90961408221504, 45.39232919463112], [-65.91272757231542, 45.39386230413271], [-65.91273814949803, 45.39386751206714], [-65.9127382130284, 45.39386754298941], [-65.91299344197517, 45.39399321239433], [-65.9151491222882, 45.39505457880791], [-65.9161612997844, 45.39554450810393], [-65.91627801912608, 45.395601003682074], [-65.91643463052147, 45.395676807198825], [-65.91643729905229, 45.3956780977482], [-65.91655376098991, 45.39573446844301], [-65.91741799218026, 45.396152766759904], [-65.91847209471135, 45.396663231528564], [-65.91854096385693, 45.39669658125081], [-65.9187109862847, 45.396778915427255], [-65.91892764841141, 45.39688440174074], [-65.91895551986796, 45.39689794257689], [-65.91933800053447, 45.39708376055527], [-65.9193380475538, 45.39708378329102], [-65.92093369960418, 45.397858961737604], [-65.92109246192881, 45.3979360870552], [-65.92341930373895, 45.39906639812692], [-65.92571161145065, 45.40018392130864], [-65.92610896761776, 45.40037762704044], [-65.9292198050724, 45.40189402482737], [-65.9305681841274, 45.40255124829197], [-65.93435861979191, 45.4043986067744], [-65.93494266236587, 45.404683231754085], [-65.93741284316754, 45.40588697355526], [-65.93789260975905, 45.406120644794946], [-65.93791512313985, 45.40613161064718], [-65.93794173601266, 45.40614457186963], [-65.937942065245, 45.40614473186586], [-65.9379426029438, 45.406144993672605], [-65.93794291182964, 45.40614514457], [-65.93794388275107, 45.40614423791782], [-65.93809957448306, 45.40599880896556], [-65.93839859827186, 45.40594065617159], [-65.93872292631136, 45.40587758125324], [-65.93874256791473, 45.40587376104602], [-65.93888379231119, 45.405846295695675], [-65.94612363999758, 45.404437999529854], [-65.94643500595204, 45.40437742056396], [-65.94948840937955, 45.403783302761425], [-65.94969701271394, 45.403742476917394], [-65.94989734150288, 45.40370346850269], [-65.95059664664953, 45.40356729351188], [-65.95237036106558, 45.40322187885409], [-65.95281825735641, 45.40313496862582], [-65.95282101541996, 45.40313178055617], [-65.95329336811089, 45.40303944318639], [-65.95353253520712, 45.4029926889557], [-65.95407489971537, 45.402886661602054], [-65.9541085637258, 45.40288008018572], [-65.95443489790848, 45.40281628257113], [-65.9545921620858, 45.40278553771607], [-65.95459768649116, 45.40278814760398], [-65.9550244582665, 45.402705623922294], [-65.95524584807504, 45.40266215102013], [-65.95567070211867, 45.40257961747275], [-65.95586137561999, 45.402542294040195], [-65.95591588347385, 45.4025317039395], [-65.95603989053201, 45.402507610268586], [-65.95634765012508, 45.40244790541492], [-65.95640971915246, 45.40243560583761], [-65.95681601116617, 45.40235702692035], [-65.95706362747458, 45.40230872759177], [-65.9574942379339, 45.40222486426644], [-65.95783509694552, 45.402158433470476], [-65.95786598171358, 45.402152414378754], [-65.9582377245391, 45.4020799632676], [-65.95860946385604, 45.40200751092071], [-65.9589812073276, 45.40193505737476], [-65.95935294729057, 45.40186260259314], [-65.95966278957899, 45.40180221126193], [-65.95968185382279, 45.40179849534265], [-65.95972468629934, 45.401790146588056], [-65.96009642435388, 45.40171768935952], [-65.96046880004867, 45.401645233952436], [-65.96074184351355, 45.40159204776996], [-65.96089939911117, 45.401561357639245], [-65.96098987040223, 45.401543777813906], [-65.96114572820986, 45.40151349315058], [-65.96159616043921, 45.401425659644026], [-65.96194869715693, 45.40135715397078], [-65.96203635225923, 45.40134002510344], [-65.96215929503826, 45.401316080739186], [-65.96217497174726, 45.40131302763007], [-65.96226860458589, 45.401294790578085], [-65.96239812427282, 45.401269582431496], [-65.96260706486024, 45.401228915291064], [-65.96275115152648, 45.40126427511056], [-65.96277024484363, 45.40126896092493], [-65.96291925541313, 45.401305528913795], [-65.96323144682128, 45.40138214167709], [-65.9633693779957, 45.4012496289622], [-65.96359947756581, 45.40102847515733], [-65.96399220967486, 45.40123098644871], [-65.96408693147592, 45.40107942954499], [-65.96410525569081, 45.40106152349787], [-65.96410623294355, 45.40106056896433], [-65.96429338578402, 45.40087784495899], [-65.96437632879561, 45.400796863616996], [-65.96474851678795, 45.40080987204644], [-65.96485408058652, 45.40078967649667], [-65.96486422235311, 45.40078773955439], [-65.96493408099225, 45.40077439961645], [-65.9651368622776, 45.40073567729615], [-65.9653767812082, 45.400689572866426], [-65.96556743462178, 45.40065313279153], [-65.96610289620672, 45.400352435906], [-65.96653090856229, 45.40053890886112], [-65.9667684870573, 45.40026829619871], [-65.96688341835284, 45.40013567083501], [-65.96709901683106, 45.40022936342615], [-65.96768094986426, 45.40048179063469], [-65.96788431130658, 45.40024970505335], [-65.96791079996304, 45.40021743766488], [-65.96826963057948, 45.40015703992078], [-65.96880563153462, 45.4000673304117], [-65.96913603182024, 45.40010937096936], [-65.96942228547115, 45.40043058414911], [-65.96967189532072, 45.40071023513865], [-65.96992150340604, 45.40099033545066], [-65.97017048387586, 45.40126953248995], [-65.97030571653723, 45.401421328072075], [-65.97057200653535, 45.40169385692367], [-65.97108153680108, 45.402246003195415], [-65.9713363014509, 45.40252252534649], [-65.97183699502713, 45.403065179237295], [-65.9718305708277, 45.40306919824451], [-65.97214791744332, 45.40341484353479], [-65.97287648312088, 45.40294898855388], [-65.97287715388424, 45.402948559786026], [-65.9733622396272, 45.4026381462575], [-65.97372500650988, 45.402412121394185], [-65.97379584977469, 45.40236798122333], [-65.97384141067768, 45.402545089104144], [-65.9738437164559, 45.40255405259978], [-65.97384822452247, 45.402571574210384], [-65.97385578862867, 45.40260645771731], [-65.97388840461782, 45.40275686031089], [-65.973890656264, 45.40276724070145], [-65.97395889465668, 45.40308190649047], [-65.97399637568375, 45.40325474329486], [-65.97402087937954, 45.40336598046654], [-65.97403435589781, 45.40342735656251], [-65.9740429298543, 45.40346640711508], [-65.97404724580302, 45.403487408158774], [-65.97404903790849, 45.40349612812237], [-65.97407809155011, 45.40362931847545], [-65.97408021401354, 45.40363904322444], [-65.97408577906502, 45.40366455705144], [-65.97408790145215, 45.40366624409871], [-65.97409526640139, 45.40367209988131], [-65.97416672898596, 45.40372891274936], [-65.9741725374629, 45.40373430240798], [-65.97420239182124, 45.4037604752633], [-65.97424986286573, 45.4038061345392], [-65.97429348541556, 45.40385357546768], [-65.97430677877253, 45.40386961815272], [-65.9743339022979, 45.40390235115139], [-65.97437111350732, 45.403952461593676], [-65.9744038417928, 45.404003900865014], [-65.97441318222927, 45.40402059820872], [-65.97441509438768, 45.40402359614709], [-65.97441766463842, 45.40402861084133], [-65.97445654712332, 45.40410447071593], [-65.97448392560533, 45.40417399131346], [-65.97450521695181, 45.40424455706834], [-65.97452034814074, 45.404315915707684], [-65.97452925661962, 45.404387788012876], [-65.9744653686725, 45.404390190638786], [-65.97446595120833, 45.404480116980146], [-65.97445672167872, 45.40456646792795], [-65.9744563661471, 45.40456979005009], [-65.97445528858053, 45.40457465103516], [-65.97443667113878, 45.40465864055557], [-65.97439252403996, 45.40481247898896], [-65.97436656119105, 45.404902949657846], [-65.97436537021805, 45.40490709749254], [-65.97435641838226, 45.40490795568487], [-65.97438580772646, 45.40504350852591], [-65.97439943839815, 45.40504920264007], [-65.97439145284883, 45.40508233039909], [-65.97440380870074, 45.405167311370654], [-65.9743765002095, 45.40528730464754], [-65.97426997949809, 45.4057499435111], [-65.97426242729955, 45.405782743956536], [-65.97425067556655, 45.40583378404839], [-65.97419941889544, 45.40605579061348], [-65.97415428105883, 45.40625139646373], [-65.97414196442587, 45.406304767039224], [-65.97412952124343, 45.406358690387634], [-65.9741168770686, 45.40641306808737], [-65.97411019983113, 45.40644407933513], [-65.97405427762023, 45.40668675900625], [-65.97389782899694, 45.40736536278647], [-65.97387224083509, 45.40747411494053], [-65.97386124402482, 45.40752085397345], [-65.9741236761567, 45.407628110699264], [-65.97416483047644, 45.40764492981147], [-65.97436006852863, 45.40772472297492], [-65.97466993232912, 45.407850780025434], [-65.97471383194281, 45.407868979341686], [-65.97491059263045, 45.40794921321129], [-65.9750675971697, 45.408013235505955], [-65.97508986643527, 45.40802233657064], [-65.97542136165455, 45.40815749145592], [-65.97542709122112, 45.40815976745716], [-65.97576431347706, 45.40829764541127], [-65.97577513308674, 45.408301744527854], [-65.97587744627475, 45.40834361806227], [-65.97610090290026, 45.4084350713378], [-65.97610662996807, 45.40843734729294], [-65.9764381284703, 45.40857294729071], [-65.97653462047148, 45.40861232880817], [-65.97680271814406, 45.40872174786963], [-65.97691905931816, 45.408769461879], [-65.9769725724606, 45.408791408231906], [-65.97702350491664, 45.408812296192956], [-65.97738937088891, 45.4089615488608], [-65.9777208755785, 45.40909714691297], [-65.97772660277977, 45.4090994227864], [-65.97789057378088, 45.40916680517094], [-65.97795107486344, 45.409191667982725], [-65.97800499943581, 45.40921382719082], [-65.97806319347367, 45.409237741733556], [-65.97822543868654, 45.40930507248156], [-65.97839978711468, 45.40937605878907], [-65.97848014339453, 45.40940933576388], [-65.97861017680557, 45.40946318371809], [-65.97872937102981, 45.4095125429971], [-65.97873637857661, 45.40951437572886], [-65.97893018738718, 45.40959416608729], [-65.97893024210542, 45.40959418883368], [-65.97907233684495, 45.40965268874835], [-65.97923331126852, 45.40971956230712], [-65.97940893418277, 45.4097910037062], [-65.97973724977551, 45.40992703014317], [-65.97974553318198, 45.40992931766624], [-65.98008213129613, 45.41006762971696], [-65.98024183743408, 45.41013404791935], [-65.98041873488718, 45.41020594258692], [-65.9807247925776, 45.41033196641122], [-65.98094941012377, 45.410424324172716], [-65.98118528000064, 45.410521400213696], [-65.98162262084041, 45.410701391830315], [-65.9817545646779, 45.4107637072995], [-65.98196794426948, 45.41086448295349], [-65.98827502304941, 45.413496680524695], [-65.99026614709085, 45.41432806161632], [-65.99038959320795, 45.414380354682876], [-65.9910558229737, 45.41466273319959], [-65.99135639817254, 45.41479016652594], [-65.99147457965654, 45.4148402707809], [-65.99189893312733, 45.41502573916164], [-65.99229777895883, 45.415207277363024], [-65.99199080203017, 45.41552981890587], [-65.99285245319271, 45.41589044455766], [-65.99292897942057, 45.41562175463012], [-65.9929672463213, 45.41548695977656], [-65.99334970852877, 45.415647033186076], [-65.99341039868807, 45.41566337217006], [-65.9934395174145, 45.415675778151474], [-65.99355610772253, 45.41570639476331], [-65.99362386388208, 45.415724187798915], [-65.99364670359816, 45.41572963736019], [-65.99374228725806, 45.41575244511165], [-65.9938379894745, 45.41577812359589], [-65.99388490705384, 45.41579071254401], [-65.9939155622308, 45.4157989377194], [-65.9939939583579, 45.41581997321676], [-65.99399359908867, 45.41582127898392], [-65.99397474479821, 45.41588986463491], [-65.99400173202497, 45.41590022834749], [-65.99408620640699, 45.41593267041672], [-65.99421352164899, 45.41598156464286], [-65.99478866518082, 45.41623922001967], [-65.99489873019111, 45.41628829919488], [-65.99533329755236, 45.4164805404455], [-65.99561585183962, 45.41659967069556], [-65.99608359715192, 45.416796555796715], [-65.996418338847, 45.416937511010026], [-65.996752443453, 45.417078462395985], [-65.99708654973959, 45.417219412798794], [-65.9971699188951, 45.41725442460146], [-65.99739590564505, 45.41734407163467], [-65.99741880454889, 45.41735315578692], [-65.99744277480039, 45.41736415851397], [-65.99744552567145, 45.4173654214175], [-65.99745611162777, 45.41736987462588], [-65.99779682203915, 45.417513194364346], [-65.99783651111841, 45.41753001992381], [-65.99785473350637, 45.41753774527056], [-65.99818884274836, 45.417678692418484], [-65.99825885244525, 45.41770779563793], [-65.99829357443085, 45.41772219301555], [-65.99830751541083, 45.41772794589655], [-65.99855735250745, 45.4178310381964], [-65.99861659012869, 45.417855663869794], [-65.99862863485396, 45.41786059671271], [-65.99864346267618, 45.417866766477886], [-65.99872036204273, 45.417898411205144], [-65.99889149593416, 45.41796883419955], [-65.99904360702816, 45.41803204201111], [-65.99908943888346, 45.41805024038441], [-65.99913860845592, 45.418072243363994], [-65.99919634922227, 45.41809615218534], [-65.99948913114306, 45.418216217758555], [-65.99987652487425, 45.41782697811621], [-65.9998212354956, 45.417794791747895], [-65.99953326845676, 45.417637828749314], [-65.99951418429882, 45.417627425730636], [-65.99950978864499, 45.4176250659758], [-65.9994377875633, 45.41758640091085], [-65.99944309033434, 45.41757672388982], [-65.99947229569634, 45.41754213614006], [-65.99950108137205, 45.417508045002194], [-65.99956382142473, 45.417433743695824], [-65.99979866951884, 45.41717294739499], [-65.99975604404523, 45.41715341381827], [-66.00005365623551, 45.416802467014406], [-66.00010530270973, 45.41674151045436], [-66.00031770846653, 45.41648961170179], [-66.00031741191466, 45.41648948532367], [-66.0003177124712, 45.416489161831926], [-66.00042421399614, 45.41636546306373], [-66.00062496308931, 45.41613105789604], [-66.00066814931412, 45.416080176321096], [-66.00068878892215, 45.416055858288786], [-66.0006888728495, 45.41605575878406], [-66.00078942639044, 45.41609804013953], [-66.00096196169731, 45.416170589662315], [-66.00112353974286, 45.41623853055839], [-66.0014582908336, 45.4163794708841], [-66.00179368636783, 45.41651996316498], [-66.00182741197449, 45.416534508033415], [-66.0018272428847, 45.41653470254032], [-66.00231386712166, 45.416744489233785], [-66.00270138207563, 45.41691127449286], [-66.0027058837263, 45.416913215294194], [-66.0028483994381, 45.41697492538643], [-66.00309890717583, 45.41708291706843], [-66.00310674520891, 45.41713083481019], [-66.00311398310825, 45.41717900455264], [-66.00951760258116, 45.41923945696978], [-66.00955204770594, 45.41975606345756], [-66.0096013910749, 45.4204961089655], [-66.00964432145932, 45.42113995423505], [-66.0098730015009, 45.42476218797897], [-66.00990912146936, 45.42533429336571], [-66.00999565297907, 45.42670478280824], [-66.00996773905939, 45.426825365822296], [-66.00864370561607, 45.43254430765776], [-66.00590682595013, 45.43633484123082], [-66.0038805747039, 45.439072540521295], [-66.00164251020404, 45.44181729754314], [-66.00074925993351, 45.44284877721099], [-65.9994302691177, 45.44429728518893], [-65.99651453799562, 45.44587695564185], [-65.99588482284133, 45.44625205853069], [-65.99489509139275, 45.446859493586075], [-65.99345503007133, 45.44778882482322], [-65.99124150007766, 45.44949746864256], [-65.98949002891588, 45.450848244056395], [-65.98811400302772, 45.45181378751029], [-65.9870714930341, 45.45246450819177], [-65.9863476906805, 45.45291628140263], [-65.98570965388184, 45.45331451253982], [-65.9825248519323, 45.454865608553185], [-65.97930344245228, 45.456209498643645], [-65.97580120539752, 45.457489013171404], [-65.9726345170866, 45.458419070754445], [-65.96992662050273, 45.45949560303707], [-65.96887389733772, 45.459949554884], [-65.96779550118137, 45.46041237405745], [-65.96665281794657, 45.460910871201285], [-65.96563358680955, 45.46137182330011], [-65.9642317776444, 45.46200577121883], [-65.96340390512557, 45.46238014960288], [-65.96240213219713, 45.462843280745695], [-65.96119464365965, 45.463422395130706], [-65.96019257400923, 45.46391249867741], [-65.95958876659158, 45.464206544321335], [-65.95733821629005, 45.46553644621463], [-65.95634711666317, 45.46620652370668], [-65.9544033821523, 45.467528842655895], [-65.9537861924998, 45.46787677960084], [-65.95271898909148, 45.46847447624773], [-65.95135712817202, 45.46912472204575], [-65.95026491806166, 45.4696592901522], [-65.94923627095675, 45.470230148037025], [-65.94825831059198, 45.47084623245171], [-65.94825058930066, 45.470851143596576], [-65.94681723403673, 45.47180196186851], [-65.94545246439377, 45.47273105350663], [-65.94449972770538, 45.47337422247892], [-65.94352121379097, 45.47403525233292], [-65.94260661931452, 45.4746965884549], [-65.94170497115782, 45.47533998553821], [-65.94032607372137, 45.47638591707966], [-65.93929477156813, 45.477199611750244], [-65.93836674533564, 45.47791483394339], [-65.9308309501266, 45.48446357355974], [-65.927687147348, 45.4879472178845], [-65.92643901582245, 45.48933012567424], [-65.91751880063822, 45.499211173055], [-65.91696483147054, 45.499824673624495], [-65.91609141042765, 45.50079192261891], [-65.91602918396006, 45.5008082476681], [-65.91593924772194, 45.500843775000895], [-65.91575928104976, 45.50092382673985], [-65.91563077334452, 45.50097715039674], [-65.91545061799575, 45.50107519621948], [-65.91520601978873, 45.50121789789758], [-65.91501288043875, 45.50133387153165], [-65.91478135659688, 45.501449646508014], [-65.91467834187983, 45.50151209858452], [-65.91454983179896, 45.50156542100842], [-65.91425414476842, 45.501698858771384], [-65.91412553973777, 45.5017611779981], [-65.91402252371768, 45.501823629474494], [-65.91398376320585, 45.501859420022335], [-65.91380369631221, 45.501948465923384], [-65.91368788489874, 45.50201085087107], [-65.91357216743604, 45.50206423841401], [-65.9132770409869, 45.50214368989938], [-65.91304560451191, 45.50225046402332], [-65.91294277501026, 45.50229491994199], [-65.91285274010967, 45.502339442096805], [-65.9126340024471, 45.502455278988414], [-65.9125568562167, 45.50249086997556], [-65.91233858939214, 45.50256171987226], [-65.91210705496069, 45.502677489352656], [-65.91201701878248, 45.502722010839655], [-65.91199124015435, 45.502739872556155], [-65.91178548302526, 45.502837779658954], [-65.91166976204622, 45.50289116524857], [-65.91156693027975, 45.50293561991188], [-65.91138666696986, 45.503042656515966], [-65.91127094518836, 45.503096041695876], [-65.91115531778607, 45.50314042947449], [-65.91105257977097, 45.50317588638607], [-65.91092406243284, 45.50322920467616], [-65.9107183963158, 45.503318112548314], [-65.9104611706853, 45.503442742783115], [-65.91024232903145, 45.50356757231148], [-65.91010082543372, 45.5036388175996], [-65.90999799105319, 45.50368327083131], [-65.90970190269131, 45.50385268577215], [-65.90957300309634, 45.50394199164312], [-65.90949556827381, 45.50400457237494], [-65.90935339838488, 45.50413879768443], [-65.90919852753096, 45.50426395879124], [-65.90897911014368, 45.50444276953966], [-65.90886300329532, 45.504532141362525], [-65.90878382329224, 45.50457806661904], [-65.90872216046579, 45.50454040396152], [-65.90864576893289, 45.50450401403685], [-65.90862473752645, 45.50449625611832], [-65.90854378701397, 45.50446749042939], [-65.90852277464057, 45.504457933036235], [-65.90844190026698, 45.50442196945161], [-65.90839530222073, 45.50441182851068], [-65.90831423312505, 45.50439430925667], [-65.908250352067, 45.50438497774462], [-65.90816751590512, 45.50435305271251], [-65.90808467983788, 45.504321127620045], [-65.90795094841285, 45.504261943107636], [-65.90781721727095, 45.50420275843791], [-65.90768988399577, 45.5041436070678], [-65.90764341003452, 45.50412176935707], [-65.90756255098995, 45.50408445555516], [-65.90750966051593, 45.504064383781206], [-65.90742872548336, 45.50403426770631], [-65.9073758351049, 45.50401419587007], [-65.90729490021717, 45.50398407969986], [-65.90726107882715, 45.50397580470633], [-65.9071800297688, 45.503956485187246], [-65.907158998772, 45.50394872699746], [-65.90707804980761, 45.50391996026436], [-65.90703788808979, 45.50390625334664], [-65.90695692495797, 45.50387883611883], [-65.90691676329945, 45.50386512915829], [-65.9068358002867, 45.50383771184412], [-65.90681477891228, 45.503829053862944], [-65.90673386842315, 45.50379668797384], [-65.90671284707993, 45.50378802997381], [-65.90663193670923, 45.50375566401215], [-65.9066045512261, 45.50374382342865], [-65.90652365528385, 45.5037101077984], [-65.90649626984597, 45.50369826718882], [-65.90641537403495, 45.50366455148154], [-65.90637523173706, 45.503649044874315], [-65.90629429791767, 45.503618927991404], [-65.90625415568616, 45.50360342134143], [-65.90617322199813, 45.50357330437232], [-65.90610943764972, 45.5035549743796], [-65.90603755127742, 45.50351635686534], [-65.90595675621361, 45.503473193691825], [-65.90590586250076, 45.503445933417055], [-65.90579156661703, 45.503364353844994], [-65.90577824166537, 45.50335393649318], [-65.90570271778668, 45.50329640434961], [-65.9056893928677, 45.50328598698739], [-65.90561386917184, 45.50322845478493], [-65.90557586629255, 45.50319226423379], [-65.90542347318585, 45.503083491004155], [-65.90533448194604, 45.503029037134716], [-65.9053123440316, 45.503005076789904], [-65.90525857241416, 45.50294765855824], [-65.90524337620192, 45.502932732428164], [-65.90518256754426, 45.5028752772064], [-65.9050937680143, 45.502802828598696], [-65.90507473342933, 45.50278788228426], [-65.90499857129414, 45.502730346313605], [-65.9049795367592, 45.502715399983295], [-65.90490337482034, 45.502657863949], [-65.90487990995183, 45.50263839543489], [-65.90480822640171, 45.50258088286744], [-65.90478476159848, 45.502561414333805], [-65.90471307824453, 45.502503901706504], [-65.9046820322746, 45.502475395527505], [-65.90461802599663, 45.50241792319155], [-65.90458698012264, 45.502389416986674], [-65.90452297404032, 45.50233194459739], [-65.90448497247321, 45.502295753682645], [-65.90448370734967, 45.50229439736403], [-65.90440882596475, 45.502236867726694], [-65.90440756084438, 45.502235511407214], [-65.90433267961636, 45.50217798171985], [-65.90432063468903, 45.5021675709268], [-65.90425023178489, 45.502110064737714], [-65.90423818688747, 45.502099653935936], [-65.90416778415326, 45.5020421476959], [-65.9041494855297, 45.502018207318386], [-65.90410467231317, 45.50196083566098], [-65.90408637374303, 45.50193689527336], [-65.90404156065593, 45.50187952359123], [-65.9040194237478, 45.50185556299548], [-65.90394745185283, 45.501765206470644], [-65.90391543364888, 45.50170790207317], [-65.90389013172968, 45.50168077557189], [-65.90388443640715, 45.50167489704018], [-65.90382682915228, 45.50161745793105], [-65.90382113384281, 45.501611579396155], [-65.90376352671784, 45.50155414025507], [-65.9037383207284, 45.50151801644646], [-65.90373705564043, 45.501516660119556], [-65.90367497060761, 45.50145919735819], [-65.90367370552252, 45.501457841030565], [-65.90361162061978, 45.50140037823473], [-65.90359332244272, 45.50137643776807], [-65.9035485103072, 45.50131906589238], [-65.90353843279608, 45.50130416648696], [-65.90349809884864, 45.50124681817473], [-65.90348568765776, 45.501210761695006], [-65.90348570203177, 45.501209412103975], [-65.9034607215778, 45.501152144641594], [-65.90346073595238, 45.50115079505059], [-65.90343575554981, 45.50109352758277], [-65.90342513422212, 45.50106962752432], [-65.90339823472512, 45.50101234993926], [-65.90338761342868, 45.500988449877354], [-65.90336071400866, 45.50093117228346], [-65.90334433525439, 45.500907241887056], [-65.90330400178985, 45.50084989350632], [-65.90328762308346, 45.5008259631018], [-65.9032472897352, 45.50076861470107], [-65.90323721240266, 45.500753715269084], [-65.90319687915778, 45.50069636685054], [-65.90317186566915, 45.500642248370646], [-65.90316439518887, 45.50062286377999], [-65.90314069475656, 45.50056560298995], [-65.90313322429716, 45.500546218397254], [-65.90310952392878, 45.50048895760076], [-65.90310702738965, 45.50048309588743], [-65.9030782093506, 45.50042580811266], [-65.90307571281754, 45.50041994639867], [-65.90304689484272, 45.500362658615984], [-65.90303937649442, 45.50034777265372], [-65.90300927916569, 45.50029047811787], [-65.90298436194263, 45.50022736232393], [-65.90296123443667, 45.500176402959866], [-65.90293433583905, 45.50011912526562], [-65.90290729342112, 45.50007534347445], [-65.90290604277324, 45.500072637547404], [-65.90276953100232, 45.49979568596435], [-65.90254547434009, 45.49920964860713], [-65.90236028403326, 45.49857882699116], [-65.90228582502017, 45.49836248735039], [-65.90223695415341, 45.498146282716085], [-65.90218817968676, 45.49792108078799], [-65.90216499297702, 45.4976960139095], [-65.90216969840215, 45.49725514755296], [-65.90230963489654, 45.49613116369764], [-65.90247793501932, 45.49474639369186], [-65.90250400088308, 45.494701542314964], [-65.90251727371384, 45.4946566234402], [-65.90253064248668, 45.49460270729007], [-65.90255718803643, 45.49451286953217], [-65.90255881933422, 45.494359915879016], [-65.90254650621249, 45.49431486202207], [-65.90254698601319, 45.4942698756534], [-65.90253476888229, 45.49421582452147], [-65.90250966293088, 45.494170703169594], [-65.90249734988953, 45.49412564930731], [-65.90242203236689, 45.49399028521046], [-65.90238413377818, 45.49394509632742], [-65.90234613925915, 45.4939089047054], [-65.90230824078654, 45.49386371579717], [-65.90227024637159, 45.49382752414988], [-65.90221945921272, 45.49379126496498], [-65.90218146490417, 45.49375507328813], [-65.90117516308906, 45.49334485667], [-65.90103521311457, 45.493272134329615], [-65.90090805615927, 45.49319947949113], [-65.90079378841148, 45.49311789492583], [-65.90066672837871, 45.49303624254603], [-65.90046397232729, 45.492855213723466], [-65.90036269109963, 45.492755701905644], [-65.90027420276166, 45.49265625774336], [-65.90019850724477, 45.49255688126639], [-65.90012290834059, 45.49244850746817], [-65.89998382927408, 45.4922948083964], [-65.89985763976799, 45.49213217967651], [-65.89974424336546, 45.49196961862218], [-65.89972381292627, 45.49193868303173], [-65.8996309440414, 45.4917980601847], [-65.89958555196631, 45.49170934794597], [-65.89954322999692, 45.49162663729119], [-65.89946840518897, 45.49144628489576], [-65.89940637307141, 45.49126600029392], [-65.89935713352043, 45.491085783506605], [-65.89907381918114, 45.49006753110549], [-65.89873635490676, 45.48932792171664], [-65.89872404594678, 45.489282867449425], [-65.89847603672466, 45.48873133594994], [-65.8984741517901, 45.48872817671366], [-65.89841140126677, 45.488615371094944], [-65.89835504678442, 45.48850259942154], [-65.89830513661747, 45.4883853630681], [-65.8982680181831, 45.4882681946624], [-65.89823729565182, 45.48815106023096], [-65.89821941303875, 45.48802949513126], [-65.89820148218101, 45.48791242866346], [-65.89819639113495, 45.487790931535244], [-65.89820409149767, 45.48766950238298], [-65.89821760767555, 45.487602090835246], [-65.89823756781672, 45.487530214636934], [-65.89825747959038, 45.487462837069764], [-65.89828378697857, 45.487395493482346], [-65.89831648995829, 45.48732818387015], [-65.89835554019885, 45.487265406862576], [-65.89839463865614, 45.487198131206185], [-65.89844643168412, 45.48713992075481], [-65.8984918772737, 45.4870771776731], [-65.89860825402235, 45.48696082458639], [-65.89867278954026, 45.486907180594216], [-65.89888543732619, 45.48675984614971], [-65.89896266699994, 45.4867152671591], [-65.89904624388011, 45.48667522069111], [-65.89912134110966, 45.486635035590965], [-65.89932928924443, 45.48652376009009], [-65.8995932428529, 45.48636319978012], [-65.89985094398034, 45.48618910904833], [-65.900089505153, 45.48601041744815], [-65.90031541827717, 45.48581816169647], [-65.9004189976775, 45.48570173899304], [-65.90050983386297, 45.48558074984368], [-65.900594322337, 45.485455228131535], [-65.90066606769291, 45.48532514002286], [-65.90073141730058, 45.48519501802332], [-65.90078402391535, 45.485060329666126], [-65.9008238395094, 45.484925573605864], [-65.90085725954258, 45.48479078369379], [-65.90085961661575, 45.48457035049092], [-65.90083639239617, 45.484349781936736], [-65.9008067249559, 45.48413367817436], [-65.90068983355947, 45.483701166022385], [-65.90060895714497, 45.48348929006234], [-65.90050889575407, 45.48327731247731], [-65.90039594849848, 45.48307426435332], [-65.90027021176192, 45.48287114837893], [-65.90012519423956, 45.48267692790715], [-65.89976626195465, 45.48215315446271], [-65.89971577611752, 45.482089902357956], [-65.89967168544538, 45.482026684134425], [-65.899596390875, 45.48189131817973], [-65.89957153378177, 45.481823703002505], [-65.89954672495327, 45.48175158918355], [-65.89952186798114, 45.481683973995544], [-65.89950984928517, 45.48161192799139], [-65.89949860195927, 45.48146790380583], [-65.89949937329645, 45.48139592562568], [-65.89962521575029, 45.48099169263361], [-65.89977653955275, 45.48059659235791], [-65.89996618209845, 45.480206193832004], [-65.90017495823584, 45.479820395240246], [-65.90058524100961, 45.47912973848954], [-65.90063702426794, 45.47907152700225], [-65.9007661692683, 45.47895523932128], [-65.90083069346883, 45.4789015940623], [-65.90098522406157, 45.47880343602384], [-65.90106244107531, 45.47875885556244], [-65.90114600456798, 45.47871880750496], [-65.9012550985598, 45.47868339327806], [-65.90137693369434, 45.47865254519634]]]]}}]}