{"type": "FeatureCollection", "features": [{"type": "Feature", "geometry": {"type": "Polygon", "coordinates": [[[-98.3191391454455, 49.9781985427657], [-98.319139269454, 49.9782984690285], [-98.3191426342843, 49.9799674518246], [-98.3191431068081, 49.9802403384654], [-98.3191435155058, 49.9804584500767], [-98.319144095748, 49.9807335858752], [-98.3191474484942, 49.9824132709927], [-98.3191490444445, 49.9832390369914], [-98.3191617623715, 49.989749642301], [-98.3191759820058, 49.9969439859269], [-98.3069960142585, 49.9969702740645], [-98.3043147594216, 49.9969580062712], [-98.3009165227077, 49.9969425280711], [-98.2984368751433, 49.9969310691391], [-98.2981558872119, 49.9969297295756], [-98.2976971523072, 49.9969276733564], [-98.2976289283004, 49.9969273503275], [-98.2971701947732, 49.9969252020913], [-98.2969140405567, 49.9969240099453], [-98.29645530581, 49.9969219488167], [-98.296387081827, 49.9969216250576], [-98.2959283471471, 49.9969195618457], [-98.2956468026705, 49.9969181228863], [-98.2952120698574, 49.9969158427769], [-98.294998749396, 49.9969147266951], [-98.2945721098308, 49.9969124034211], [-98.2945082108374, 49.9969121048521], [-98.2940815713377, 49.9969097797746], [-98.2938682509508, 49.9969086616145], [-98.2934416115368, 49.9969063341841], [-98.2933733876145, 49.9969060086531], [-98.2929467482667, 49.9969036794032], [-98.2926712031702, 49.9969022697815], [-98.288024630146, 49.9968769983162], [-98.2861521909404, 49.9968667526574], [-98.2856769632825, 49.9968642380383], [-98.2853661600758, 49.9968624536861], [-98.2746949032019, 49.9968040619232], [-98.2741424049898, 49.9968010071066], [-98.2741161956169, 49.9904244623773], [-98.2741141498957, 49.9899393926865], [-98.2741130322568, 49.9896682125209], [-98.2666236308148, 49.9896807435603], [-98.2622233523681, 49.9896881032496], [-98.262153595017, 49.9896883791831], [-98.2618049532555, 49.9896893993761], [-98.260232086987, 49.9896941317972], [-98.2541819793575, 49.9897120615035], [-98.2481318721177, 49.9897295857625], [-98.2477702546333, 49.989730659575], [-98.2457950342759, 49.9897362745288], [-98.248095282817, 49.987897768667], [-98.2495384704106, 49.9867440816383], [-98.2496568898595, 49.9866494091193], [-98.2501310770912, 49.986270310985], [-98.2514357930785, 49.9852273133957], [-98.2522935671231, 49.9845415496876], [-98.2554084955294, 49.9820510285414], [-98.2571877647266, 49.980628306837], [-98.2572400580101, 49.9798409282695], [-98.2572491649209, 49.9797023857059], [-98.2573439192276, 49.9782766893486], [-98.2573620832566, 49.9780027517873], [-98.2575160560405, 49.9756829586273], [-98.2575264266409, 49.9755256261096], [-98.2575342165719, 49.9754091108414], [-98.2575672685542, 49.974910682647], [-98.257586699337, 49.9746176852505], [-98.2575906777114, 49.9745585287174], [-98.257687989117, 49.9730921033875], [-98.2577154325116, 49.9726770155542], [-98.2577433822551, 49.9722561746202], [-98.2578066503428, 49.971297974583], [-98.2581494543807, 49.9661161613879], [-98.2585546262405, 49.9600093235151], [-98.2586662626773, 49.9583238522349], [-98.2590334248004, 49.9527863996795], [-98.2586647882446, 49.951690579099], [-98.2580491824717, 49.9498604952517], [-98.2578050555687, 49.9491347010575], [-98.2580391291644, 49.9493171415456], [-98.2584052308641, 49.9495538534552], [-98.2587370892045, 49.9497353472537], [-98.2591529171219, 49.9499343432082], [-98.2598189751385, 49.9502211950559], [-98.2613956015931, 49.9508261794122], [-98.2624238193535, 49.9511182898331], [-98.2631599282014, 49.9512181580353], [-98.2639719714749, 49.9511757186797], [-98.2650085421022, 49.9509205208082], [-98.2661958674387, 49.9504520908266], [-98.2672757862305, 49.9497687944888], [-98.2679511150753, 49.9490115425197], [-98.2682565819608, 49.9483233467012], [-98.2683078770023, 49.947371776155], [-98.2682452434146, 49.9468476604365], [-98.2681028522209, 49.9462996005466], [-98.2677463732871, 49.9454882401127], [-98.2670978094338, 49.9444846542861], [-98.2665419840568, 49.9439557371505], [-98.2662576675493, 49.9437373830395], [-98.265822083565, 49.9435008935825], [-98.2645022913474, 49.9429927871613], [-98.2630870024961, 49.9425099984203], [-98.2620738217993, 49.9422108482336], [-98.2610277967805, 49.941890063644], [-98.2601156134079, 49.9414987304839], [-98.2595786479447, 49.9411668996043], [-98.2591305598202, 49.9408106469507], [-98.2585089560393, 49.9402283977127], [-98.2580867895566, 49.9396260037707], [-98.2579480428642, 49.9392967117271], [-98.2578464112915, 49.9389997836514], [-98.2577875049991, 49.9385139396246], [-98.2578152186586, 49.9381500168477], [-98.2579090745218, 49.9378007956704], [-98.258013880325, 49.9374587832098], [-98.258353423925, 49.9369569252656], [-98.2586055159837, 49.9367465453509], [-98.2588747907689, 49.9365493415744], [-98.259086173779, 49.9364188323302], [-98.2593363922789, 49.9363320994337], [-98.2595581391456, 49.9362978187753], [-98.2598679281298, 49.9362926572978], [-98.2601550519541, 49.9363230460224], [-98.2604202619764, 49.9363660652825], [-98.2607395940789, 49.9364338618771], [-98.26107052274, 49.93649308437], [-98.2616225427428, 49.9365608524006], [-98.2621528816132, 49.9365999239338], [-98.2627610782764, 49.9366109302209], [-98.2631366850727, 49.9366418748526], [-98.263600012845, 49.9367233483714], [-98.264216770569, 49.9368986045387], [-98.2647779053406, 49.9370949220101], [-98.2652742030897, 49.9371908762292], [-98.2657602026661, 49.9372367891185], [-98.2663884244532, 49.9372407643744], [-98.2673511267042, 49.9372270198652], [-98.2680923503703, 49.9372086940812], [-98.2687668021628, 49.9372250517731], [-98.2698832471777, 49.9372770951691], [-98.2706344826491, 49.9373389353777], [-98.2711207044143, 49.9373705496736], [-98.2715633301312, 49.9373590519959], [-98.2722588835977, 49.9372991649944], [-98.272856049641, 49.9372192689831], [-98.276116204606, 49.9367107987159], [-98.278483563388, 49.9357011017863], [-98.280767323433, 49.9352457850236], [-98.283162733744, 49.9349638035422], [-98.2847799324147, 49.935326519489], [-98.2849428223907, 49.9354352365813], [-98.2851066085117, 49.9355790312381], [-98.2852408034857, 49.9357293053631], [-98.2853744643399, 49.9359157492064], [-98.2854534589178, 49.9360590199901], [-98.2855031233427, 49.9361911631069], [-98.2855304145717, 49.9363403033704], [-98.2855243877683, 49.936498518676], [-98.2855003322562, 49.9366292560433], [-98.2854723486031, 49.9367456458248], [-98.2854298013253, 49.936910820748], [-98.2853923040697, 49.9370984117096], [-98.2853810543313, 49.9372151267194], [-98.2853794353786, 49.9373245851241], [-98.2853855775696, 49.9374079135189], [-98.2853953011984, 49.9374984036306], [-98.2854159085476, 49.9376008593162], [-98.2854403508045, 49.9376933441886], [-98.2854648903032, 49.937779165798], [-98.2855112353938, 49.9378865397855], [-98.2855577918076, 49.9379796366496], [-98.2856334915901, 49.9380967100341], [-98.2857193978456, 49.9382283287953], [-98.2858718907489, 49.9384318169571], [-98.2859731892119, 49.9385633261199], [-98.286063813712, 49.9386685925676], [-98.2862087214946, 49.9388432051463], [-98.2863067915586, 49.9389437583502], [-98.2864707165522, 49.9390792222285], [-98.2866346235146, 49.9392158748017], [-98.2867760248687, 49.9393785665656], [-98.2869997611195, 49.9397088220386], [-98.2872571472312, 49.9400078713637], [-98.2874018597355, 49.940196283798], [-98.2874562105577, 49.940261346741], [-98.28751812409, 49.9403136051063], [-98.2876131442161, 49.9403713023437], [-98.2876784575771, 49.9404430963621], [-98.2877400839055, 49.9405148668017], [-98.2877902992812, 49.9406103641679], [-98.2878402692954, 49.9407225191824], [-98.2879014402445, 49.9408252234106], [-98.2879773942155, 49.9409256384725], [-98.2881998098271, 49.9411464151138], [-98.2884390548037, 49.9414263122259], [-98.288620570879, 49.941620184415], [-98.2888822900664, 49.9418766597445], [-98.2891303879783, 49.9420566609123], [-98.2893530989934, 49.9422079483177], [-98.2895949491317, 49.9423624897124], [-98.2898345662986, 49.9424667192118], [-98.2901279308953, 49.9425779832904], [-98.2905061366089, 49.9426873848384], [-98.2908893778342, 49.9427554090526], [-98.2912979923096, 49.9428031214915], [-98.291677249195, 49.9428411345851], [-98.2920243039959, 49.9428622916158], [-98.2924334084976, 49.9428766865009], [-98.2930196043626, 49.9428850207468], [-98.2937175695741, 49.9428654749956], [-98.2942563533299, 49.9428378178589], [-98.2946884153456, 49.9427952309229], [-98.2949426504029, 49.9427587012087], [-98.2953465500931, 49.9426775981], [-98.2955089058409, 49.9428821666975], [-98.2956133908748, 49.9430138683156], [-98.2969852798533, 49.9447430331165], [-98.2970569113143, 49.9448333162718], [-98.2976100457632, 49.9455304597151], [-98.2984927183327, 49.9466419669124], [-98.2986467512452, 49.9466504535586], [-98.2988032654466, 49.9466608437931], [-98.2989438837575, 49.9466716773976], [-98.2990686126959, 49.9466825047566], [-98.2992086332029, 49.9466961226456], [-98.2993483554818, 49.9467110877018], [-98.2994876375658, 49.9467275789539], [-98.2996264807715, 49.946745506469], [-98.2997495870257, 49.946762529331], [-98.2999028532029, 49.9467854904249], [-98.3000706921207, 49.9468127665514], [-98.3002226508607, 49.9468394069757], [-98.3003737487976, 49.9468677509164], [-98.300523985946, 49.9468977983767], [-98.3006735016903, 49.9469295502003], [-98.3008071515359, 49.9469596771704], [-98.3009549483559, 49.9469946561991], [-98.3010870251399, 49.9470275615833], [-98.3012328243425, 49.9470657661506], [-98.301377484094, 49.9471056725788], [-98.3015211450785, 49.9471471917767], [-98.3016778213763, 49.9471947253599], [-98.3137053905393, 49.950938232985], [-98.3111520413722, 49.9525652662831], [-98.3103482587182, 49.9523121592389], [-98.3085210714912, 49.9517932866066], [-98.3063809483084, 49.9511602660738], [-98.3055196441723, 49.9508296108317], [-98.303982502254, 49.9519644653335], [-98.3068562799264, 49.9531028955498], [-98.3079434741759, 49.9531021017052], [-98.3083639107433, 49.9531017311858], [-98.3083649209332, 49.9536443596641], [-98.3083946524867, 49.9536513725569], [-98.3087979717624, 49.9537466870381], [-98.3092125627247, 49.9538727375908], [-98.3096767505564, 49.9540205780551], [-98.3101159130698, 49.9541736643625], [-98.3105049461809, 49.9543425507219], [-98.3109686830888, 49.9545225826763], [-98.3113991085184, 49.9547024150222], [-98.3118872666884, 49.954920274099], [-98.312251131182, 49.9551051049347], [-98.3126391232429, 49.9553383766328], [-98.3129860372592, 49.9555392043761], [-98.3133329528845, 49.9557401210217], [-98.3136969058038, 49.9559195512591], [-98.3140356932756, 49.9561042280701], [-98.3143997407498, 49.956267556964], [-98.3146972211746, 49.9564358879986], [-98.3149287700756, 49.9565447367949], [-98.3151728107088, 49.9566477226803], [-98.3152044086846, 49.9566609508579], [-98.3151968058884, 49.9566662125719], [-98.3152449577571, 49.9567114679867], [-98.3154120110959, 49.9568266807415], [-98.3155348908162, 49.9569110522232], [-98.3156312595025, 49.9569970660134], [-98.3156723783741, 49.9570467768695], [-98.3158171298401, 49.9571618574608], [-98.3159618819952, 49.9572769378721], [-98.3160308051616, 49.9573322090917], [-98.3161295559555, 49.9574470180421], [-98.3161473851252, 49.9574678098816], [-98.3161534635149, 49.9575308053282], [-98.3163196902322, 49.9575767563054], [-98.316343814252, 49.9575960561954], [-98.3179139887501, 49.9575986437981], [-98.3179245816485, 49.9576086896793], [-98.3179300751319, 49.95761456823], [-98.3180674333032, 49.957750199303], [-98.3181733650639, 49.9578702653629], [-98.3183688964006, 49.9580922228141], [-98.3186290677862, 49.9584066605265], [-98.3186700540753, 49.9584561896372], [-98.319004920341, 49.9588423893999], [-98.3193051745498, 49.9592612139903], [-98.3195372318264, 49.9597016735965], [-98.3197524400017, 49.9601310609396], [-98.3198510614932, 49.9604342049522], [-98.3198991724838, 49.9605819023699], [-98.3200288981824, 49.9610327338302], [-98.320124130823, 49.961527254761], [-98.320139347372, 49.9616941867753], [-98.3201683547699, 49.9620105036946], [-98.3201386578222, 49.9622480469413], [-98.3201108362274, 49.9624712104083], [-98.3200203970722, 49.962843850555], [-98.3197929404869, 49.9632925878536], [-98.3196179155174, 49.9636318127856], [-98.3193919997359, 49.9639707388691], [-98.3193187571757, 49.9640631276716], [-98.3192883701363, 49.9641015363651], [-98.3205122232593, 49.9648006366503], [-98.3209466953585, 49.9650487228448], [-98.3215828492639, 49.9654120336989], [-98.3217735989489, 49.9655210796684], [-98.3284710446881, 49.9693457063302], [-98.3290886342555, 49.9696983448764], [-98.329512816743, 49.9699405828284], [-98.3335211835045, 49.9722290505199], [-98.3340007565966, 49.9725028899068], [-98.3344118452753, 49.9727374794466], [-98.3347103051121, 49.9729078326767], [-98.3350617612787, 49.9731085295289], [-98.3355388628611, 49.9733808193067], [-98.3357522311003, 49.9735026534025], [-98.336103282543, 49.973702984979], [-98.336473015388, 49.973914125427], [-98.3371186747454, 49.9742826211365], [-98.3371990703308, 49.9743285911211], [-98.3387614762145, 49.97522031251], [-98.3386663251701, 49.9752152478579], [-98.3384359818038, 49.9752013426802], [-98.3381945329074, 49.9751836860725], [-98.3379535432727, 49.975163063498], [-98.337731674941, 49.9751413803337], [-98.3376025823807, 49.9751275118012], [-98.3374737799155, 49.9751128353038], [-98.3373211829874, 49.9750942451866], [-98.3371537241023, 49.9750723653224], [-98.3369728502039, 49.9750465392451], [-98.3367628036506, 49.9750122831424], [-98.3365475161106, 49.9749731766964], [-98.3361566461915, 49.9748969643645], [-98.3356657138301, 49.9747986006789], [-98.3341423400754, 49.974491294035], [-98.3340442542142, 49.9746864816614], [-98.3339708316094, 49.9748326655963], [-98.3352430390256, 49.9755595880777], [-98.3364674040157, 49.9762592402456], [-98.3368490560415, 49.9764773730675], [-98.3386308866341, 49.9774954338639], [-98.3365064781202, 49.977474579357], [-98.3350367969097, 49.9774601387607], [-98.3336559462035, 49.977446639496], [-98.3322539010993, 49.9774328219228], [-98.3308942500878, 49.9774194117998], [-98.3297471233118, 49.9774081131741], [-98.3286849227965, 49.9773976544267], [-98.3277501483437, 49.97739080254], [-98.3267303633497, 49.9773892060936], [-98.325668042251, 49.9773874433918], [-98.3245633220156, 49.9773856939474], [-98.3236496720855, 49.9773842385795], [-98.3227785597808, 49.9773828444483], [-98.3218225120643, 49.9773813070735], [-98.3204790249765, 49.9773791121069], [-98.3191375361685, 49.977376845852], [-98.3191391454455, 49.9781985427657]]]}, "properties": {"district_id": "Portage la Prairie", "muni_name": "CITY OF PORTAGE LA PRAIRIE"}}]}