{"type":"FeatureCollection","features":[{"type":"Feature","id":1,"geometry":{"type":"Polygon","coordinates":[[[-79.785988562964661,43.33879667012382],[-79.787500561023094,43.339841491282606],[-79.788155869128403,43.340388706017173],[-79.788495385754103,43.340600792243102],[-79.789888659376714,43.341649860272916],[-79.791026690061642,43.342486490100363],[-79.793491231315741,43.344299201928941],[-79.794532453256394,43.34507992879864],[-79.794633437701421,43.345172316606437],[-79.796499032683556,43.34654716389047],[-79.797447950563352,43.347322020727539],[-79.797570648997024,43.347422210935584],[-79.798840264973492,43.348319986200558],[-79.799841539747248,43.34894693393219],[-79.800499416148725,43.349493150198427],[-79.803773194664686,43.351807795207712],[-79.806771811603369,43.349588094907531],[-79.807182232620022,43.349327501700557],[-79.810463981684734,43.347242674778464],[-79.810544131938528,43.347191695896882],[-79.811281631473818,43.346821178681317],[-79.815474423713326,43.344712625289567],[-79.81593544818891,43.344519302088415],[-79.818661014022055,43.343374846244473],[-79.819915012283715,43.342800091299331],[-79.822178961833202,43.341673380268603],[-79.827348375625448,43.339316096742692],[-79.831095571920969,43.337588467853521],[-79.828736209552545,43.333099053824043],[-79.827555691016784,43.331133240538911],[-79.827248934020474,43.330523009043468],[-79.825976059720688,43.328630922163043],[-79.825646390120212,43.328141018852349],[-79.824797781335221,43.329320512420949],[-79.823924869274236,43.330662073178331],[-79.823102465612294,43.331480898235846],[-79.820983841481052,43.330088520415998],[-79.820440445565168,43.329242366090227],[-79.820343462791641,43.329111463483507],[-79.818603651550177,43.326279853203225],[-79.818192883585454,43.325526644646914],[-79.81726758322813,43.324970808185185],[-79.814708888192726,43.324106766997652],[-79.81057796991341,43.322791162414454],[-79.807099510158054,43.3215607907714],[-79.80269351408775,43.31967949439445],[-79.801439733225081,43.318985961415329],[-79.800316626985776,43.31858381262478],[-79.800223532255998,43.318750323478532],[-79.8000765172212,43.318978550998295],[-79.800256453113562,43.319105313457932],[-79.800287212115677,43.319280461133729],[-79.800381570386151,43.319410488213272],[-79.800468591498074,43.31962368816572],[-79.800372439999535,43.319874510457375],[-79.800174795795243,43.320068074275746],[-79.799992236026029,43.320074484017553],[-79.800052920473121,43.319887808381765],[-79.799802700302905,43.319856045339613],[-79.799343643065214,43.32029661371557],[-79.798661288868914,43.320958776585485],[-79.797199801690226,43.322360328003811],[-79.795909658387174,43.323598829522659],[-79.795800203872773,43.323655951774249],[-79.795515522589895,43.323636303870998],[-79.795040055111897,43.323173421240107],[-79.794794066704199,43.323100066720421],[-79.794626541049993,43.323210688353697],[-79.79449354472429,43.323305024109061],[-79.794257965171852,43.323685489538867],[-79.793928937279119,43.323890144872863],[-79.793391008037531,43.324135052498221],[-79.793383330621339,43.324234871295118],[-79.793699167974012,43.324408865424367],[-79.793627676237563,43.324564204691846],[-79.793460061552636,43.324678986222601],[-79.793050809022006,43.324903604764224],[-79.792670870537918,43.325104373779759],[-79.792587271711582,43.325169738436045],[-79.79248267226528,43.325223670743704],[-79.792128604065724,43.325301334894633],[-79.79180270660305,43.325452362054115],[-79.791730529956141,43.325529299697948],[-79.791492960513622,43.325718818889825],[-79.791308238097002,43.325833416089537],[-79.7911806833512,43.325940292466832],[-79.791024543915725,43.326051029102324],[-79.790776536644188,43.326194094465841],[-79.790564547281122,43.326245964879504],[-79.79033306121481,43.32641834133036],[-79.790290928152899,43.326530282794323],[-79.789751119198371,43.326724371004282],[-79.789601749643708,43.32678106486545],[-79.789354810676087,43.326870025973768],[-79.789222697435818,43.326925024042993],[-79.789209282142863,43.32695399377441],[-79.788890320353175,43.327191188752522],[-79.788550859919667,43.327354196617641],[-79.788408795543688,43.327497059318901],[-79.788168194373995,43.327495190434398],[-79.787548601263239,43.327415425714307],[-79.787367920622202,43.327537269754252],[-79.787331263644674,43.327546525188453],[-79.786803394629928,43.327690540970714],[-79.786774609812795,43.327698402646007],[-79.786742201518891,43.327698068198572],[-79.786719349758087,43.327762325382047],[-79.786604879744047,43.327822099500516],[-79.786539088730635,43.32786045482429],[-79.786397309388391,43.327889296446337],[-79.786349849774993,43.327908333181242],[-79.78610253129429,43.328033394304171],[-79.785979760212541,43.32815382443647],[-79.785920271037824,43.328086928783243],[-79.785665814458852,43.328224114569331],[-79.785470557770452,43.328409859562761],[-79.785384631439698,43.328444686738486],[-79.785343990367139,43.328471232788168],[-79.785310476124593,43.328486761036245],[-79.785236333032174,43.328528835775494],[-79.785127609053902,43.328538432882553],[-79.785067305290212,43.328593512883344],[-79.785007837335144,43.328657372067013],[-79.784960463413,43.328716605362509],[-79.784888668748394,43.328760883902035],[-79.784812163089228,43.328800762827875],[-79.784763446249457,43.328866708095227],[-79.784738028909487,43.328896171419103],[-79.784707681601162,43.328926059583701],[-79.784633525235336,43.328968133426386],[-79.78449718263704,43.328951791739193],[-79.784464117458143,43.32897261012279],[-79.78423999084508,43.329128078953381],[-79.784314756093508,43.329189690163957],[-79.784052864731066,43.329294782109599],[-79.783698542100836,43.329426139336981],[-79.782462520378147,43.329886754165578],[-79.782252819492911,43.329973250175158],[-79.78155469074926,43.330424811285134],[-79.780508386749588,43.329719984212119],[-79.780288493371984,43.329697532598487],[-79.77987302594849,43.329813739799491],[-79.779616740718723,43.330233241422164],[-79.780136919993268,43.33072631182646],[-79.78023701812198,43.33089332102027],[-79.780149174784853,43.331153768384695],[-79.779731282010559,43.331390588208059],[-79.779507357496144,43.331569157394817],[-79.77877378176845,43.331752337786909],[-79.778334301052723,43.331909529021601],[-79.778150756037391,43.331916588080269],[-79.777788530688156,43.332123836012769],[-79.777552240646358,43.332231896206864],[-79.777417031202972,43.332392373061211],[-79.777324488224238,43.332454577955957],[-79.777324517983914,43.332454600965356],[-79.778221439942726,43.333148361347632],[-79.778230395801316,43.333155288518654],[-79.780834231549719,43.33507287303545],[-79.780843859367138,43.335079963120776],[-79.781941990208921,43.335883625706366],[-79.784030082965387,43.337417674002161],[-79.785328517009802,43.338304903098795],[-79.785328566847895,43.33830494027621],[-79.785988562964661,43.33879667012382]]]},"properties":{"OBJECTID":1,"WARD_NO":"2","CREATED_USER":null,"CREATED_DATE":null,"LAST_EDITED_USER":"SXG","LAST_EDITED_DATE":1684173947000,"WARD_NO_INTEGER":2,"SHAPE.STArea()":8229902.7637269376,"SHAPE.STLength()":12736.997016432193}},{"type":"Feature","id":2,"geometry":{"type":"Polygon","coordinates":[[[-79.916006621760502,43.457538548439338],[-79.915785275665158,43.457384270923662],[-79.88826979994532,43.4378553641995],[-79.86087215051667,43.418703648123405],[-79.860242782456837,43.419246640545701],[-79.842156183880292,43.405657471579715],[-79.833188075799214,43.399083179972813],[-79.833769279210728,43.395379314025746],[-79.833977723550404,43.391189908742462],[-79.833940290627396,43.388956443795728],[-79.833585440537718,43.383437645850712],[-79.832705330842629,43.372543081011251],[-79.822023261113614,43.364644783605272],[-79.82200369119667,43.364630310752801],[-79.821880216491351,43.364743476078736],[-79.821880456304442,43.364743634865803],[-79.821859497862661,43.364762464699034],[-79.8202723409523,43.366084682491525],[-79.806117883599271,43.379201248662639],[-79.79036719747269,43.393847900025484],[-79.790881561613304,43.394177496817548],[-79.808045113116549,43.406608110714942],[-79.808011310846794,43.406639273534033],[-79.804279815122229,43.410296593296451],[-79.802038398323816,43.412083002865742],[-79.792104355849915,43.421036840523378],[-79.791926551715378,43.421206077893977],[-79.791927128614915,43.421206462890638],[-79.791967157828523,43.421235424077778],[-79.797468091559367,43.425214766954994],[-79.803621054558846,43.429635489655446],[-79.810918042460756,43.434993166501144],[-79.812606742861618,43.4333743168811],[-79.816675217001119,43.429624541577624],[-79.820184556426653,43.426273458522772],[-79.838374999572778,43.439591084890722],[-79.839658356799092,43.438435443015578],[-79.89490944927779,43.477229436223375],[-79.916006621760502,43.457538548439338]]]},"properties":{"OBJECTID":2,"WARD_NO":"6","CREATED_USER":null,"CREATED_DATE":null,"LAST_EDITED_USER":"SXG","LAST_EDITED_DATE":1683922344000,"WARD_NO_INTEGER":6,"SHAPE.STArea()":40668473.6198183,"SHAPE.STLength()":36468.7994121499}},{"type":"Feature","id":3,"geometry":{"type":"Polygon","coordinates":[[[-79.960253216899929,43.417369165517897],[-79.932442832951466,43.397908713545405],[-79.906025847683679,43.379350659653284],[-79.877203779807274,43.358936720850053],[-79.868297725408581,43.352624576116227],[-79.864252881066534,43.356205900684074],[-79.855712187761611,43.363765988665392],[-79.854474539852447,43.363641024479399],[-79.853682769353128,43.363561073154578],[-79.852801424770902,43.363381151255041],[-79.852762501428899,43.363353656417047],[-79.849572145043453,43.361099929689964],[-79.844132098679239,43.357256393041894],[-79.83876033996205,43.353424339222471],[-79.837411343575241,43.35249320203279],[-79.83674106505687,43.352023404239631],[-79.836234558345154,43.351622269008395],[-79.834916866500734,43.350682070569711],[-79.833855240325093,43.349952064687642],[-79.833650678354942,43.34982548294068],[-79.831234348132853,43.34816507132701],[-79.831205275745646,43.348145093034397],[-79.831198663743677,43.348028825075723],[-79.822328031483607,43.341697305912263],[-79.822178961833202,43.341673380268603],[-79.819915012283715,43.342800091299331],[-79.818661014022055,43.343374846244473],[-79.81593544818891,43.344519302088415],[-79.815474423713326,43.344712625289567],[-79.811281631473818,43.346821178681317],[-79.810544131938528,43.347191695896882],[-79.810463981684734,43.347242674778464],[-79.807182232620022,43.349327501700557],[-79.806771811603369,43.349588094907531],[-79.803773090489031,43.351807872276325],[-79.80403331575792,43.351997074865373],[-79.807001526911264,43.354155064689849],[-79.81072848067511,43.356864361810239],[-79.811718990759715,43.357584556744172],[-79.818353232538101,43.362407625307696],[-79.819410808298713,43.363176373348416],[-79.820084627234664,43.363554223932759],[-79.82200369119667,43.364630310752801],[-79.822023261113614,43.364644783605272],[-79.832705330842629,43.372543081011251],[-79.833585440537718,43.383437645850712],[-79.833940290627396,43.388956443795728],[-79.833977723550404,43.391189908742462],[-79.833769279210728,43.395379314025746],[-79.833188075799214,43.399083179972813],[-79.842156183386379,43.405657471574713],[-79.860242782950863,43.419246640550611],[-79.86087215051667,43.418703648123405],[-79.88826979994532,43.4378553641995],[-79.915785275665158,43.457384270923662],[-79.916006621760502,43.457538548439338],[-79.926510691564616,43.447728336305509],[-79.949192779836238,43.426932326371656],[-79.960253216899929,43.417369165517897]]]},"properties":{"OBJECTID":3,"WARD_NO":"3","CREATED_USER":null,"CREATED_DATE":null,"LAST_EDITED_USER":"COB","LAST_EDITED_DATE":1624496762000,"WARD_NO_INTEGER":3,"SHAPE.STArea()":65944302.395434178,"SHAPE.STLength()":38922.009248908442}},{"type":"Feature","id":4,"geometry":{"type":"Polygon","coordinates":[[[-79.771945838866287,43.380961666513052],[-79.764978093142531,43.375684670167814],[-79.760299016206403,43.372225413441718],[-79.754492059302535,43.367932922791709],[-79.753696013549785,43.367270988775523],[-79.747721624174986,43.362812004035909],[-79.746181094244562,43.361662074418895],[-79.745154490720537,43.360895730159406],[-79.742562784285397,43.358966842709229],[-79.742479721358023,43.359252721791869],[-79.742365375029081,43.359450478570224],[-79.742282026519476,43.359552244428343],[-79.742218608739833,43.359585461070075],[-79.742114715544588,43.359640191477339],[-79.742018990889349,43.359697476963532],[-79.741830614632093,43.359810208409698],[-79.741690577268798,43.359894011505766],[-79.741596039528943,43.359975540432714],[-79.741300208902871,43.360249633286145],[-79.741183052191985,43.36044269957344],[-79.741172554422548,43.360529387816825],[-79.740971597101804,43.360565284581774],[-79.740844451554551,43.360637985407479],[-79.7406608998363,43.36067407291754],[-79.740349560061446,43.360855895890658],[-79.740056085146051,43.361015684436694],[-79.739897501803824,43.36110709255297],[-79.739809331309885,43.3611611673143],[-79.739616903399707,43.361247840333377],[-79.739399434732064,43.361402987327516],[-79.739122166025027,43.361667640053973],[-79.73893971346304,43.3617905410498],[-79.738643459977681,43.362027995268889],[-79.73829551789882,43.362295154063474],[-79.738159040350467,43.362439732531328],[-79.737848013758637,43.362605673007927],[-79.73748335961254,43.362810823575415],[-79.737342613552499,43.362881253197074],[-79.736950977201815,43.36315597061904],[-79.73642882100485,43.363427550639024],[-79.736098821671263,43.363640277778657],[-79.735661846847819,43.363722250965012],[-79.735330259886993,43.363961003688885],[-79.734627425140431,43.364382562866453],[-79.734473873611392,43.364474464960765],[-79.734123526401106,43.364716178228463],[-79.733913465770186,43.364867982202824],[-79.733650673524991,43.365224990243867],[-79.733594502093425,43.365274756365729],[-79.733303008439322,43.365476893007589],[-79.733100209195044,43.365544512499525],[-79.732907361492266,43.365608008037874],[-79.732647234116726,43.36569722186487],[-79.732413195007481,43.365787783202663],[-79.732184214435279,43.365998580582684],[-79.732106072312945,43.365987626047279],[-79.731845126301735,43.366115996593493],[-79.731713290255826,43.366175932122395],[-79.731588305410014,43.366324864305334],[-79.731514920456291,43.366380623747403],[-79.73122842558918,43.36653555224963],[-79.731109120045701,43.366551165701061],[-79.730990906762713,43.366653594844678],[-79.730799706209126,43.366723031771656],[-79.730376969219648,43.366731466676768],[-79.729841971583454,43.366725525475346],[-79.729588572084808,43.366782769808353],[-79.729368987631631,43.366793312968802],[-79.728934087663433,43.366913392472931],[-79.728775428204742,43.367006900929617],[-79.728709651475896,43.367085306679257],[-79.728682886248549,43.367095888572358],[-79.728639934397819,43.367102784191594],[-79.728573096564077,43.3671206120693],[-79.728424574409388,43.367132146999488],[-79.728025542349911,43.367174286994519],[-79.727704009228418,43.367285036494124],[-79.727392644936472,43.367504778151783],[-79.72707239434412,43.36804014458901],[-79.727061508489598,43.368373672790675],[-79.727047392493645,43.368514998950786],[-79.727028768200356,43.368711687509489],[-79.726871219116063,43.3690292018184],[-79.726766304910825,43.369188937995553],[-79.726721189750577,43.369264653398389],[-79.726661213006949,43.369357140530369],[-79.726642044867376,43.369414288216326],[-79.726584477888821,43.369492394053829],[-79.72635829618271,43.369601142170445],[-79.726303009818977,43.369721510999291],[-79.726004371074254,43.36994365528524],[-79.725939245418118,43.370173899892528],[-79.725720741458076,43.37052891949002],[-79.725510957242619,43.370827392904459],[-79.725411370067917,43.370903272854989],[-79.725268636395398,43.370879684486226],[-79.725108986764198,43.370943896303622],[-79.725061233042226,43.371064348480488],[-79.725074463374256,43.371152484583867],[-79.724959225856665,43.371255686124563],[-79.72487971258893,43.371452774013243],[-79.724560178698013,43.371592192366315],[-79.72449838757629,43.371662993918214],[-79.724589334952512,43.371999465212859],[-79.724683140687929,43.37206198393654],[-79.7261982470107,43.373096367736458],[-79.727975425723301,43.374340451033717],[-79.731391884817555,43.37703139787714],[-79.735528698191857,43.379911429048988],[-79.73767600611032,43.381692136964588],[-79.749878056966494,43.390867002494751],[-79.755534943030526,43.395153317826768],[-79.774297438097008,43.408573559447412],[-79.79178960607338,43.421114723580608],[-79.791926551715378,43.421206077893977],[-79.792104355849915,43.421036840523378],[-79.802038398323816,43.412083002865742],[-79.804279815122229,43.410296593296451],[-79.808011310846794,43.406639273534033],[-79.808045113116549,43.406608110714942],[-79.790881561613304,43.394177496817548],[-79.79036719747269,43.393847900025484],[-79.781147650346412,43.387253815983229],[-79.771945838866287,43.380961666513052]]]},"properties":{"OBJECTID":4,"WARD_NO":"5","CREATED_USER":null,"CREATED_DATE":null,"LAST_EDITED_USER":"SXG","LAST_EDITED_DATE":1684169569000,"WARD_NO_INTEGER":5,"SHAPE.STArea()":15781575.260277908,"SHAPE.STLength()":19511.44062812889}},{"type":"Feature","id":5,"geometry":{"type":"MultiPolygon","coordinates":[[[[-79.912139177273687,43.308685882692878],[-79.912013095034922,43.308591646639329],[-79.912000895203747,43.30858252787791],[-79.911939149347972,43.308536299513463],[-79.911224978225547,43.308001600478782],[-79.911112873045084,43.307781739538008],[-79.91111265228156,43.307781590482612],[-79.910972712084245,43.307687145334633],[-79.910254236947623,43.30720223807014],[-79.909879390239269,43.306949244556009],[-79.909506951377793,43.306658903693943],[-79.90848575494536,43.305862791650959],[-79.90765912171112,43.305201115927488],[-79.90740483911955,43.305017831783083],[-79.907175510215339,43.304852531597739],[-79.907150601257143,43.304835659373772],[-79.907092245846911,43.304796133111189],[-79.906768502561718,43.304560585756022],[-79.906560440753353,43.304409203643843],[-79.906391471853539,43.304381159130784],[-79.906207097542037,43.304350557070698],[-79.906052465444404,43.304170588179723],[-79.905923610312811,43.304020619450917],[-79.905808434588238,43.303921133957459],[-79.905308494289201,43.303588357665504],[-79.904822730130149,43.303265012262131],[-79.904200186159258,43.302780576837677],[-79.903953906184327,43.302588930176192],[-79.902915704576046,43.301813004953821],[-79.901327181358283,43.30081191315324],[-79.900691514861336,43.300400304672998],[-79.900534490808781,43.300290095647597],[-79.90032465925421,43.300142822859023],[-79.900025196619467,43.299932639719515],[-79.89968245023708,43.299692074152311],[-79.899524792966687,43.299569873347345],[-79.899433728888638,43.299499288805862],[-79.898741858875809,43.298963012106071],[-79.898231340499791,43.298567294876449],[-79.897856791194982,43.298174427629924],[-79.896808591062268,43.297074930529874],[-79.893022352680944,43.29430953711902],[-79.892507144401108,43.293924529300682],[-79.892372982858191,43.293824271100782],[-79.892263457302079,43.293745422071531],[-79.891421284823451,43.293139115044752],[-79.891328056151934,43.293201307522679],[-79.891264748950007,43.293155414399124],[-79.891198633182142,43.293107486363262],[-79.891170697146137,43.293087236648589],[-79.891118402214843,43.293049331326706],[-79.890847864213995,43.292853203309136],[-79.890601566780447,43.29267464637411],[-79.890246583682284,43.292417284620434],[-79.890056230859372,43.292279278229437],[-79.889975792535495,43.292220958291928],[-79.889833334197689,43.292117671369326],[-79.889500733263063,43.292137208441638],[-79.88909904234734,43.292192570285358],[-79.888730811131296,43.292243319541029],[-79.888313126891816,43.292308842052662],[-79.888293904184323,43.292325313583007],[-79.888263452764676,43.292327339677747],[-79.888195758319554,43.292331843042696],[-79.888154804165183,43.29232794216415],[-79.888122824155971,43.292317276429195],[-79.887930692602936,43.292309659967721],[-79.88790829854139,43.292308771926685],[-79.887408406211989,43.292194894183929],[-79.887283836100167,43.29216450730155],[-79.88669608865878,43.292021132965168],[-79.886418627762765,43.291812981304396],[-79.886240720953808,43.291679514203857],[-79.886225219822663,43.291659340787049],[-79.885970188144967,43.291327432832297],[-79.885873858044249,43.291087399443299],[-79.885873941792369,43.291082811911885],[-79.885877214987715,43.290903512858833],[-79.885877112604618,43.290903368149237],[-79.885854550251963,43.290871592895748],[-79.885754481620907,43.290730659227194],[-79.885621231348139,43.29067418521074],[-79.885622110820364,43.2906799462327],[-79.885628727065225,43.290723303388859],[-79.885628144165381,43.290723443222674],[-79.885445078256666,43.290767282112284],[-79.885445059930717,43.290767286616052],[-79.885445802616701,43.290735825908612],[-79.885452647296205,43.290445642797913],[-79.88567945662048,43.289823527718575],[-79.885786175365823,43.289530804707155],[-79.885836565057389,43.289347916526104],[-79.885902448400159,43.288799022590815],[-79.885970795355291,43.288568013619241],[-79.886034777286227,43.288351753647866],[-79.886114425261511,43.288082578893594],[-79.886117569006217,43.288058233880896],[-79.886113669545537,43.288034373512879],[-79.886113599451761,43.288033945655215],[-79.886111234702156,43.288028924749142],[-79.88610270557156,43.288010814969383],[-79.886085386923753,43.287989890492213],[-79.886062402006829,43.287972107795369],[-79.886034809220604,43.287958260218154],[-79.886003829467455,43.28794898996609],[-79.885970860613,43.287944698207077],[-79.885593641049695,43.287962582742459],[-79.885503710800819,43.287967109906752],[-79.885371832174641,43.287973749829575],[-79.885268784937765,43.287981723776134],[-79.885166751466485,43.287994957153657],[-79.885123527595837,43.288002952186332],[-79.885059506570457,43.288014794347589],[-79.884954596025452,43.288040443752848],[-79.884852602148271,43.288071740687563],[-79.884785330961805,43.288096823686274],[-79.884755051477413,43.288108114389793],[-79.884704588374873,43.288130524445513],[-79.884661461217391,43.288149677221639],[-79.884532607433357,43.288212003045537],[-79.884504314541147,43.288225684490776],[-79.884427697730359,43.288259830856404],[-79.884348010595886,43.28828998486695],[-79.884275535126434,43.288312864355909],[-79.884265637653428,43.288315988905843],[-79.884180976263096,43.288337738069217],[-79.884170808674938,43.288339779071741],[-79.884094434448912,43.28835511062978],[-79.884006445712075,43.288368020767841],[-79.883917443061478,43.288376409673788],[-79.883827857698918,43.28838023653077],[-79.883648667265533,43.288374139561903],[-79.88355994891441,43.28836426040975],[-79.883318942499912,43.288331158213808],[-79.883175022144457,43.28831138335886],[-79.883005158586244,43.288288043092606],[-79.882688863719281,43.288244593185453],[-79.882536413660873,43.288223650054682],[-79.882259591718565,43.28818561274619],[-79.881989760667494,43.288148541396502],[-79.881962469407867,43.2881447920265],[-79.881775639177391,43.288119122270466],[-79.881720859234093,43.288112014449204],[-79.881653232326443,43.288103239768958],[-79.881403909788418,43.288076724940311],[-79.881154963497707,43.288057938776674],[-79.881061191309342,43.288052817027705],[-79.881004031463661,43.288050232148102],[-79.880853653006909,43.288045303772662],[-79.880703531990434,43.288043115456595],[-79.880553230901498,43.288042681064624],[-79.880354003622017,43.288042152922451],[-79.880252751161166,43.288041884562723],[-79.880143119091699,43.288041600700517],[-79.880102511378055,43.288041495201121],[-79.879952283597277,43.288041096755144],[-79.879351323744714,43.288039499799616],[-79.879201083504853,43.288039109249141],[-79.878915837416201,43.288038349739814],[-79.878900616197583,43.288038309315823],[-79.87888338589363,43.288038263603539],[-79.878617380577012,43.288037560844742],[-79.878110233010986,43.288036210781378],[-79.878035224447132,43.288036009146381],[-79.877893988108895,43.288035630285592],[-79.877745633844839,43.288035237956571],[-79.877703098360797,43.288035692941349],[-79.877678022276541,43.288035961576966],[-79.877576845823526,43.288039363641182],[-79.877553896010838,43.288040772199182],[-79.877475913810045,43.288045559419523],[-79.877382352268327,43.288053799445152],[-79.877249308854388,43.287955350097022],[-79.877069459312168,43.28791298590852],[-79.876774081340457,43.287703987967014],[-79.874885606188883,43.28636772538767],[-79.874854225929397,43.286345520187545],[-79.874084212149413,43.286811384736588],[-79.874084292456786,43.286811441355262],[-79.874115459229785,43.286833457008917],[-79.874129536535122,43.286843400798915],[-79.874114449969383,43.286849227696401],[-79.873930417610453,43.286920304392488],[-79.87358550471194,43.287041228187711],[-79.873237314431975,43.287133719799435],[-79.873230815309284,43.287135446233535],[-79.873130925036847,43.287159195391901],[-79.872873064561858,43.287220502052442],[-79.872706654277678,43.287235983569126],[-79.872551378751808,43.287280910648157],[-79.87243734560991,43.28730633401662],[-79.872227692129599,43.287344088572425],[-79.871877184024086,43.287383770779478],[-79.871577063957915,43.28740072060944],[-79.870910476717754,43.287337729008506],[-79.870686730928625,43.287302335764544],[-79.870537960021494,43.287241134982388],[-79.870434237830395,43.287200289740262],[-79.870303511425604,43.287145903920454],[-79.870208873210871,43.287105147837863],[-79.870078147214329,43.287050761764092],[-79.869983570722823,43.287006687754754],[-79.869834985546177,43.286935532842335],[-79.869004376180172,43.28653176618954],[-79.868581029715557,43.286335110476116],[-79.868423241794858,43.286270499388763],[-79.868363463023428,43.28630972886193],[-79.868314694209175,43.286359275140896],[-79.868256486015099,43.286385452721291],[-79.86823992553353,43.286397091271425],[-79.868202371563783,43.28642348400718],[-79.868153925609761,43.28647225145771],[-79.868112497158648,43.286530767846592],[-79.868078512715954,43.286598632918611],[-79.868076210275731,43.286605170473322],[-79.868051084789883,43.286676512876305],[-79.868054610034903,43.286797799539364],[-79.868034289803063,43.28691374319159],[-79.868009243331045,43.287039595109661],[-79.867985058199238,43.287118998290545],[-79.867878102176533,43.287350560874366],[-79.867740611695083,43.287495381906709],[-79.867587235741908,43.287603200033274],[-79.867485533070877,43.287698427316727],[-79.867280575715171,43.287881093165943],[-79.867110146998215,43.287904242535134],[-79.866878318645163,43.28793573134687],[-79.866121121830474,43.288377669070933],[-79.865714142687679,43.28862782351267],[-79.865620533179381,43.28868536114733],[-79.865454983591306,43.288890481026137],[-79.864799107909064,43.289703111959241],[-79.864695305542767,43.289785149819082],[-79.863606539821959,43.290645613552392],[-79.862735698282037,43.291333824211101],[-79.862681540874576,43.291350797679137],[-79.862325960884149,43.291462237470618],[-79.86200576654312,43.291656224405159],[-79.861951347339982,43.291689193436],[-79.861602888358945,43.291830619529662],[-79.861393486079592,43.291961570753514],[-79.861264550305862,43.292042201584465],[-79.861060121727249,43.292160526946837],[-79.861035313432595,43.292174886312687],[-79.860899463048227,43.292253516939503],[-79.860534263845139,43.29247069158567],[-79.860249958960281,43.292653498120053],[-79.859992581476732,43.29282680135789],[-79.859970265446677,43.292840990474289],[-79.85977396823202,43.292965802902344],[-79.859735384565965,43.292990335545305],[-79.859713558156074,43.293008741446727],[-79.859518704845584,43.293076631528379],[-79.859201876982084,43.293266405137402],[-79.858890086891861,43.293488015516026],[-79.858470574707383,43.293747632055464],[-79.858380784676754,43.29382133070942],[-79.858130672174852,43.294026619640064],[-79.857954336395437,43.29417237929124],[-79.857710867961174,43.294316505072899],[-79.857689445150868,43.294336446461898],[-79.857578562480867,43.294439662761391],[-79.857480697290683,43.294560580765605],[-79.857363685755459,43.29466834197779],[-79.857243936014243,43.294774211053273],[-79.857153249715509,43.294851213433574],[-79.857121459046169,43.294878207182897],[-79.856998982321258,43.294982194176868],[-79.856904227818134,43.295062641527736],[-79.856876492197571,43.295086189547696],[-79.856751275997908,43.295188302965151],[-79.85673758332986,43.29520199054668],[-79.856717669463137,43.295221896408002],[-79.856670288536023,43.295269272044948],[-79.856639739085821,43.295299818281364],[-79.856602523379749,43.295326726314251],[-79.856506318469357,43.295396284615876],[-79.856433598269675,43.295463683174184],[-79.856389667290486,43.295504398870371],[-79.856348121128178,43.295535580283172],[-79.856303566032906,43.295569020179428],[-79.856170128088507,43.295665693046381],[-79.856103402801764,43.295714028997331],[-79.856096464647678,43.295719056159953],[-79.856036689728086,43.295762365391148],[-79.855903250938098,43.295859037933923],[-79.855841839706343,43.295903524331735],[-79.855769799406517,43.295955709831219],[-79.855235342635851,43.296274895453351],[-79.854812537989659,43.296575366831561],[-79.854598453873436,43.296641625990539],[-79.854558128527302,43.29676329740164],[-79.854537599806648,43.29677275832664],[-79.854519116990758,43.296781276255771],[-79.854139436004047,43.29695769393954],[-79.85387706529707,43.297079600287375],[-79.853667110666549,43.297177151937262],[-79.853461174287176,43.297272842808717],[-79.853302982974199,43.297346347658518],[-79.853066806329323,43.297456078805794],[-79.852938841120306,43.297515533066154],[-79.852853535463112,43.297555168244124],[-79.852574709587373,43.297684717410149],[-79.852210564216648,43.297853900448175],[-79.852144427425998,43.297884630387586],[-79.851846428504558,43.298023091420475],[-79.85143244208453,43.298215432577557],[-79.850922859874899,43.298452184462938],[-79.850487642732702,43.298654382396023],[-79.850378237409103,43.298705210299886],[-79.850074787046566,43.298846190420292],[-79.850038637618894,43.298862984865941],[-79.849681610318939,43.299028850714869],[-79.849357336477638,43.299179497784145],[-79.849183321900085,43.299260337378698],[-79.848961966539107,43.299363169041385],[-79.848595387731365,43.299533469298474],[-79.848483359878585,43.299585513758757],[-79.848255730073646,43.299691258842842],[-79.848015609010716,43.299802805861638],[-79.847851877398483,43.299878866907932],[-79.847638390447258,43.30003165410249],[-79.847347776079573,43.300113043782247],[-79.846730902514963,43.300399930425058],[-79.846475657932359,43.300518486752956],[-79.84624890535801,43.300571087027485],[-79.846136713335312,43.30065079512282],[-79.84589577401222,43.300785169874857],[-79.84536665935434,43.300400504111622],[-79.844829521787375,43.29998300113779],[-79.844449085477734,43.30029733833409],[-79.844844111348493,43.300568721971402],[-79.845332179082462,43.300872757845049],[-79.845347203571606,43.300978622781258],[-79.845396526048532,43.301071775636316],[-79.845348306804979,43.301198250193053],[-79.844629973570903,43.301679931375368],[-79.844088724599942,43.302169773075114],[-79.843498145069745,43.302501110258227],[-79.842817518690381,43.302645094016043],[-79.842252368027317,43.302813490543961],[-79.841849549340907,43.302952436403835],[-79.841464666049333,43.30313458963024],[-79.841104919912325,43.303247901492256],[-79.841048350359614,43.303262962236893],[-79.840850185460866,43.303315719707712],[-79.840369058043464,43.303404169353435],[-79.84006420231384,43.303571733349806],[-79.839601664566175,43.303716283717215],[-79.839310331179448,43.303812822488936],[-79.839121218668964,43.304096902565576],[-79.838982522617925,43.304206999547134],[-79.838913521187109,43.304273509357103],[-79.838869054300517,43.304316370995103],[-79.838828588908981,43.304370068915745],[-79.838737388016924,43.304455461853216],[-79.838629508968651,43.304556495455607],[-79.838583128496211,43.304599932925505],[-79.838356021414597,43.304812585763287],[-79.838332762699807,43.304834368400726],[-79.838309823821248,43.304855852091087],[-79.83826361316342,43.304899127631792],[-79.83819730359582,43.304961900823294],[-79.838046945287346,43.305198920111096],[-79.838021833581919,43.305238505558592],[-79.837932140158017,43.305170782314192],[-79.83779922523037,43.30507042547508],[-79.837582671083794,43.304925088818351],[-79.83748649395163,43.304853133842229],[-79.837470563323706,43.304841215279943],[-79.837403536219966,43.30488459079212],[-79.837387845280247,43.304894745038808],[-79.837147721129639,43.304968627010517],[-79.836992114215121,43.305091413434987],[-79.836882770792755,43.305221648634252],[-79.836786194952893,43.305284131921816],[-79.836753349609623,43.305294263601944],[-79.836711504836202,43.305307171848412],[-79.836532726166311,43.305360552284355],[-79.836389300492954,43.305407965575363],[-79.836354903968854,43.305419336225192],[-79.836177645236972,43.305480286701481],[-79.836033000471716,43.305523505450125],[-79.835999397590697,43.305533546001612],[-79.835823521656181,43.305586559030196],[-79.835646826850478,43.305639203270822],[-79.835562302407283,43.305666928753112],[-79.835468912955619,43.305697562044038],[-79.83536230999394,43.305735855355046],[-79.835291425356175,43.305761317853417],[-79.835197444268971,43.305779348327285],[-79.835080252207192,43.305801832208118],[-79.835002241529281,43.30581679401638],[-79.834910524046563,43.305834384840992],[-79.834706363228094,43.305858887910297],[-79.834436963540597,43.305932476321914],[-79.834332342011081,43.305945821558318],[-79.834190575615267,43.30596390514463],[-79.834135885000336,43.305970881525752],[-79.83407343820042,43.305978847824271],[-79.833992294376884,43.305985909233684],[-79.833959864493707,43.305990594824138],[-79.833797743167523,43.3060140200432],[-79.833702180381025,43.30606409564372],[-79.833599075362514,43.306118123214695],[-79.833494315287595,43.306175694188433],[-79.833433677249204,43.306216204261681],[-79.833353456554292,43.306269796175215],[-79.833264254437182,43.306320456029681],[-79.833199581584452,43.306357183988617],[-79.833132970966162,43.306397929035143],[-79.833052700070823,43.306447029141523],[-79.833011266366015,43.306471339913408],[-79.832963351250982,43.306499452503239],[-79.832903781124031,43.30653440408993],[-79.832755512775222,43.306622577878031],[-79.832607135814214,43.306710605931258],[-79.832466862057942,43.306793206122379],[-79.832458384041075,43.306798198108218],[-79.832309717084598,43.306885871636041],[-79.832162573697246,43.306973776994212],[-79.832071536059473,43.307027206038221],[-79.832014662274318,43.307060584413719],[-79.831866666027381,43.30714857972697],[-79.831830801801303,43.307167293211307],[-79.83156909072332,43.307193718680494],[-79.831177880138,43.30690054986561],[-79.83113743341049,43.306870239420384],[-79.830982571339945,43.306970310482157],[-79.830838787925742,43.30705459229231],[-79.83077569649744,43.307094691193903],[-79.830700021417044,43.307142788140453],[-79.83055172420714,43.307167991062542],[-79.830330375259265,43.307165727485078],[-79.829921969532705,43.307149113241792],[-79.829717767014699,43.307140805396607],[-79.82957020640427,43.307070799635412],[-79.829412309415332,43.306951126078502],[-79.829199354991218,43.306955164735207],[-79.828798152338209,43.30700702302763],[-79.828409770415988,43.307277899653627],[-79.828270091820215,43.307456803818013],[-79.828267225323728,43.307606016338795],[-79.828264597672273,43.307742795019472],[-79.828288346891213,43.307836314782307],[-79.828302984891508,43.307960833342875],[-79.828330482675042,43.308086317100845],[-79.828205035985604,43.308183693707498],[-79.827947343403395,43.308255302004262],[-79.827920667081159,43.30818764081117],[-79.827890598730164,43.308118042739018],[-79.827844232858396,43.3080533918165],[-79.827708783796197,43.307946830701212],[-79.827623951722543,43.307908250675531],[-79.827531142817776,43.307881177590765],[-79.827433262815077,43.307866469632174],[-79.827333335991696,43.307864590371878],[-79.827234542527776,43.307875590063979],[-79.826747729239457,43.307986840372799],[-79.825717004638918,43.308562386533033],[-79.824946900363443,43.309299431143529],[-79.824758653800771,43.309354866988976],[-79.824373605769225,43.309442781649778],[-79.82398773127484,43.309581838487595],[-79.823285526023668,43.309786042162713],[-79.822832016909445,43.309899525543052],[-79.822343729788457,43.310049959282196],[-79.822121612506194,43.310188008975501],[-79.821849103599575,43.310396206343448],[-79.821649440964364,43.310593139122979],[-79.82114375742853,43.310762043960828],[-79.820937861584071,43.31084076085763],[-79.820696694691875,43.310902579290811],[-79.820528634249087,43.310971434518109],[-79.82036176414681,43.311041868195069],[-79.820161682071912,43.311097640796802],[-79.819570041178693,43.311115808228372],[-79.819322173763936,43.311162996866415],[-79.819091213670731,43.311216578403467],[-79.818680858390735,43.311299398364447],[-79.818192042457753,43.31148624350967],[-79.81777076996967,43.311594697324736],[-79.817556352470405,43.311673320020994],[-79.817096150277607,43.311870627760527],[-79.816885203727253,43.31203015723456],[-79.816729677412766,43.312128154004554],[-79.8166431906658,43.312214206076852],[-79.816354194766092,43.312186341829886],[-79.816214952326163,43.31234036122931],[-79.815908709695847,43.312348313655292],[-79.815654472068601,43.312355855109558],[-79.815461721581457,43.312415629624368],[-79.815341543812124,43.312517879824846],[-79.815179551850662,43.31259703171397],[-79.814778369603928,43.312723864084639],[-79.814561079929931,43.312739864825311],[-79.814397860273687,43.312812794106549],[-79.814217370413758,43.312897980721026],[-79.814037968243909,43.312927212958066],[-79.813849689347094,43.312975007611435],[-79.813626505865159,43.313065968977945],[-79.813447889095741,43.313150163499316],[-79.813164010260721,43.313190345394013],[-79.813090640670509,43.313238956622349],[-79.812920007752354,43.313259941401839],[-79.812521758866311,43.313384080163765],[-79.812368494837287,43.313400354308143],[-79.812231548084171,43.313418377099744],[-79.811987421215363,43.313272817499978],[-79.81182686215665,43.31320896531205],[-79.811545408992671,43.313230914504651],[-79.811357611529942,43.313253836795859],[-79.811201833066505,43.313264814902233],[-79.811024217837542,43.31323171576242],[-79.810786426053923,43.313198151267997],[-79.81048939930298,43.313145315075843],[-79.810175465834703,43.313086083367892],[-79.809597714936757,43.313017886971281],[-79.809486544927069,43.313041603756638],[-79.809289148072438,43.313041994005289],[-79.809174069902838,43.312907763636446],[-79.809046964704194,43.312875347985532],[-79.808919131055092,43.312880234849708],[-79.80872342679541,43.312871978359837],[-79.808469095713207,43.312813362791474],[-79.80831681288474,43.312762028889857],[-79.808181437750818,43.312717089116845],[-79.808054697562596,43.312666021045068],[-79.807860331573977,43.312589373952584],[-79.80768981965501,43.312523190982539],[-79.807506647097739,43.312529568915636],[-79.807205887592517,43.312433612882693],[-79.807152324252726,43.312402502023566],[-79.806600656631048,43.311971006990326],[-79.805782913361568,43.311533746766145],[-79.805226063457695,43.311099206141463],[-79.804707411881935,43.310934999827516],[-79.804327654127107,43.309232010969978],[-79.803594178286914,43.307827015988508],[-79.802712032771169,43.306665006495138],[-79.802395378702158,43.30622363783521],[-79.801953069485492,43.305511850359785],[-79.801954558106459,43.305511289306203],[-79.801131925149079,43.303890309327407],[-79.800407013685614,43.302056657376795],[-79.799980395683406,43.301639335476885],[-79.804603674101173,43.299561888960127],[-79.801766400643473,43.295616283832075],[-79.798620351510664,43.297022321919528],[-79.797081752262926,43.297739791965334],[-79.796335381631948,43.298109166629153],[-79.795805494225206,43.298337729775497],[-79.790363844564851,43.301031462384373],[-79.791228258684484,43.301899118634275],[-79.79524073710887,43.300692704714322],[-79.79577818489534,43.300984537171892],[-79.796442260670048,43.301628911412415],[-79.796876655781119,43.30217981091247],[-79.79705044387191,43.302624555972265],[-79.798406270110277,43.305495978551789],[-79.798848145823982,43.306573765788663],[-79.79909373304136,43.307670302439966],[-79.799507417032572,43.30837186503544],[-79.799778275964968,43.309995481820131],[-79.800172164616455,43.311251617033577],[-79.800417077347191,43.312384565360325],[-79.800465134589302,43.312658233253934],[-79.800470458437758,43.312840398547777],[-79.800457907744601,43.313025627694486],[-79.800442307699853,43.313442848987435],[-79.800350486548965,43.313505790273538],[-79.800312563312872,43.313622462917913],[-79.800468188330115,43.313739365220165],[-79.800459848550815,43.313920747130616],[-79.800451508887036,43.314102120031585],[-79.800495428853068,43.314287779353535],[-79.80045522360949,43.314455525614719],[-79.800451767132714,43.314636247368391],[-79.800465406566587,43.314814897311351],[-79.800488836447542,43.314992343925056],[-79.800475577097529,43.315174277499537],[-79.800467411189416,43.315351320673358],[-79.800466049570588,43.315449848118995],[-79.800389224121616,43.315611510389438],[-79.800559999641067,43.315704847184087],[-79.800568178794975,43.316023133060369],[-79.800658049566209,43.317341115468956],[-79.800669977228466,43.317640419877407],[-79.800719701968035,43.317829554736655],[-79.800733164816691,43.318050828425072],[-79.800588881688526,43.318140369977918],[-79.800316626985776,43.31858381262478],[-79.801439733225081,43.318985961415329],[-79.80269351408775,43.31967949439445],[-79.807099510158054,43.3215607907714],[-79.81057796991341,43.322791162414454],[-79.814708888192726,43.324106766997652],[-79.81726758322813,43.324970808185185],[-79.818192883585454,43.325526644646914],[-79.818603651550177,43.326279853203225],[-79.820343462791641,43.329111463483507],[-79.820440445565168,43.329242366090227],[-79.820983841481052,43.330088520415998],[-79.823102465612294,43.331480898235846],[-79.823924869274236,43.330662073178331],[-79.824797781335221,43.329320512420949],[-79.825646390120212,43.328141018852349],[-79.825976059720688,43.328630922163043],[-79.827248934020474,43.330523009043468],[-79.827555691016784,43.331133240538911],[-79.828736209552545,43.333099053824043],[-79.831095571920969,43.337588467853521],[-79.827348375625448,43.339316096742692],[-79.822178961833202,43.341673380268603],[-79.822328031483607,43.341697305912263],[-79.831198663743677,43.348028825075723],[-79.831205275745646,43.348145093034397],[-79.831234348132853,43.34816507132701],[-79.833650678354942,43.34982548294068],[-79.833855240325093,43.349952064687642],[-79.834916866500734,43.350682070569711],[-79.836234558345154,43.351622269008395],[-79.83674106505687,43.352023404239631],[-79.837411343575241,43.35249320203279],[-79.83876033996205,43.353424339222471],[-79.844132098679239,43.357256393041894],[-79.849572145043453,43.361099929689964],[-79.852762501428899,43.363353656417047],[-79.852801424770902,43.363381151255041],[-79.853682769353128,43.363561073154578],[-79.854474539852447,43.363641024479399],[-79.855712187761611,43.363765988665392],[-79.864252881066534,43.356205900684074],[-79.868297725408581,43.352624576116227],[-79.868220946751705,43.352570150595966],[-79.865008028924336,43.350671444421295],[-79.862260791373444,43.348690016627032],[-79.860318432378477,43.347279279498018],[-79.860238386517665,43.347177433232567],[-79.860024971761149,43.346984744046836],[-79.860060023119232,43.346886592454304],[-79.860060015025851,43.346885811868937],[-79.860058235869133,43.346719072275576],[-79.859990550619969,43.346521949171418],[-79.859971075205891,43.346465229122238],[-79.859952696840224,43.346411704335402],[-79.859992396219269,43.346204924873241],[-79.86001302637348,43.34609747056637],[-79.859948261508066,43.34572508169579],[-79.859948538542454,43.345723437725546],[-79.859985942551262,43.345501577053021],[-79.8599938217247,43.345414863957274],[-79.860008908118147,43.345248832352127],[-79.860026427222607,43.345162556072822],[-79.860048401681667,43.34505434039842],[-79.860204688840582,43.344689592096195],[-79.860231430517317,43.344602110695142],[-79.860259479480462,43.344510352959183],[-79.860287711077774,43.344392897637007],[-79.860288017189191,43.344391624217984],[-79.860249503625397,43.34426738320461],[-79.860297061932371,43.344170386967754],[-79.860301967024014,43.344160382211122],[-79.860302001222877,43.344160347974857],[-79.860406184273756,43.344054843833028],[-79.860616201756969,43.343842161036186],[-79.860616266659719,43.343842094689748],[-79.860692250692935,43.343575803686001],[-79.860773553724627,43.343432204687929],[-79.86082086216031,43.343348647562152],[-79.860966327870443,43.342900984715648],[-79.861126082994559,43.34245043809711],[-79.861225427439663,43.342074046031961],[-79.861319388959572,43.341718073127367],[-79.861347225603851,43.34161261359732],[-79.86134734190864,43.341612173177253],[-79.861664961408508,43.341363457731724],[-79.861693447383516,43.341343348001978],[-79.861895375576154,43.341200795300843],[-79.861970173330747,43.341116399000413],[-79.862044365950283,43.341032685288354],[-79.862413782703712,43.340694122052454],[-79.862654974691651,43.340515311526502],[-79.862823617496517,43.34039028482885],[-79.86299002752628,43.340272323261878],[-79.863227720305389,43.340103830756661],[-79.863422781581107,43.339965558730128],[-79.863819693363368,43.339578153136657],[-79.864285514552762,43.339021261853112],[-79.864317988160664,43.338996071489028],[-79.864511935463014,43.33884562401601],[-79.864700191903353,43.338699588443639],[-79.864813184776295,43.338611937009382],[-79.864930262522705,43.338521115017635],[-79.865040528961444,43.338435577553376],[-79.86530404804823,43.338177481897432],[-79.86548954296785,43.337995807875018],[-79.865758095877496,43.33773278162306],[-79.866111316643028,43.33739116414241],[-79.866249167103931,43.337257840048686],[-79.866666356628357,43.337125429467051],[-79.867167083450724,43.336966502672858],[-79.867335168196149,43.336861543267709],[-79.867850390988721,43.336570866621386],[-79.867935815741916,43.336522671840548],[-79.8679358411772,43.336522657324998],[-79.867939886336885,43.33651634094246],[-79.868110672110021,43.336249636312388],[-79.868111294632627,43.33624866422965],[-79.868099366057507,43.336224525880866],[-79.868094601861372,43.336214885019707],[-79.868094795406847,43.336214374041511],[-79.868208390506339,43.335914069441515],[-79.86838235314184,43.335727468487036],[-79.868497333112657,43.335426727773161],[-79.8689617202417,43.335143802656908],[-79.869396744574814,43.334638704334949],[-79.869675984209067,43.334462397236074],[-79.869975511084689,43.33427327990578],[-79.870952491840271,43.333531068788112],[-79.871016173147098,43.333474118258984],[-79.871045676949109,43.333447732538851],[-79.871134986520474,43.333367857811112],[-79.871360967980209,43.33316574890781],[-79.871484875148354,43.332941960622918],[-79.8718181898968,43.332339955235931],[-79.872012882162096,43.332156560602037],[-79.872295703428946,43.331890138291975],[-79.872873219810558,43.331436540864047],[-79.873309360817387,43.3310372659449],[-79.873776978434407,43.330609166257325],[-79.874075165277034,43.330468369444489],[-79.874261743378213,43.330377650708883],[-79.874504442555377,43.330259643258557],[-79.874691538490126,43.330167023567881],[-79.874785971843494,43.330120274796144],[-79.875132590665118,43.329897243525508],[-79.87546553070041,43.329683010923155],[-79.876133879697562,43.329325359446798],[-79.876615563891249,43.329171554271362],[-79.876788555422991,43.329144788487007],[-79.877172784580793,43.329085338595078],[-79.877985049758678,43.328966934959936],[-79.87833444693608,43.328866195020943],[-79.878713111077232,43.32881655390289],[-79.879044159764703,43.328684566471168],[-79.879070272679314,43.328727043653338],[-79.879087766109265,43.328755499230482],[-79.879671735456881,43.328602692268078],[-79.879721164732899,43.328585454235458],[-79.879774563005398,43.328566831632067],[-79.879775084388385,43.328566650166486],[-79.879750999355267,43.328527473155852],[-79.879709512707279,43.328459988511362],[-79.879710449276246,43.328459739437584],[-79.880050332866972,43.328369253665066],[-79.880232413303844,43.328335197005984],[-79.880636958335103,43.328258248508448],[-79.880925221823475,43.328211222625683],[-79.881209109836803,43.328164910307386],[-79.881325389802569,43.328283039620082],[-79.881405127209263,43.328364044704522],[-79.881544395638798,43.328505309972371],[-79.881748390651694,43.328500584231946],[-79.881916455892977,43.328496690413829],[-79.882225121427325,43.328491781566036],[-79.882400837089165,43.328416361142111],[-79.882673373674066,43.328299382071648],[-79.882717206681903,43.328274273626739],[-79.88278501488594,43.328235432003403],[-79.883825746765339,43.329239692607025],[-79.884141784200906,43.329149299072512],[-79.884362294553142,43.32908622777088],[-79.884378525734718,43.329074348211023],[-79.884403539347346,43.329056041206407],[-79.884678981406111,43.328854488711855],[-79.884709942189758,43.328831833210387],[-79.885222638615076,43.328454611578849],[-79.885482791061989,43.328263789086201],[-79.886122685963841,43.327794416425178],[-79.888265313487409,43.326222692594044],[-79.8886276109465,43.325880067089408],[-79.888755450497541,43.325759160737022],[-79.888963993736255,43.325593448264939],[-79.889044845121006,43.325529867535181],[-79.889078879004202,43.325503104029757],[-79.889150164166594,43.325448151314923],[-79.88925485370261,43.325367447828761],[-79.889370114782196,43.32527205363418],[-79.889419591701966,43.325231104869033],[-79.889560494539154,43.325113781812668],[-79.889730673205108,43.324972080973559],[-79.889930021441899,43.32480609843568],[-79.890050468230655,43.324705811139872],[-79.890116237585104,43.324694013526631],[-79.890365462953156,43.324501859555603],[-79.890481525159103,43.324412380733882],[-79.890561589787424,43.324350651607425],[-79.891873678977703,43.323339015999785],[-79.89199499842718,43.323243197698837],[-79.892050565696522,43.323199311531205],[-79.892133867158591,43.323133520648724],[-79.892301766884216,43.323000913942906],[-79.892384148001042,43.322936140111729],[-79.892397037832794,43.322925278039769],[-79.892524543663853,43.322817827663485],[-79.892616928296334,43.322927694467701],[-79.892731048243178,43.323063409191469],[-79.892800352477281,43.323114874434125],[-79.894585781590592,43.321816752518799],[-79.895376970168101,43.321241480664781],[-79.895997655200787,43.320563279003821],[-79.896231242479985,43.320308041369231],[-79.89624976786493,43.320294605737047],[-79.896675723335107,43.319985685689439],[-79.900257594992496,43.317290518715716],[-79.901216050594911,43.316595772549796],[-79.904392955963814,43.31429278726899],[-79.905746389404413,43.313310932163724],[-79.906415948308322,43.31282517934229],[-79.907322916314016,43.312167177669629],[-79.908294236980424,43.311461481415918],[-79.910483467189067,43.30988016277059],[-79.910812464707917,43.309642712284187],[-79.911018343182064,43.309494120332552],[-79.911141393730176,43.309405749310997],[-79.911286123796714,43.309301808277752],[-79.911796089236176,43.308933602823984],[-79.912138294381876,43.308686520458338],[-79.912139177273687,43.308685882692878]]],[[[-79.801779801200041,43.295610294320241],[-79.80176199664173,43.29561010778535],[-79.801766400643473,43.295616283832075],[-79.801779801200041,43.295610294320241]]]]},"properties":{"OBJECTID":5,"WARD_NO":"1","CREATED_USER":null,"CREATED_DATE":null,"LAST_EDITED_USER":"COB","LAST_EDITED_DATE":1624496756000,"WARD_NO_INTEGER":1,"SHAPE.STArea()":35437146.80828017,"SHAPE.STLength()":35124.224781865349}},{"type":"Feature","id":6,"geometry":{"type":"Polygon","coordinates":[[[-79.821859622142512,43.364762426540125],[-79.821880340769411,43.364743438009832],[-79.822003737191125,43.364630344722976],[-79.822003815719469,43.364630272776324],[-79.822003692049961,43.364630311301859],[-79.820084627234664,43.363554223932759],[-79.819410808298713,43.363176373348416],[-79.818353232538101,43.362407625307696],[-79.811718990759715,43.357584556744172],[-79.81072848067511,43.356864361810239],[-79.807001526911264,43.354155064689849],[-79.80403331575792,43.351997074865373],[-79.803773090489031,43.351807872276325],[-79.803773194664686,43.351807795207712],[-79.800499416148725,43.349493150198427],[-79.799841539747248,43.34894693393219],[-79.798840264973492,43.348319986200558],[-79.797570648997024,43.347422210935584],[-79.797447950563352,43.347322020727539],[-79.796499032683556,43.34654716389047],[-79.794633437701421,43.345172316606437],[-79.794532453256394,43.34507992879864],[-79.793491231315741,43.344299201928941],[-79.791026690061642,43.342486490100363],[-79.789888659376714,43.341649860272916],[-79.788495385754103,43.340600792243102],[-79.788155869128403,43.340388706017173],[-79.787500561023094,43.339841491282606],[-79.785988562964661,43.33879667012382],[-79.785328566847895,43.33830494027621],[-79.785328517009802,43.338304903098795],[-79.784030082965387,43.337417674002161],[-79.781941990208921,43.335883625706366],[-79.780843859367138,43.335079963120776],[-79.780834231549719,43.33507287303545],[-79.778230395801316,43.333155288518654],[-79.778221439942726,43.333148361347632],[-79.777324568514373,43.332454640044595],[-79.777324654900596,43.332454508963039],[-79.777324517983914,43.332454600965356],[-79.777202690470304,43.332536489103511],[-79.776975543404333,43.332650940591535],[-79.777022654691223,43.332698763122487],[-79.776751348460436,43.332701229713379],[-79.776715504463013,43.33270108942596],[-79.776689073491994,43.332708262647799],[-79.776584687950304,43.332775374102951],[-79.776524483221408,43.332827965285311],[-79.776495854376549,43.332866576923728],[-79.776556504792197,43.332941692890579],[-79.776659412660948,43.333060662735171],[-79.776468712889496,43.333151811671279],[-79.776321921604548,43.333238954915707],[-79.77624948899205,43.333283706944066],[-79.776177143555188,43.333328406282583],[-79.77603236440234,43.333417866726954],[-79.775881557456557,43.333500364791654],[-79.775716705412279,43.33356661235478],[-79.77540104458285,43.33371536636011],[-79.775202061498675,43.333742168051785],[-79.775003090944381,43.333768969801113],[-79.774838224726494,43.333835224944835],[-79.774685414239983,43.333915394821027],[-79.77429548784076,43.333978284340915],[-79.774106533620881,43.334016690552211],[-79.773807374702159,43.334186741537728],[-79.773451631750063,43.334360390210549],[-79.773141809087335,43.334514008661749],[-79.77286242066431,43.334681531900074],[-79.772841454189091,43.334666017379419],[-79.77253760197361,43.334808460617033],[-79.772122886732546,43.334951442339367],[-79.771851573792176,43.335085309440828],[-79.771719964123648,43.335184315542335],[-79.771631889205693,43.335308352863834],[-79.771446878892974,43.335376620175765],[-79.771199848824182,43.335374264508005],[-79.771138081984958,43.33537367311137],[-79.771274909427618,43.335627107849781],[-79.771180223195714,43.335747336935725],[-79.771144545884212,43.335901534824927],[-79.771064114717433,43.336029967402631],[-79.771015901200485,43.336176943673991],[-79.770963248704675,43.33632136943173],[-79.770892645110678,43.336455462873381],[-79.770795005719009,43.336573994420426],[-79.770725377163444,43.336708647773193],[-79.770645919312969,43.336837648413919],[-79.770578034312905,43.336973310901143],[-79.770054384387095,43.337326944583197],[-79.76938997351202,43.338159405908137],[-79.769574488700115,43.338502962345046],[-79.769171148467066,43.338565973066594],[-79.76903512127096,43.338666269758512],[-79.769068686847959,43.338730500217856],[-79.768534098742307,43.338817908632386],[-79.768456717662161,43.338811465934135],[-79.768270958839722,43.338789134222992],[-79.768092568516039,43.338736131177832],[-79.767907152556617,43.338713333978482],[-79.767717700940452,43.338700407322925],[-79.767250030177152,43.338765001839718],[-79.767037420237131,43.338817404418471],[-79.766611710711402,43.338968864973808],[-79.7664681331607,43.339058568993003],[-79.766286163494684,43.339120827715362],[-79.766150366315514,43.339216171001318],[-79.766116695488918,43.339268736392334],[-79.766066119959262,43.339347665246706],[-79.765856420534149,43.339389615776085],[-79.765679346549149,43.339454321178685],[-79.765513085433994,43.33952665308523],[-79.765376575004424,43.339619952741856],[-79.765290944854925,43.339718573936771],[-79.76523404419423,43.339760713335387],[-79.765139723250797,43.339833424514303],[-79.764844246707014,43.34004493932111],[-79.764868597590251,43.340062094996306],[-79.764505232451398,43.340407844771974],[-79.764485369245847,43.340426746938626],[-79.764305902153509,43.340806286086938],[-79.764208128264585,43.341024742400784],[-79.76417670003832,43.341098600255151],[-79.764164182698977,43.341128162310248],[-79.764061184778029,43.3413668853849],[-79.76405028339947,43.341415302063844],[-79.763912291907232,43.341680975854672],[-79.763862500396044,43.341645644545004],[-79.763676045006775,43.342088291591473],[-79.763758568800114,43.342146092061057],[-79.76363526535583,43.342317709867508],[-79.763482526492567,43.342437512229573],[-79.763550868649247,43.342489531827603],[-79.763425947304484,43.342724973643378],[-79.76336551447379,43.342689914156082],[-79.763239706018311,43.342938610405014],[-79.763156655484096,43.3430932748131],[-79.763048130305066,43.343331027929416],[-79.762919566246666,43.343514176716781],[-79.762641454190884,43.343660392612776],[-79.762341489103591,43.343777538704821],[-79.762151125503294,43.343998188589424],[-79.762125859138919,43.344138979834632],[-79.761866191703106,43.344707426722771],[-79.761844207906378,43.344862093584787],[-79.761636924424394,43.344958900204333],[-79.760824479094694,43.34513617340599],[-79.760803307005645,43.345215616186735],[-79.760729365661263,43.345255020745277],[-79.760707375249652,43.34532921361501],[-79.760662298676493,43.345296138110427],[-79.760302819813191,43.345459124721785],[-79.760062432424974,43.345668504397793],[-79.760005653186099,43.345701187814427],[-79.759971626574028,43.345717727715126],[-79.759856702077997,43.345773590666838],[-79.759727023486931,43.345873197959563],[-79.759644157558924,43.34600846611351],[-79.759501477950423,43.346098161975625],[-79.759434224000444,43.346245314162196],[-79.759307143671549,43.346346903113805],[-79.759170043203682,43.346440684060319],[-79.759066755037182,43.346560215573177],[-79.759038819359731,43.346659610798042],[-79.758963466461978,43.346679746985345],[-79.758834176948412,43.34677947416516],[-79.758709891898945,43.346883073751243],[-79.758590805691028,43.346990646198094],[-79.758555730609984,43.347032875061629],[-79.758489920065642,43.347112076175812],[-79.758368233040173,43.347217666551344],[-79.758264758588552,43.347337113987599],[-79.758124870739465,43.347428837669497],[-79.758003183126945,43.347534418368198],[-79.757878894437411,43.347638025998613],[-79.75780140625244,43.347777286110038],[-79.757684917321626,43.347886831119531],[-79.757589240310068,43.348012224419989],[-79.757485750312782,43.348131680236975],[-79.75738747300197,43.34825509160131],[-79.757260569471953,43.348356715811917],[-79.757141490309365,43.348464278147347],[-79.757001585841678,43.348555999980803],[-79.756895506292594,43.348673464140028],[-79.756823473071734,43.348797375942354],[-79.756577201378221,43.348976420330828],[-79.756534240073222,43.349131020025567],[-79.756393173224907,43.349289812430612],[-79.756254074504952,43.349433156117975],[-79.755886212964327,43.349838619296278],[-79.755670315579763,43.34999457994163],[-79.755576774904455,43.350062159133444],[-79.755342192814908,43.350323871829218],[-79.755165406400423,43.350540227289677],[-79.755146147931939,43.350553353183109],[-79.754868562074805,43.350742543078987],[-79.754476711160962,43.351039263181256],[-79.754016622670889,43.351362387467404],[-79.753683313508432,43.351605453972894],[-79.753369253547689,43.351763978477855],[-79.753121797518901,43.351888894172987],[-79.751663522852965,43.352195201260464],[-79.751468351160128,43.352307095813877],[-79.750156272037614,43.353119438856105],[-79.749936202780489,43.353247717072549],[-79.749596217681614,43.353386723604061],[-79.749171445273362,43.353486064782736],[-79.749130994024185,43.353492141867399],[-79.749087337328021,43.353498706039488],[-79.749026648682161,43.353453758129291],[-79.748355579477547,43.353972507532781],[-79.748219174949043,43.354160416293674],[-79.747958435126023,43.354856556316108],[-79.747783089370571,43.355097524951717],[-79.747561594790739,43.355401884303376],[-79.747542660096798,43.355427916027203],[-79.747298674721137,43.355761302103673],[-79.747150385080261,43.355963927586771],[-79.747111087259967,43.356017632589321],[-79.746944447631634,43.356162625950475],[-79.746689837731736,43.356384148551456],[-79.746440340130306,43.356601233059358],[-79.746352458203773,43.356692665534766],[-79.745885197599279,43.356986548447793],[-79.745649317149471,43.357098274896011],[-79.745441140150774,43.357217787082732],[-79.745251691352564,43.357398564390039],[-79.745067502303755,43.357574338174473],[-79.744991722158872,43.357646641348161],[-79.744754932819973,43.357744786328077],[-79.744312519619015,43.357718698979134],[-79.743955709755269,43.357824394385268],[-79.743631569158509,43.358002176915406],[-79.743379285675573,43.35814054289775],[-79.743138882845628,43.358272402657263],[-79.743030614469617,43.358331777567365],[-79.742926710707209,43.358439140218898],[-79.742820587422912,43.358548783768697],[-79.74261419333169,43.358871866294521],[-79.742578322664102,43.358931423868455],[-79.742562784285397,43.358966842709229],[-79.744474887217223,43.360388400705482],[-79.753696013549785,43.367270988775523],[-79.754492059302535,43.367932922791709],[-79.760299016206403,43.372225413441718],[-79.764978093142531,43.375684670167814],[-79.771945838866287,43.380961666513052],[-79.781147650346412,43.387253815983229],[-79.79036719747269,43.393847900025484],[-79.806117883599271,43.379201248662639],[-79.8202723409523,43.366084682491525],[-79.821859497862661,43.364762464699034],[-79.821859391704521,43.364762427407619],[-79.821859622142512,43.364762426540125]]]},"properties":{"OBJECTID":6,"WARD_NO":"4","CREATED_USER":null,"CREATED_DATE":null,"LAST_EDITED_USER":"SXG","LAST_EDITED_DATE":1684173947000,"WARD_NO_INTEGER":4,"SHAPE.STArea()":21652190.890273381,"SHAPE.STLength()":19159.30723187988}}]}