{"type": "FeatureCollection", "features": [{"type": "Feature", "geometry": {"type": "MultiPolygon", "coordinates": [[[[-97.9087960600303, 49.1775794101557], [-97.9087907332455, 49.170353664612], [-97.9087856227479, 49.1635641043056], [-97.9087852983201, 49.1630982193153], [-97.9087850875651, 49.1628269101272], [-97.9125797315106, 49.1628226789647], [-97.919837334395, 49.1628143383052], [-97.9306506351439, 49.1628010144805], [-97.9313031678743, 49.1628001562395], [-97.9315699734261, 49.1627999896484], [-97.9423549761478, 49.1627945839287], [-97.9533908749925, 49.1627879947182], [-97.9538045867696, 49.1627876959273], [-97.9594235712484, 49.1627838674116], [-97.9605101137472, 49.1627830393626], [-97.9615966544891, 49.1627822910275], [-97.9626833343814, 49.1627814437607], [-97.9637698753751, 49.1627806749745], [-97.9640206261719, 49.1627804962048], [-97.9648564183695, 49.1627798060244], [-97.964858167924, 49.1630512181549], [-97.9648809915262, 49.1666876121955], [-97.9649039514798, 49.170324005219], [-97.9649152921132, 49.1721422895976], [-97.9649267678382, 49.1739606645829], [-97.9649345678069, 49.1751854793933], [-97.9684952662508, 49.1751803694637], [-97.9760192480631, 49.1751673008415], [-97.9764332134765, 49.175165667201], [-97.9764495515131, 49.17757973679], [-97.9787363868312, 49.1775789273194], [-97.9787269584342, 49.1778548254631], [-97.9787348736251, 49.1816653621299], [-97.978736136298, 49.1822737325882], [-97.9787372031351, 49.1827873962338], [-97.9787383412912, 49.1833355313623], [-97.9787394793792, 49.1838836664395], [-97.9787408403992, 49.1845393180712], [-97.978741410843, 49.1848145145124], [-97.9787422978348, 49.1852411544534], [-97.9787437212354, 49.1859272365749], [-97.9787452707601, 49.1866736608593], [-97.9787468187866, 49.1874200850364], [-97.9787483680589, 49.1881665091305], [-97.9787495860637, 49.1887536697688], [-97.9787517327027, 49.1897882239123], [-97.978753281064, 49.1905343391534], [-97.9787564043537, 49.1920399279412], [-97.9787631949603, 49.1932894210947], [-97.9788056527136, 49.1998496061096], [-97.9783916070694, 49.1998504689881], [-97.9756164273802, 49.1998562420336], [-97.9728412467237, 49.1998619474744], [-97.9700660678179, 49.1998675871336], [-97.9672908800678, 49.1998731429256], [-97.9670938854275, 49.1998735401478], [-97.9562287128364, 49.1998946844208], [-97.955814695249, 49.1998948099263], [-97.9520676707434, 49.1998959532046], [-97.9477572781223, 49.1998970607019], [-97.9447821480998, 49.1998977115013], [-97.9390206413138, 49.199898808188], [-97.9374314270037, 49.1998990399529], [-97.9358420738538, 49.1998993385211], [-97.9339114622848, 49.1998995239966], [-97.9337622109752, 49.1998995809291], [-97.9331586440572, 49.1999001284257], [-97.9222308228739, 49.1999093089727], [-97.9111500053846, 49.1999175376707], [-97.9111444463112, 49.1999198285963], [-97.9107087967775, 49.1999172315854], [-97.8996764088599, 49.1999083946302], [-97.8996732240719, 49.1981437691515], [-97.899666771246, 49.1945701443683], [-97.8996636835238, 49.1928604936715], [-97.8996631268485, 49.1922849526963], [-97.8996827566575, 49.1851588736854], [-97.8996854842077, 49.1841680549625], [-97.8996862349392, 49.1838953812365], [-97.8996895590813, 49.1826876991717], [-97.899702830693, 49.1778625670799], [-97.9087710839125, 49.1778672735977], [-97.9087962719279, 49.1778672750372], [-97.9087960600303, 49.1775794101557]]], [[[-97.9111631781845, 49.2287292225341], [-97.911162955449, 49.2285649932525], [-97.910748665255, 49.22856376417], [-97.899719006336, 49.2285304965421], [-97.8997026475562, 49.2221545244799], [-97.9107398206531, 49.2221567417412], [-97.9111541905617, 49.2221569048696], [-97.9222543560463, 49.2221607347656], [-97.922293901413, 49.2287379541505], [-97.9111631781845, 49.2287292225341]]]]}, "properties": {"district_id": "Winkler", "muni_name": "CITY OF WINKLER"}}]}