{"type": "FeatureCollection", "features": [{"type": "Feature", "properties": {"district_id": "Moose Jaw"}, "geometry": {"type": "Polygon", "coordinates": [[[-105.53509270118482, 50.43418120249929], [-105.53620169550443, 50.43418077412648], [-105.53620119299146, 50.43341327515095], [-105.54596749363675, 50.43340826950638], [-105.5461146621793, 50.43340818146575], [-105.5517697836737, 50.433405021165036], [-105.5574249021955, 50.43340158603002], [-105.55770805923495, 50.43340139839091], [-105.56880496753234, 50.43339373875953], [-105.56901955278656, 50.433393579970975], [-105.56902211316046, 50.43071273240717], [-105.56902396845157, 50.42879295052936], [-105.56902609711152, 50.42650356190751], [-105.56902642869218, 50.42614355152337], [-105.56945764765887, 50.42614342046334], [-105.56945797675634, 50.426323468206704], [-105.569458449874, 50.42650378504382], [-105.57025410848321, 50.42650442820992], [-105.57053025489736, 50.42650465016704], [-105.57169680091323, 50.426364947709985], [-105.5720313892243, 50.42632487506907], [-105.57313894637015, 50.426325476531424], [-105.57342217801174, 50.42632562794412], [-105.57458093302226, 50.42632624305478], [-105.57486416464387, 50.426326390957364], [-105.57602291534896, 50.42632699172842], [-105.57630614414576, 50.426327137034136], [-105.5774648581549, 50.42632772272716], [-105.57774815450355, 50.42632786418738], [-105.58034404966838, 50.42632912844594], [-105.5806273025446, 50.426328704617774], [-105.58605652003877, 50.42632954534839], [-105.58633935597426, 50.42632955938821], [-105.58748815805478, 50.42632970039489], [-105.58777127662641, 50.42632979946163], [-105.58891191361613, 50.426329967656194], [-105.58919503104697, 50.42632997332944], [-105.59185965870638, 50.426330119972405], [-105.59194857909675, 50.426330198249154], [-105.59194847947845, 50.426182175054], [-105.59194861250911, 50.426000865797434], [-105.5919490950316, 50.42550541243792], [-105.59194908819126, 50.42549695859961], [-105.59195564648924, 50.41873876923791], [-105.59195681080011, 50.417533365396935], [-105.5919631099952, 50.41147666147143], [-105.60328540364232, 50.41149971372296], [-105.6035682985031, 50.41150022504144], [-105.60356817009607, 50.41122646334409], [-105.60356684520717, 50.40848335084211], [-105.60356480829043, 50.404234923835865], [-105.60356486454347, 50.40414451530126], [-105.60356530216656, 50.403459487483495], [-105.60356541616231, 50.40327856425768], [-105.60356581694187, 50.40264801927853], [-105.60356593208213, 50.40246707353786], [-105.60356633274766, 50.401836513182815], [-105.60356644837918, 50.40165560428791], [-105.60356684968444, 50.40102508791034], [-105.60356696361221, 50.400844153817324], [-105.6035673652831, 50.400213659834165], [-105.60356748207062, 50.400032727499905], [-105.60356782848683, 50.39948695812386], [-105.6035678849316, 50.39940221003996], [-105.60356800597435, 50.39922127855788], [-105.60356842455144, 50.39859077351984], [-105.60356854591389, 50.39840986539416], [-105.60356896580606, 50.397779346771514], [-105.60356908689441, 50.397598415239], [-105.60356943389904, 50.39707605489018], [-105.60356950381207, 50.39695967825707], [-105.60356959795301, 50.39677872795259], [-105.60356896557708, 50.39666244489254], [-105.61465859513629, 50.39666760437307], [-105.61487878557855, 50.39672744389379], [-105.61487888502609, 50.396784075647446], [-105.61508753946939, 50.39678414176947], [-105.61626574359325, 50.39678474133691], [-105.6174011740366, 50.396785196246704], [-105.61837592786523, 50.39678559492346], [-105.61935068280889, 50.39678607536172], [-105.61935063857726, 50.39673948908741], [-105.6196311897187, 50.396739613937264], [-105.62024603796696, 50.39673984486951], [-105.62024622376339, 50.396786430390165], [-105.62127148764958, 50.39678680529548], [-105.62191405416208, 50.396787059250656], [-105.62277836007553, 50.39678738189335], [-105.62467517570694, 50.3967880581374], [-105.62611205055742, 50.39678855369677], [-105.62618496880576, 50.39678069658486], [-105.62646778775958, 50.39675003484332], [-105.62647322463958, 50.396749420984825], [-105.62654084538958, 50.39674208682213], [-105.62654110660795, 50.395890901034896], [-105.62654155735267, 50.39448834714232], [-105.62654196923503, 50.39317675381262], [-105.62654285424028, 50.39037239993761], [-105.62654309638025, 50.38955812284837], [-105.62654587616039, 50.38699350714843], [-105.62654600000954, 50.38684277454785], [-105.62654698236997, 50.38473416760034], [-105.62654742174941, 50.38378640629393], [-105.62654747266086, 50.38367283538167], [-105.6265475002012, 50.383618343270555], [-105.6265475048657, 50.38359093987664], [-105.62654751495356, 50.38355220457119], [-105.62654770343985, 50.383278259794416], [-105.62654842798092, 50.38232970528304], [-105.6265483173522, 50.381768282920895], [-105.62654799672924, 50.381378818517774], [-105.62654727414795, 50.380032126486334], [-105.62647156474367, 50.38003648244089], [-105.62618051242009, 50.380059184499146], [-105.62611434772958, 50.38006314708328], [-105.6201895581793, 50.38041811628087], [-105.61907505669382, 50.38048493062123], [-105.61506548352263, 50.38072520336838], [-105.61485210097575, 50.3807380051163], [-105.61463767804008, 50.3807508479442], [-105.60351544347137, 50.38141504508136], [-105.60323278560325, 50.38143241187783], [-105.60301913465057, 50.38144561599462], [-105.60292145895622, 50.38145169831874], [-105.6027346900919, 50.38146408805586], [-105.60254793366076, 50.38147746671934], [-105.60236146865796, 50.38149165299333], [-105.60235847593579, 50.38149190232337], [-105.6021750194827, 50.38150709798366], [-105.60217248791817, 50.381507111089185], [-105.60203086487782, 50.38151926597412], [-105.6018185839083, 50.381538531441876], [-105.60171266001068, 50.38154861258757], [-105.60157134076029, 50.38156256405157], [-105.601447867126, 50.38157516397512], [-105.60128928390625, 50.381591992361194], [-105.60107804021987, 50.38161547808376], [-105.60097270583314, 50.38162771396125], [-105.60081456918749, 50.381646517973635], [-105.6007093832565, 50.38165938239421], [-105.6005690955701, 50.38167710460385], [-105.60042909587611, 50.38169536477061], [-105.60027183215519, 50.38171650186177], [-105.60011471801414, 50.38173835745248], [-105.59995789295488, 50.38176084088821], [-105.59978380944293, 50.38178665078167], [-105.59957534405838, 50.381818663319926], [-105.59940198600891, 50.38184626761187], [-105.59922905988499, 50.381874678839516], [-105.5990367768247, 50.381907326530346], [-105.59669012991863, 50.38231132668323], [-105.59340235640154, 50.38231249664167], [-105.59194982704454, 50.38231288254581], [-105.59194764450605, 50.38155941411323], [-105.59194694800446, 50.381319937413245], [-105.59194603674948, 50.381003764798336], [-105.59194594936692, 50.380971883106476], [-105.59194538560594, 50.38077855161644], [-105.59194247149834, 50.37976964284648], [-105.59193426253609, 50.37693073691872], [-105.59193381255383, 50.37677512189554], [-105.59193211380389, 50.37618745822142], [-105.59192888328118, 50.37506994044785], [-105.59122305036777, 50.37507011272758], [-105.58865899930083, 50.37507083212359], [-105.58822374707697, 50.375070948458806], [-105.58480209650774, 50.375071808401984], [-105.58448372775703, 50.37507188242559], [-105.5840532456428, 50.375071983466846], [-105.58404608745525, 50.37507198433495], [-105.58063626147128, 50.375072719010724], [-105.58035345234126, 50.37507296125764], [-105.58013913071474, 50.37507315803482], [-105.56902266914234, 50.37508307671356], [-105.5687397179611, 50.37508320148078], [-105.56783939371807, 50.375083643065885], [-105.56775374812531, 50.37508361146718], [-105.56715381352467, 50.37508393014915], [-105.56655233202254, 50.37508425327127], [-105.56648201629957, 50.375084298956715], [-105.56646795311207, 50.37508430449151], [-105.5650129771606, 50.37508499581252], [-105.56477699657044, 50.3750850626383], [-105.56309658660999, 50.37508574514494], [-105.56127962470032, 50.37508661270322], [-105.55877005057044, 50.37508772336615], [-105.55857583746808, 50.37508775682754], [-105.55845915116787, 50.37468376025791], [-105.5583221927061, 50.37420946833164], [-105.55805648821702, 50.373288931354935], [-105.55804622501094, 50.37325318625658], [-105.55801579405184, 50.37314055310265], [-105.55799868798648, 50.37307291371524], [-105.55797990121053, 50.37299386057512], [-105.55797598499704, 50.37297649482402], [-105.55796714458621, 50.37293735232215], [-105.55795031039881, 50.37285810993781], [-105.55793685637542, 50.372790093277615], [-105.55792633356985, 50.37273339443207], [-105.55791412091756, 50.37266330329611], [-105.55790349724104, 50.372597998100545], [-105.55790302726338, 50.37259509543702], [-105.55789294608441, 50.37252688271987], [-105.55788372269772, 50.372458665886796], [-105.55787282426046, 50.37236752352404], [-105.55786457576936, 50.37228770032725], [-105.55785662929308, 50.37219645386666], [-105.55785244533288, 50.37213945480028], [-105.55784826702329, 50.37207094395667], [-105.55784451726852, 50.37199100924266], [-105.55784148399643, 50.37188822746271], [-105.55783945847833, 50.371019882440244], [-105.55783881455467, 50.370750285697504], [-105.5578354431577, 50.36928618669188], [-105.5578347832124, 50.36902240877868], [-105.55783244472596, 50.36799657859483], [-105.55783240960481, 50.3679839877785], [-105.55783231773023, 50.36789099480222], [-105.55783187153887, 50.36771020838214], [-105.5579370733942, 50.36770994660601], [-105.55793617655651, 50.36757590187971], [-105.55792195538882, 50.365547561949], [-105.55791125365646, 50.36404712681745], [-105.55790962041858, 50.36373991440721], [-105.55790247486148, 50.362375422037076], [-105.55790246950356, 50.36237436531841], [-105.55789301924342, 50.36060510461013], [-105.55789246771462, 50.360501682076816], [-105.55789283102254, 50.35872158233692], [-105.5578938961299, 50.354746325858336], [-105.55789424595064, 50.3532648113998], [-105.55768846170804, 50.35326543863481], [-105.55740534621505, 50.35326445758101], [-105.557263929031, 50.35326396612211], [-105.5568391162993, 50.35326258333643], [-105.5550060521152, 50.35325646120685], [-105.54797961513555, 50.353232716433695], [-105.54704756668791, 50.35287070586216], [-105.54666091423579, 50.35275236971802], [-105.54645699805052, 50.35270737084596], [-105.54612536268817, 50.352679429693985], [-105.54581743472717, 50.35272080677823], [-105.5455453052826, 50.352795021565214], [-105.54489965334069, 50.353222275624766], [-105.53723531429637, 50.35319569742173], [-105.53709291341305, 50.35319518597898], [-105.53661738184563, 50.353193495879054], [-105.5348676374196, 50.353187274422474], [-105.53472439572718, 50.35318698878593], [-105.53458509144417, 50.353186837764966], [-105.53313961581084, 50.35318522599003], [-105.53303133513248, 50.35318510176331], [-105.53279356199161, 50.353184842262344], [-105.53255474860146, 50.353184578045166], [-105.53181817885539, 50.35318375758573], [-105.5313899481375, 50.35318327776806], [-105.52317074951554, 50.353173316855674], [-105.51193837265103, 50.35314710948318], [-105.51165569514426, 50.353147454098846], [-105.5066102305293, 50.353153497452944], [-105.50034451119573, 50.353160692866325], [-105.4890334565899, 50.35317310073385], [-105.48875049448107, 50.35317312106353], [-105.4774245310408, 50.353170882200054], [-105.46609870275478, 50.35316762970665], [-105.46581587909897, 50.35316741380762], [-105.46580413944963, 50.358917623389345], [-105.46580110234356, 50.3604061147641], [-105.46578599888053, 50.36763986157634], [-105.46578566105282, 50.367820812894614], [-105.4657708076506, 50.37506543165203], [-105.46576652925576, 50.38229803767133], [-105.46604952435213, 50.382298073348665], [-105.466049468214, 50.38247893314959], [-105.46604941041424, 50.382572070214835], [-105.46604703293238, 50.38657926451644], [-105.46604703344651, 50.38658218740446], [-105.46604668633003, 50.38718974519591], [-105.46604667947713, 50.387193351619715], [-105.46604577427992, 50.38837401373847], [-105.46604541875539, 50.38894051602939], [-105.46956251066257, 50.389537031308244], [-105.47092245492179, 50.38976833289005], [-105.47102701197899, 50.38978607645343], [-105.47115157010215, 50.38980634703311], [-105.47127640075671, 50.38982571702495], [-105.471401644606, 50.38984418585807], [-105.47152716008132, 50.389861664169935], [-105.47160688823949, 50.38987231304776], [-105.47160759248264, 50.389872400127736], [-105.47171773489555, 50.38988589347992], [-105.471828291349, 50.389898575633154], [-105.47193911848935, 50.389910177362644], [-105.4720500783175, 50.38992096903283], [-105.47216131060517, 50.389930860140886], [-105.47227267378247, 50.38993976132577], [-105.47238430851294, 50.38994767201589], [-105.47249593523631, 50.38995477321606], [-105.47260783349991, 50.38996088392047], [-105.4727198635205, 50.389966094631426], [-105.47283188372697, 50.389970315988926], [-105.47294403567727, 50.389973637352526], [-105.47305617779989, 50.389975969362474], [-105.47316845254828, 50.389977491309466], [-105.47328071656058, 50.389977933971274], [-105.47339297251538, 50.3899775671421], [-105.47350521861574, 50.38997621095922], [-105.47361745485459, 50.38997386542266], [-105.47372954234663, 50.38997071096809], [-105.47379451149189, 50.38996837786816], [-105.4738570874402, 50.38996587461035], [-105.47398518532664, 50.389960046574835], [-105.47411299197525, 50.38995323029965], [-105.47424079051301, 50.38994560450163], [-105.47436843757127, 50.38993689996027], [-105.47449453002811, 50.389927482139484], [-105.4773785005085, 50.38970037841429], [-105.47737858275917, 50.38972118005586], [-105.47737868467526, 50.38974253921402], [-105.47738294202323, 50.39107807519367], [-105.47739009242738, 50.3932939997918], [-105.47739468411567, 50.39472209466933], [-105.47739499260723, 50.394818656592214], [-105.47739910362695, 50.39612318243511], [-105.47740130227315, 50.39677637098964], [-105.47740114899038, 50.39695723079996], [-105.47740118533228, 50.3969748579004], [-105.47740081080367, 50.39818292847134], [-105.47735534028374, 50.39818471589983], [-105.47255560101873, 50.398373425125726], [-105.47175924831723, 50.39840472587533], [-105.46607989551647, 50.39862772306311], [-105.46607956290862, 50.39880903313911], [-105.4660790914097, 50.40012118494267], [-105.46607875265923, 50.401050842986294], [-105.47739999274357, 50.401044597583294], [-105.47897775982575, 50.40104433589177], [-105.48871100154547, 50.40104223982658], [-105.48899216848292, 50.40103971832884], [-105.48899214741417, 50.40131392096594], [-105.4889921489757, 50.40138245135913], [-105.48899198912005, 50.4042141418345], [-105.48899347909992, 50.40604970584909], [-105.48899588881763, 50.40901682505139], [-105.48899774331467, 50.41130961432957], [-105.49632069945697, 50.411309812996556], [-105.49632068100993, 50.41120027252123], [-105.50030895869585, 50.41120009820065], [-105.50030903888721, 50.41130981739246], [-105.50030905893776, 50.41133724741489], [-105.50030916014911, 50.4114744883552], [-105.50030919518296, 50.4116114588732], [-105.50030914479811, 50.411633403175664], [-105.50031105806383, 50.417962371627944], [-105.50031129224094, 50.418732930909414], [-105.5073076525372, 50.41872844739903], [-105.51161492217774, 50.41872550580091], [-105.51189813151619, 50.41872524942006], [-105.51188612674792, 50.42593068594832], [-105.52321048910382, 50.42593706455319], [-105.52545008037043, 50.42593857399872], [-105.52887239521124, 50.42594060623309], [-105.52887295831451, 50.42594060367365], [-105.53008572737947, 50.42594136242003], [-105.53043763082, 50.42594157540109], [-105.53043754691242, 50.42598447460515], [-105.53301177185772, 50.425985031997214], [-105.53388209458981, 50.42598517892042], [-105.53407158897087, 50.425985208650324], [-105.53435373328227, 50.42598528927835], [-105.53453321819374, 50.425985337242906], [-105.53481548990533, 50.425985479120214], [-105.53481527341381, 50.42616624875488], [-105.53528496710912, 50.4261660045419], [-105.53530061476894, 50.42653373826791], [-105.5352896626072, 50.426898473609945], [-105.53528424216046, 50.42707953696381], [-105.53526493421344, 50.427727155102296], [-105.53523493508148, 50.42872529751723], [-105.53522951427124, 50.42890636081295], [-105.53521859258377, 50.42927388383084], [-105.5352076383085, 50.429638529067226], [-105.53520221731675, 50.42981959233388], [-105.53520210897008, 50.42982247073911], [-105.53518845739873, 50.43027759354297], [-105.53518020895535, 50.43055257048741], [-105.5351749285714, 50.43073363307744], [-105.53511730612657, 50.43262908909007], [-105.53509348479606, 50.433413787565364], [-105.53509270118482, 50.43418120249929]]]}}]}