{"type": "FeatureCollection", "features": [{"type": "Feature", "properties": {"district_id": "Yorkton"}, "geometry": {"type": "MultiPolygon", "coordinates": [[[[-102.43929117347946, 51.225125861335854], [-102.43929563183143, 51.226134924321364], [-102.43929566673565, 51.22613997076648], [-102.43930081000457, 51.227305905400776], [-102.43932277710645, 51.23226527187254], [-102.43522529619514, 51.2322753334702], [-102.43459014284913, 51.232276874701405], [-102.42781250133783, 51.23229316087923], [-102.42781448865587, 51.23357738114349], [-102.42781506090442, 51.23386241649567], [-102.42781742954152, 51.235422223779786], [-102.42781751479791, 51.235500294352484], [-102.42781833750988, 51.236047872596245], [-102.42782055759325, 51.23754867493289], [-102.42782066347291, 51.23758015656568], [-102.42782115423627, 51.23786150239309], [-102.42782153800826, 51.23818071096018], [-102.42782349003534, 51.23952195190213], [-102.42782339701256, 51.23979321144303], [-102.42782291238981, 51.24504205652879], [-102.42782273331153, 51.2470220985445], [-102.43357305957251, 51.247008040450964], [-102.43932339243906, 51.24699369961511], [-102.44501167379107, 51.24697920469399], [-102.44629945176064, 51.24697584411659], [-102.44665231922212, 51.246974912203854], [-102.44675594263254, 51.24697465555467], [-102.4473642138479, 51.24697308964921], [-102.45012350483896, 51.246965990299], [-102.45037647547132, 51.24696529806846], [-102.45037815259893, 51.24696528965051], [-102.45066455814975, 51.246964560997185], [-102.45077577756969, 51.24696428643638], [-102.45120776346376, 51.24696308613729], [-102.45131907634183, 51.24696371249974], [-102.45132122469089, 51.24555682153324], [-102.45132224755842, 51.24494497915083], [-102.45132525515486, 51.24302760456023], [-102.45132606121459, 51.24247925520146], [-102.45132640278439, 51.24229947167577], [-102.45132699523585, 51.24193117841063], [-102.4513303926947, 51.23974028451629], [-102.4513307766744, 51.239469032368994], [-102.4516185557127, 51.23947034632978], [-102.457047937807, 51.23949516918938], [-102.45725843630073, 51.239496129365904], [-102.45773770578205, 51.23949830768953], [-102.45836272754777, 51.23950114163095], [-102.4628763022327, 51.23952153147925], [-102.47447517614422, 51.23957375382648], [-102.47490720919977, 51.23957561539343], [-102.47919055633122, 51.23954738687984], [-102.48623033068993, 51.23950064842809], [-102.49755346338682, 51.23942440512064], [-102.49798547116885, 51.23942141403395], [-102.50287144396323, 51.23944051671392], [-102.5078513568303, 51.2394597777392], [-102.50954714441099, 51.239466392092005], [-102.5211106116544, 51.239509994517185], [-102.52154265677002, 51.239511594007936], [-102.52153163085187, 51.23807250902085], [-102.521486951776, 51.23227873907522], [-102.52150915794239, 51.229077990958], [-102.52151012959203, 51.22893734604708], [-102.52151217109078, 51.22863285388568], [-102.5215181488199, 51.22778286257353], [-102.52152510349104, 51.22679341352404], [-102.52152670252606, 51.22656617002067], [-102.52152802909927, 51.22636158551883], [-102.52152851666546, 51.226287215791736], [-102.52153232142805, 51.22575800177929], [-102.52153757518133, 51.22499659431695], [-102.52153939804843, 51.224725464960365], [-102.52110809092594, 51.2247260386047], [-102.52078034508793, 51.22472654826876], [-102.52077950138808, 51.22472654927333], [-102.52075627977257, 51.22472658681769], [-102.52026495034525, 51.22472729716235], [-102.51864505451678, 51.224729603417856], [-102.51848327414065, 51.22472983185055], [-102.51845832627272, 51.22472497647226], [-102.51834436076896, 51.22470278084132], [-102.518204659699, 51.22467706204766], [-102.51811711061002, 51.224661713470226], [-102.5180468517455, 51.22464978965989], [-102.5179413581402, 51.224632531207774], [-102.51788837984098, 51.22462421182221], [-102.51780001407745, 51.2246107344088], [-102.51774686374942, 51.22460295094615], [-102.51767593609017, 51.22459281151217], [-102.51756929620856, 51.224578226586196], [-102.51746246980566, 51.224564447060864], [-102.5173732487, 51.22455355942012], [-102.51728385555222, 51.22454320769739], [-102.5171404518793, 51.22452775209805], [-102.51699668478214, 51.22451372764238], [-102.51690659860596, 51.22450560941069], [-102.51685255908475, 51.224501044491866], [-102.51676242459091, 51.224493824519925], [-102.5166721180343, 51.22448714046344], [-102.51652739399847, 51.22447759209709], [-102.51643701010933, 51.22447234525183], [-102.51636445184923, 51.22446855611507], [-102.51621942521838, 51.22446196895174], [-102.51612865365851, 51.22445860236936], [-102.51605602287407, 51.22445616059639], [-102.51596519811623, 51.22445378209405], [-102.51583685053215, 51.22445132613392], [-102.5158052225651, 51.224450834293364], [-102.5156696537961, 51.22444948393963], [-102.5155340366451, 51.224449031798144], [-102.51549593185753, 51.22444912181976], [-102.51542315594241, 51.2244493747621], [-102.51531410610053, 51.2244502961513], [-102.51520501753635, 51.22445193613399], [-102.51507784250852, 51.2244545678558], [-102.51505963158756, 51.22445494545971], [-102.5149378360007, 51.22445822195809], [-102.5095518527346, 51.224620980046254], [-102.5091651488872, 51.22463268544081], [-102.50950243148161, 51.224741769226064], [-102.50864758952555, 51.2247397897703], [-102.50855406967203, 51.224739569619054], [-102.50830532076917, 51.22465900747733], [-102.50478348025949, 51.22351829753396], [-102.50488162901068, 51.224632228121344], [-102.50477855013048, 51.224623373669004], [-102.50468861415018, 51.22461515926891], [-102.50458089186674, 51.22460476654373], [-102.50443731570913, 51.22458992122565], [-102.50432981439951, 51.22457809394457], [-102.504186912784, 51.224561373972286], [-102.50407977553907, 51.22454811519025], [-102.50397295852981, 51.22453423356393], [-102.50388408551052, 51.22452226374986], [-102.50379537991971, 51.22450984774144], [-102.50365369902782, 51.22448910587016], [-102.50351250582813, 51.22446729495641], [-102.50337165726184, 51.22444441194829], [-102.50324889089947, 51.22442353366785], [-102.50310886981181, 51.224398599386234], [-102.50296933158748, 51.22437268590487], [-102.5028651449255, 51.22435256361954], [-102.5027784194451, 51.22433533235271], [-102.5026401623582, 51.22430692750975], [-102.50250253122927, 51.224277546528306], [-102.50241675687249, 51.224258626440964], [-102.50233114998113, 51.22423926016649], [-102.5022288753369, 51.22421558054093], [-102.50212692099335, 51.224191278085684], [-102.50204210267565, 51.22417057933891], [-102.50190715265711, 51.22413666797174], [-102.50175588449858, 51.22409728133922], [-102.50162234417655, 51.22406115125051], [-102.50155573176205, 51.22404281969798], [-102.50148942500141, 51.22402413487635], [-102.50135713671334, 51.22398605254702], [-102.50122576058448, 51.22394700021339], [-102.50107867282762, 51.223901855904614], [-102.50093265497378, 51.22385547510825], [-102.50080374389039, 51.22381323712332], [-102.50070752766082, 51.223780871485815], [-102.50064368594269, 51.22375900101218], [-102.50051661390084, 51.22371455350409], [-102.50037471803297, 51.22366349326693], [-102.50024947528993, 51.22361701593789], [-102.50012513988472, 51.22356965846504], [-102.50004784998913, 51.22353958551999], [-102.4999862912451, 51.22351524515738], [-102.49986392823506, 51.22346586094035], [-102.49972749100338, 51.22340925036418], [-102.49960709553754, 51.22335792925238], [-102.49947292666913, 51.223299118365176], [-102.49944817423811, 51.22328806622071], [-102.4993219199226, 51.22323122315719], [-102.49919671120466, 51.223173592850294], [-102.49907225708881, 51.22311525902127], [-102.49894870551226, 51.22305613489584], [-102.49882605160592, 51.22299631031271], [-102.49870430024373, 51.22293569543891], [-102.49858358961828, 51.22287438317254], [-102.49856798077282, 51.22286640446166], [-102.4984123510383, 51.22278608740623], [-102.4979948152838, 51.22257059142357], [-102.49799417119111, 51.221731239490865], [-102.49799383714522, 51.221316797740144], [-102.49799360224605, 51.22101141935975], [-102.4979924765564, 51.2195828867367], [-102.49799083741354, 51.21750262815114], [-102.49799087070443, 51.217412239094806], [-102.49799079086252, 51.21708629457045], [-102.49799075422841, 51.21703152028222], [-102.49799069297649, 51.21647550941614], [-102.49799067195814, 51.21610147514422], [-102.49799066154726, 51.21583180755921], [-102.49799058485154, 51.215651026338335], [-102.49799050770287, 51.21532238358875], [-102.49799047099708, 51.215267609285554], [-102.49799029594429, 51.214623904247844], [-102.49799012058159, 51.213980199145766], [-102.49799018667099, 51.2137994209328], [-102.49799025209913, 51.21347078114851], [-102.49799021531808, 51.213416006829554], [-102.49799018240144, 51.21277230466645], [-102.49799012980574, 51.21259424007597], [-102.49799005503911, 51.21229300199591], [-102.49799000614186, 51.21212859937916], [-102.49799007197475, 51.211947821114094], [-102.4979899987828, 51.21161908833943], [-102.49798996679792, 51.2115642241688], [-102.49798988298018, 51.211249153057445], [-102.49798979969786, 51.21092033908879], [-102.49798973423842, 51.21058881828771], [-102.49798977043959, 51.210276546840035], [-102.4979858544236, 51.210005473362294], [-102.49798606377558, 51.20993559433516], [-102.49917704629766, 51.209933995278895], [-102.49946387070058, 51.2099336524217], [-102.50064984299331, 51.209932021173444], [-102.50093753050035, 51.20993160320402], [-102.50212364137073, 51.20993004989976], [-102.50241147200167, 51.209929631358534], [-102.50359758329444, 51.20992806310283], [-102.50388612914087, 51.20992765619587], [-102.50944824561937, 51.20992004877107], [-102.50947960654806, 51.209919997082096], [-102.50947710083122, 51.20938543032133], [-102.50946310717501, 51.20637358071603], [-102.50944639005844, 51.20276473951808], [-102.50080731775302, 51.20277731840655], [-102.49986548628496, 51.202778647122614], [-102.4998671074985, 51.202776469252], [-102.49962723464014, 51.20277511840882], [-102.49866717638768, 51.202769608047014], [-102.49952061258118, 51.20162753976274], [-102.49990370453709, 51.201114976220715], [-102.49990743702409, 51.20111002835526], [-102.49999075204175, 51.20099962699109], [-102.49999300422732, 51.20099663515707], [-102.50004057852996, 51.200935008790076], [-102.50007557382642, 51.200889680497966], [-102.50016039555598, 51.200781577718494], [-102.50016159459449, 51.200780056377155], [-102.50016871100175, 51.200771043587416], [-102.50022606081689, 51.20069966972341], [-102.5002493351457, 51.20067091865672], [-102.50033772204674, 51.20056226237668], [-102.50042793154026, 51.200453779897664], [-102.50046004706907, 51.20041588196341], [-102.50051931547432, 51.2003458081294], [-102.50052844630251, 51.20033528240658], [-102.50060652003464, 51.20024495118156], [-102.50061219640295, 51.20023847088528], [-102.5007029264443, 51.20013489207338], [-102.50070608143679, 51.200131352896854], [-102.50074744920366, 51.200085171255104], [-102.5008319588528, 51.19999123591212], [-102.50084594416795, 51.1999759211587], [-102.50089107077923, 51.19992641106003], [-102.50089808097584, 51.19991882600708], [-102.50099151956199, 51.19981781419052], [-102.50099592407742, 51.199813141478494], [-102.5010747567744, 51.199729382809934], [-102.50109518321251, 51.199707999787506], [-102.50114978487429, 51.19965111009432], [-102.50119568581385, 51.1996034152313], [-102.501225298108, 51.19957312651236], [-102.50127275767235, 51.199524403628374], [-102.50129755648128, 51.19949920159447], [-102.50139490981593, 51.19940094433275], [-102.50140037324311, 51.19939548476816], [-102.5014460856636, 51.19935020517363], [-102.50150464842817, 51.19929232066584], [-102.50158719404695, 51.1992118698401], [-102.5016101852491, 51.199189642121375], [-102.50171674159203, 51.199087425971015], [-102.50173274559454, 51.19907236110182], [-102.50180338195665, 51.19900589324922], [-102.50182492404026, 51.19898583806847], [-102.50189502527094, 51.19892078877987], [-102.50193408845321, 51.19888461281681], [-102.50204304027949, 51.19878519072331], [-102.50204444055903, 51.1987839165003], [-102.50204922821911, 51.19877956672444], [-102.50215618657188, 51.19868390641865], [-102.50217472162306, 51.19866756443637], [-102.50226860911965, 51.198584612216024], [-102.50226898457383, 51.19858428745625], [-102.50226954084877, 51.198583795672086], [-102.50234427333946, 51.198519114857056], [-102.50238328697664, 51.19848542903349], [-102.50249817213778, 51.19838716755853], [-102.50249844263745, 51.198386930496824], [-102.50261436345819, 51.19828962640658], [-102.50261502321864, 51.19828907387263], [-102.50271325618759, 51.19820779705062], [-102.50273276044409, 51.19819179046963], [-102.50285090612923, 51.19809541507489], [-102.50285147523272, 51.198094950544025], [-102.50289099460764, 51.1980632810211], [-102.50297149957129, 51.19799876804416], [-102.5030911693357, 51.19790436766355], [-102.5030926800603, 51.19790316773861], [-102.50320837953159, 51.1978133503667], [-102.50321515968265, 51.197808152676465], [-102.50332377807436, 51.19772511839997], [-102.50333870722996, 51.19771376288774], [-102.50345096468787, 51.19762934016154], [-102.5034635110103, 51.19761995741898], [-102.50358091508606, 51.197532739372775], [-102.50358911395654, 51.19752671751504], [-102.50367567357203, 51.19746350253631], [-102.50371616990961, 51.197434129082616], [-102.50384409846154, 51.19734207179981], [-102.50389103151106, 51.19730881535097], [-102.50397323888662, 51.197250624857475], [-102.50398768118731, 51.197240589987885], [-102.50407279877471, 51.197181256342084], [-102.5041035257327, 51.1971599397531], [-102.50419517463858, 51.197096824023475], [-102.50646863385664, 51.19554203046186], [-102.50686515919087, 51.195270788833575], [-102.50941650529273, 51.19352527178152], [-102.51036841294024, 51.1928740482894], [-102.5103811928389, 51.19286532635437], [-102.51407219228754, 51.19034008178401], [-102.51522277269703, 51.189553095936226], [-102.51551534151821, 51.18935316953265], [-102.51558423885032, 51.189305597969344], [-102.51566205487559, 51.18925186607184], [-102.51570429399216, 51.18922227373429], [-102.51572273633823, 51.189209354396475], [-102.51581915860335, 51.189140979686336], [-102.51582296964419, 51.18913824552109], [-102.51592679548652, 51.189063669235686], [-102.5160216880825, 51.18899445240515], [-102.51605712968242, 51.18896829516562], [-102.51608115472588, 51.18895056563914], [-102.51617465109098, 51.188880689447096], [-102.5162441837231, 51.188827932455084], [-102.51633601240515, 51.18875712131246], [-102.51644929850151, 51.18866787839561], [-102.51653875906622, 51.18859584757896], [-102.51662723796916, 51.18852343608677], [-102.51672554026052, 51.18844133972529], [-102.51677953161811, 51.18839544759198], [-102.51684376086858, 51.188340149243565], [-102.51691809463928, 51.188275261950984], [-102.5170227227884, 51.18818196721276], [-102.51711557874232, 51.18809732649858], [-102.51719482638995, 51.188023549354746], [-102.50941946237633, 51.188035922477226], [-102.50372209831896, 51.18804466886169], [-102.49976878596853, 51.18805057954948], [-102.49802488480869, 51.188053140650915], [-102.49802549057125, 51.19409885723172], [-102.49759378189776, 51.19409888364028], [-102.49669784787693, 51.19474616606083], [-102.4934303444972, 51.19497594487619], [-102.49326395948788, 51.194987488324585], [-102.49311943838367, 51.194997071853145], [-102.49306786628291, 51.19500046328992], [-102.49283289001933, 51.19501512261744], [-102.49283145050713, 51.19501527163532], [-102.49265625442244, 51.195025635967006], [-102.49249343711105, 51.19503473648518], [-102.49227337732005, 51.19504620686279], [-102.49203773798011, 51.19505725275783], [-102.49189283001037, 51.19506340873897], [-102.49171137539, 51.19507039956816], [-102.49162073175312, 51.19507367182093], [-102.4914211240529, 51.19508018287013], [-102.49127589442536, 51.19508435249723], [-102.49111248735677, 51.19508849171765], [-102.49096731139338, 51.195091672767965], [-102.4908038247842, 51.19509464062458], [-102.49077115800895, 51.19509519884774], [-102.4905366529888, 51.1950985311802], [-102.49030233976224, 51.195100967753824], [-102.49006793239202, 51.195102502432405], [-102.48986249398232, 51.1951030395432], [-102.4864846107872, 51.19510585357737], [-102.4860547047065, 51.19510623592818], [-102.48169424482327, 51.1951098554137], [-102.48031317127952, 51.19511100909886], [-102.47982589802302, 51.19511130165121], [-102.47682578897854, 51.19511361285514], [-102.4767602443621, 51.19529877149211], [-102.47646526116998, 51.195299178666986], [-102.47649300011142, 51.19522065646739], [-102.47455036833017, 51.195221350685856], [-102.47454753692968, 51.19449907472969], [-102.47453817375326, 51.192096097260794], [-102.47453656559779, 51.19168665230442], [-102.47453409500703, 51.19105195908734], [-102.47452805203504, 51.18950594486548], [-102.47452591834617, 51.18896661393738], [-102.47452244808032, 51.188072257840915], [-102.47409087744434, 51.18807076090552], [-102.4734369389813, 51.18806849620106], [-102.47343418917586, 51.187362770237165], [-102.4734337523066, 51.187250424727914], [-102.47356257382582, 51.187250150152515], [-102.4740875854112, 51.187249170577545], [-102.47451911001532, 51.187248490022355], [-102.47451701538763, 51.186719161184236], [-102.47451454269115, 51.18611011859829], [-102.47408283053431, 51.18606810909392], [-102.47379530393393, 51.186066970274155], [-102.47029127495215, 51.18605302265127], [-102.46856535068535, 51.18548208718079], [-102.4685640094676, 51.18503580734407], [-102.46855954765851, 51.18411434702326], [-102.4685563245232, 51.18301988503303], [-102.46855614144006, 51.18297257213777], [-102.46855207232669, 51.18192251349206], [-102.46932240293478, 51.18192488798566], [-102.46931517469459, 51.18082925085079], [-102.46931730072599, 51.18055798998435], [-102.46862634158198, 51.180555858636566], [-102.46834082429659, 51.18055497448204], [-102.46262090009448, 51.18053711685111], [-102.4626221674873, 51.18080840656676], [-102.46265642332445, 51.188030693084436], [-102.45690350722785, 51.188010029880566], [-102.45383106847363, 51.18799887738263], [-102.45140161873748, 51.18799000394674], [-102.45120372169666, 51.18798928809467], [-102.45077194739171, 51.18799147809324], [-102.45052929156567, 51.187992663410526], [-102.4392858739066, 51.18804855155413], [-102.43928348738321, 51.19298796638984], [-102.43928336217846, 51.193257589516726], [-102.43928279988364, 51.194406342667726], [-102.439340077929, 51.19442402022621], [-102.43946115238317, 51.19446057030282], [-102.43958284324495, 51.19449633327217], [-102.43970529895782, 51.19453121344725], [-102.43982822909669, 51.19456528541425], [-102.43995163813956, 51.19459846832272], [-102.44007581201735, 51.194630768430635], [-102.44020045930857, 51.19466227829162], [-102.440325733934, 51.19469280340277], [-102.44045148196136, 51.194722538263434], [-102.44057770886334, 51.19475138405665], [-102.44070441513168, 51.1947793317975], [-102.44083174273317, 51.19480640257976], [-102.44095940671923, 51.19483257217733], [-102.44108754905649, 51.19485786168407], [-102.44121617073432, 51.194882253131894], [-102.44134527075036, 51.19490576448556], [-102.44147470712416, 51.194928374648846], [-102.44160447735963, 51.19495012853669], [-102.44173472690883, 51.19497098435954], [-102.44186517629633, 51.19499081907843], [-102.44199610498282, 51.19500975572953], [-102.44212736899595, 51.19502780915034], [-102.44225896832873, 51.19504497933954], [-102.44239076099926, 51.195061245202496], [-102.44252289395136, 51.19507653799941], [-102.44265522022596, 51.19509092646824], [-102.44278788626893, 51.195104350852056], [-102.44292073964819, 51.195116978704746], [-102.4430537918006, 51.195128603411156], [-102.44318704122506, 51.19513925192014], [-102.44332047895851, 51.19514908592927], [-102.44345411345097, 51.195157952722695], [-102.44358780371341, 51.19516581324115], [-102.44372167194426, 51.19517278707925], [-102.44385574722746, 51.19517886587817], [-102.44398987427707, 51.19518401026646], [-102.4440023037692, 51.19518444384463], [-102.44402502117893, 51.195185210222256], [-102.44417993173589, 51.19518985529518], [-102.44433503503154, 51.19519360496339], [-102.4444901935561, 51.195196357285745], [-102.44464540083553, 51.19519822904414], [-102.44480065884976, 51.19519918430523], [-102.44485433740165, 51.19519944882434], [-102.43928231307358, 51.195194486968305], [-102.43827676151484, 51.19520626260076], [-102.43770355567767, 51.19521297838672], [-102.42780214861888, 51.19532846392461], [-102.42780263679856, 51.19559973789748], [-102.42780321378477, 51.19595933625387], [-102.42781016820298, 51.20007088863496], [-102.42781466901693, 51.2028185149752], [-102.42781468138053, 51.20310857593282], [-102.42781511456576, 51.20643511750121], [-102.42781535154903, 51.2083702445335], [-102.42781534736159, 51.20855012690128], [-102.42781542461753, 51.2090650421173], [-102.42781546971058, 51.20930311752105], [-102.42781556521007, 51.2097611902381], [-102.42781557553175, 51.20980724036646], [-102.42781564404983, 51.20998838347479], [-102.42781561445018, 51.21005826714441], [-102.42781538967279, 51.21032943494433], [-102.42738297146911, 51.21032909754918], [-102.42738295599526, 51.21046805638215], [-102.42738289473156, 51.21064892680898], [-102.4273820180683, 51.21183828998121], [-102.42738152805364, 51.212386380822466], [-102.42641402408537, 51.21238748965581], [-102.42637091936595, 51.212387530454706], [-102.42619563003255, 51.21238781020219], [-102.42613748797065, 51.212387879744554], [-102.42564084660195, 51.21238846108297], [-102.42456851075764, 51.212389765357464], [-102.42369597128429, 51.212390424546285], [-102.42339666482636, 51.21239084618828], [-102.42234938346009, 51.21239223237546], [-102.42234865222923, 51.212118255162466], [-102.42019805137745, 51.21133844302344], [-102.42019608887718, 51.21065646468752], [-102.42019560625637, 51.21047558204751], [-102.41989044386465, 51.21047595537536], [-102.41989106830471, 51.210656841154716], [-102.41989348149835, 51.21150710967179], [-102.41989366558315, 51.21153454583328], [-102.41989401434675, 51.211651477232586], [-102.41912725899176, 51.21121273406485], [-102.41888093373419, 51.210657846228806], [-102.41880069129695, 51.210477091948285], [-102.41633206278321, 51.210479693170456], [-102.41604406003698, 51.21047996785212], [-102.41590661730436, 51.21048009694578], [-102.4159070611729, 51.210341776900535], [-102.41590765706505, 51.21007034695428], [-102.41590754262775, 51.20993202355912], [-102.4044210401244, 51.20994262943733], [-102.40442114837039, 51.21008121380638], [-102.4044203267249, 51.210352909037155], [-102.40441983325721, 51.21049149803215], [-102.40441878569497, 51.2107165535358], [-102.40441087707116, 51.21241210897634], [-102.40438692816683, 51.21754137328962], [-102.40438689224453, 51.21754964710808], [-102.40435288988837, 51.22474537620964], [-102.40435251889504, 51.22501663119433], [-102.41587560849212, 51.225040547942776], [-102.42268848268509, 51.22505425005676], [-102.42736966428885, 51.22506349916658], [-102.4278016183411, 51.22506436497349], [-102.43159390108556, 51.22505506243301], [-102.4317052101699, 51.22505480839863], [-102.43324722356083, 51.22505097272245], [-102.43367728049668, 51.225049886418574], [-102.4357029217917, 51.225044936427764], [-102.43604688366582, 51.225044022471444], [-102.43929078089849, 51.22503593887274], [-102.43929117347946, 51.225125861335854]]], [[[-102.45131585439893, 51.26918680113663], [-102.45132233226582, 51.27178162434176], [-102.45132688471942, 51.27187292275406], [-102.4513302459165, 51.271928758822504], [-102.45133517734024, 51.272010621778136], [-102.45134237918359, 51.27210845358179], [-102.4513511663099, 51.27220614003377], [-102.4513613905456, 51.2723037678462], [-102.45137304692689, 51.27240142685066], [-102.45138628862004, 51.272498940502636], [-102.4513924405918, 51.27254062681842], [-102.45140097242347, 51.272596305682384], [-102.45141708840048, 51.27269370205304], [-102.45142332199111, 51.2727287345778], [-102.45142608476831, 51.272735810080256], [-102.45144490211284, 51.272781819560535], [-102.45146502829544, 51.2728274977845], [-102.45148673979891, 51.27287303065351], [-102.45150976014816, 51.27291823226479], [-102.45153437079934, 51.2729631986878], [-102.45156015206355, 51.27300774090051], [-102.45158752363729, 51.27305204792324], [-102.45161620407112, 51.27309602368485], [-102.45164619834074, 51.27313957835273], [-102.45167764966261, 51.27318271504492], [-102.45171040985403, 51.2732255204731], [-102.4517444838904, 51.273267904804406], [-102.4517800149883, 51.27330987115669], [-102.45181671672294, 51.27335141329091], [-102.45183740529501, 51.27337398909408], [-102.45226610632594, 51.273835632880946], [-102.45229275817599, 51.27382560026376], [-102.45232561894609, 51.27381219516737], [-102.45235780339036, 51.27379805581588], [-102.45238903004837, 51.27378308614154], [-102.45241943716347, 51.27376737909515], [-102.45244873333333, 51.27375101827287], [-102.45247706674411, 51.27373391696181], [-102.4525044274535, 51.27371625482629], [-102.45253068218828, 51.27369784908538], [-102.4525556777917, 51.2736788762854], [-102.45256858084619, 51.27366854427586], [-102.45387816456285, 51.272594743124664], [-102.45553101830214, 51.27123932569705], [-102.45873999243116, 51.26922371615661], [-102.45916728776092, 51.26895274282428], [-102.45978002281942, 51.2689560637642], [-102.46278278107721, 51.26897237861164], [-102.4743610585597, 51.26902833555104], [-102.4747933531175, 51.269030470874576], [-102.47481335202447, 51.26541981986212], [-102.47482089890117, 51.264054966057934], [-102.47483322325542, 51.261809164307806], [-102.4748726065146, 51.25458793002684], [-102.47487442983575, 51.25431671049239], [-102.47444230288704, 51.25431403838164], [-102.47008772092626, 51.25429105099597], [-102.46570219964802, 51.254267734808096], [-102.4628193124819, 51.254252324384254], [-102.45787613809824, 51.2542256134709], [-102.45762956073936, 51.254224275626555], [-102.45599401817621, 51.254215389085026], [-102.45570740785911, 51.254213824221516], [-102.45566442268293, 51.25421359091902], [-102.45159402061323, 51.25419137257268], [-102.45130759658325, 51.25418980997023], [-102.451307637531, 51.254461610467416], [-102.45130755598241, 51.25455064959171], [-102.45130400403443, 51.26168445368448], [-102.45130436120019, 51.26354307576652], [-102.45130524534919, 51.268909644402115], [-102.45131155112583, 51.26890969181965], [-102.45131585439893, 51.26918680113663]]]]}}]}