{"type":"FeatureCollection","features":[{"type":"Feature","geometry":{"type":"Polygon","coordinates":[[[-99.961913812763441,49.827457993088444],[-99.961927717068733,49.842234280775472],[-99.973134515925651,49.842287562073089],[-99.973121951138893,49.833755460517473],[-99.973106745828815,49.820213712940934],[-99.961907621227212,49.820169971711259],[-99.961913812763441,49.827457993088444]]]},"properties":{"WARD_NUM":5,"WARD":"Meadows - Waverly"}},{"type":"Feature","geometry":{"type":"Polygon","coordinates":[[[-99.950046099366588,49.82090909071313],[-99.950043338654012,49.827442568795348],[-99.961913812763441,49.827457993088444],[-99.961907621227212,49.820169971711259],[-99.973106745828815,49.820213712940934],[-99.973379545650502,49.820213022232444],[-99.973379953183752,49.81260815446015],[-99.976111285907507,49.812619956377354],[-99.976104201722109,49.80536382733095],[-99.973305942609741,49.805352284313976],[-99.973306935862283,49.806995944079219],[-99.966549215729003,49.806967684492776],[-99.96400676512242,49.805313263589035],[-99.962607427916907,49.805307356182254],[-99.962609510791026,49.806708872412607],[-99.962943790168111,49.807249816800685],[-99.96294479862614,49.807924130989591],[-99.962317226760689,49.807921248833892],[-99.962321936498157,49.811085081167498],[-99.950549458305247,49.811048455206596],[-99.950547189235749,49.812661208059737],[-99.949772797744586,49.812659608559088],[-99.949771442677459,49.82038203024586],[-99.949823488155062,49.820426041656098],[-99.949871021070393,49.820474892018737],[-99.94991359350125,49.820528120996748],[-99.949950804270159,49.820585226991597],[-99.949982302724734,49.820645671870032],[-99.950007792042101,49.820708886035135],[-99.950027032025957,49.820774273793859],[-99.950039841370014,49.820841218970493],[-99.950046099366588,49.82090909071313]]]},"properties":{"WARD_NUM":8,"WARD":"Richmond"}},{"type":"Feature","geometry":{"type":"Polygon","coordinates":[[[-99.950043338654012,49.827442568795348],[-99.939053399857087,49.82740979064554],[-99.939063385075599,49.831690718017782],[-99.9390657005641,49.835891273712676],[-99.939053950030413,49.842180098168114],[-99.961927717068733,49.842234280775472],[-99.961913812763441,49.827457993088444],[-99.950043338654012,49.827442568795348]]]},"properties":{"WARD_NUM":6,"WARD":"South Centre"}},{"type":"Feature","geometry":{"type":"Polygon","coordinates":[[[-99.941034674924538,49.85645075622061],[-99.940986144515335,49.85649187718203],[-99.940908352883653,49.856558899584229],[-99.940646127587613,49.856784818471986],[-99.940534394208129,49.856855569010683],[-99.940403964767611,49.856904091042644],[-99.939703952632797,49.857051771594989],[-99.939359481860706,49.857312639364352],[-99.939252016908412,49.85738512957532],[-99.938834525340226,49.8576497588273],[-99.938810713835863,49.857664912184504],[-99.938500391824334,49.857878695326583],[-99.938500354753558,49.857878720811229],[-99.938460611820119,49.857906099746465],[-99.938449691684738,49.857913856842032],[-99.938364544071618,49.857974336908548],[-99.938179798381611,49.858133234680302],[-99.9379602747848,49.858292415347869],[-99.937823430825247,49.858410450699012],[-99.937517226186316,49.858763712080489],[-99.937321347622259,49.859066610103902],[-99.9372946566846,49.859125290907144],[-99.937262228007555,49.859246977626185],[-99.937261884352978,49.859587440194439],[-99.937261883653434,49.859588770482986],[-99.937276838611453,49.8596426164221],[-99.937306052677869,49.859714336019003],[-99.937449079059718,49.859915556088836],[-99.93757010853885,49.860058488899334],[-99.938019794142591,49.860288707450522],[-99.938167168549413,49.860354972527396],[-99.938328193405752,49.860407636115816],[-99.938396583805854,49.860434504882754],[-99.938664678224526,49.860539829164267],[-99.938787709324913,49.860596162782905],[-99.938819097102353,49.86061053450986],[-99.938834196509291,49.860615798118459],[-99.93885110909666,49.86062157681522],[-99.938943228536687,49.860653054333213],[-99.939241066624447,49.860773140952524],[-99.939252857342439,49.860777895243217],[-99.939284819104543,49.86079071334521],[-99.939351826333279,49.860817590057998],[-99.939633107019901,49.860972712892654],[-99.939913866098777,49.861100857650392],[-99.94010411445197,49.861225237624453],[-99.940300883161356,49.86132707731381],[-99.940462961046464,49.861433696243274],[-99.940919890946446,49.861677337391441],[-99.941102402109024,49.86176130249396],[-99.941391086640436,49.861938848041774],[-99.941882805444195,49.862182202884739],[-99.942192275631982,49.862355079419991],[-99.942592175352175,49.86252722168944],[-99.942781085448587,49.862624875676623],[-99.942866257802137,49.862668904398511],[-99.943034689032018,49.862743986502878],[-99.943154253822016,49.862810473263529],[-99.943799373089917,49.863070559002693],[-99.944324230204231,49.863228185313183],[-99.944681706732155,49.863364688054979],[-99.94470744194706,49.863370786162484],[-99.944828485643711,49.863399469768297],[-99.944967445896253,49.863446570897636],[-99.945087614625479,49.863487302266208],[-99.945612304831187,49.86363592964144],[-99.946017690427837,49.863731561442741],[-99.946157339618594,49.863757405184316],[-99.946632024927013,49.863838976614176],[-99.946732076425633,49.863848917870335],[-99.94679932348609,49.863855599330819],[-99.94691801716462,49.863877116964737],[-99.94706444755019,49.863893909751809],[-99.947370781169496,49.863904897589123],[-99.947642510211125,49.863925163766325],[-99.947816589567793,49.863932735113501],[-99.948087878881807,49.863930516759524],[-99.948102642791753,49.863928984782781],[-99.948934941736724,49.863842635908568],[-99.949350458355894,49.86374479104844],[-99.949599467823319,49.863670795809298],[-99.949937847480086,49.863542100898613],[-99.950020438537081,49.863496451724608],[-99.9503912141884,49.863246065474691],[-99.950459362907822,49.863173550956304],[-99.950525482088963,49.862997615665712],[-99.950538511761607,49.862952536450628],[-99.950538428714552,49.862951282402172],[-99.950528644165772,49.862804209402704],[-99.950363011103605,49.862517744126443],[-99.950178717251333,49.862343861617695],[-99.9500933062521,49.862245622401353],[-99.94989580807264,49.862107827363694],[-99.949533800563231,49.861890718900497],[-99.949459344428391,49.861846064926866],[-99.949446588038143,49.861836687425509],[-99.949374640734462,49.861783797294379],[-99.949260004365613,49.861719896659714],[-99.949239679618756,49.86170856724511],[-99.949219796622728,49.861697485155737],[-99.949191762918275,49.861681859231219],[-99.949060316142223,49.861619795096374],[-99.948967062992011,49.861575765102721],[-99.948854273023159,49.861500234383655],[-99.948559664794217,49.861376722688334],[-99.948426008685132,49.861301364085769],[-99.947976792656576,49.861098165401714],[-99.947836094507807,49.861018365566586],[-99.9477824907936,49.860985298500971],[-99.947525626058066,49.860826842355273],[-99.947505130288334,49.860814198142378],[-99.947405002250164,49.860762251278032],[-99.947385652504835,49.860752213272299],[-99.946941819528817,49.860468016284941],[-99.946850077947772,49.860401306156824],[-99.946751644632258,49.860348143223725],[-99.946581898234584,49.860205617747773],[-99.946440941461503,49.860112327512056],[-99.946207718461622,49.859925347313826],[-99.946017371908482,49.859796479968452],[-99.945867128478881,49.859682358051295],[-99.945501894562582,49.859404928350983],[-99.94521005220804,49.859065518083469],[-99.944977014426215,49.858887528368349],[-99.944877621628507,49.858784902924086],[-99.944792052328694,49.858677666592627],[-99.944729312216282,49.858540127933992],[-99.944727640760064,49.858536462813198],[-99.944726648097443,49.858534287942604],[-99.944692074429184,49.858487694063207],[-99.944633773548262,49.858409122065041],[-99.944553232231556,49.858202905295812],[-99.944525791826777,49.857865834947127],[-99.944521759574016,49.857658994732375],[-99.944521805701129,49.857658863037109],[-99.944567904109945,49.857528199664387],[-99.944649350399686,49.857424098555839],[-99.944669076332204,49.857365474576682],[-99.944737400865918,49.857301956400583],[-99.944805286792743,49.857215954652972],[-99.944901080852176,49.857134223526018],[-99.944957127894938,49.857075033596999],[-99.945016950759609,49.857011854387373],[-99.945146028609742,49.856853397712158],[-99.945255220417593,49.856805039012009],[-99.945290858081378,49.856789255414128],[-99.945304001923787,49.856778597703638],[-99.945352489097431,49.856739284071622],[-99.945395779985262,49.856714163817131],[-99.945407515795324,49.856707353724794],[-99.945614238291313,49.856606728301287],[-99.945772976561926,49.856542471936287],[-99.945890598468793,49.85651003244778],[-99.9459365572244,49.856476786190363],[-99.945966050840937,49.856455449854558],[-99.946010000946018,49.856437187679369],[-99.946021252395639,49.856432512270189],[-99.946056453141139,49.856419388071409],[-99.946106018121725,49.856400908241234],[-99.94619389965915,49.856368141814961],[-99.946236224670457,49.856357218825117],[-99.94637385280528,49.856321700425475],[-99.946442794223046,49.856310820904859],[-99.94646400493167,49.856307473575946],[-99.946603017958196,49.856301840362718],[-99.946615265406678,49.856303714640951],[-99.9467141351805,49.856318839166057],[-99.946714650079429,49.856318917710233],[-99.946772644161896,49.856321441033039],[-99.946888701964539,49.856326490620582],[-99.946930557781997,49.856332146245173],[-99.946951473140089,49.856334972355448],[-99.947000510005751,49.856352560740596],[-99.947183363022575,49.856454504296174],[-99.947337693137698,49.856520700923902],[-99.947478289398887,49.856596005882061],[-99.947527326718202,49.856613594040901],[-99.947666956119122,49.856639436110257],[-99.947778853231867,49.856670001095289],[-99.947863545858979,49.85673227001233],[-99.948076862122832,49.856968880329141],[-99.948117514659501,49.857088832877672],[-99.948128539730845,49.857121363898692],[-99.948193512036127,49.857242257106833],[-99.94822309272557,49.857331959983817],[-99.948366949194494,49.857573634237028],[-99.948464937070142,49.857959595326633],[-99.948501650063719,49.858058234251146],[-99.948584232746896,49.858367869060963],[-99.94862772557272,49.858457457979824],[-99.948865177743613,49.858860266302997],[-99.948936405129999,49.858945129944402],[-99.949071200577748,49.859078943674987],[-99.949219555293809,49.859194657259486],[-99.949367470177577,49.85928788895238],[-99.949570765057331,49.859367174216189],[-99.949892392046564,49.85944998590724],[-99.950009259836278,49.85944762329089],[-99.950267900237208,49.859442412028201],[-99.950291895469149,49.859439104139],[-99.950302589455475,49.859437629525672],[-99.950364747824494,49.859414634657007],[-99.950398731349225,49.859373879985618],[-99.950645775739616,49.859200959199768],[-99.950816485167962,49.859037658487381],[-99.950828631090346,49.85894761404419],[-99.950888494032185,49.858807709447561],[-99.951037275979559,49.858590621359205],[-99.95111087199929,49.85844160768832],[-99.951178748164253,49.858355604080558],[-99.951250754302194,49.858125653006255],[-99.951323642697872,49.857940668855264],[-99.951391076300283,49.857832181635466],[-99.951424263201019,49.857750958906159],[-99.951579376570336,49.857502336509683],[-99.951709229066239,49.857384342214317],[-99.9517705008478,49.857316381429534],[-99.951871913354282,49.857167138846833],[-99.951879569857269,49.857162061551655],[-99.951899380622081,49.857148924332641],[-99.95199538392356,49.857105646914505],[-99.952038603008944,49.857086164305279],[-99.952092446155845,49.857061892106294],[-99.952112088866897,49.857061730776245],[-99.952182862995798,49.857061149464641],[-99.952210223769157,49.857067965605502],[-99.952217787711064,49.857068445841328],[-99.952260225552436,49.857104075182242],[-99.952301779681605,49.85709473933909],[-99.952337179613366,49.857069585068331],[-99.952397825929594,49.857026491641356],[-99.952465167482359,49.856913507284524],[-99.952665009323056,49.856817423033888],[-99.952741073395245,49.856794311691473],[-99.952976662458923,49.856747402771667],[-99.953240690653274,49.856731740221406],[-99.953389390617062,49.856725785356929],[-99.953664685713974,49.856714761176235],[-99.953957153537857,49.856730343728678],[-99.954012705724736,49.85672538931918],[-99.954116589341695,49.8567020481212],[-99.95417223002849,49.856701590150251],[-99.95420233501504,49.856708083717088],[-99.954493581222721,49.856770900526598],[-99.954793536365472,49.85681340278159],[-99.955009233099474,49.856816123247],[-99.955107047688415,49.856837803595973],[-99.955317030626816,49.856903531976826],[-99.955548588921317,49.857005060083878],[-99.955661201275845,49.85707159042358],[-99.955785280369341,49.85712054442596],[-99.956264135112846,49.857309469464674],[-99.956447188562862,49.857420390377889],[-99.95653189356652,49.857482652880378],[-99.956602574022924,49.857540647139764],[-99.9566712592339,49.857597003735805],[-99.956765233020391,49.857674108730386],[-99.957077480260892,49.85798633823169],[-99.957162986551126,49.858089068844194],[-99.957233783073193,49.85815144567087],[-99.957326245291753,49.85825411872316],[-99.957491015822328,49.858495609013218],[-99.957599789544886,49.85871957267149],[-99.957637143838795,49.858849684136231],[-99.957704986503629,49.859114460987747],[-99.957752141321947,49.859388403195936],[-99.957762563551569,49.85956370953506],[-99.957815874617964,49.859797125658027],[-99.957925630838147,49.860070550514124],[-99.957968875723211,49.860146646270103],[-99.958154700696284,49.860396956056704],[-99.958225590838879,49.860463828732136],[-99.958296303289032,49.860521708349715],[-99.958436928077219,49.860596998896575],[-99.95853501871747,49.860632165802819],[-99.958639709238426,49.860649289082929],[-99.958799867013212,49.860656959038408],[-99.959009604460348,49.86070919104418],[-99.9591628958581,49.860721414543043],[-99.959234023900592,49.860716797381471],[-99.959718724460529,49.860685333613446],[-99.959926948359893,49.860661123381888],[-99.960135082930606,49.86063241627366],[-99.960266036751349,49.860599675507927],[-99.96032691708082,49.860584454416077],[-99.960432749052387,49.860557994643727],[-99.960557772019101,49.860547964286191],[-99.960835683356592,49.860533983639314],[-99.9610929090517,49.860521042691573],[-99.961475378876571,49.860513373904759],[-99.961738763490771,49.860496982324946],[-99.961808891437485,49.860492618327626],[-99.961955701675734,49.860494246933492],[-99.961927717068733,49.842234280775472],[-99.939053950030413,49.842180098168114],[-99.93909060523545,49.850575005800842],[-99.939244499803479,49.850577137285633],[-99.939465209108192,49.850580726559478],[-99.940869605125982,49.850603557440252],[-99.941402263871197,49.850676736549197],[-99.941996482598853,49.850867104983116],[-99.942074674645312,49.850870312887345],[-99.942115676331682,49.850882608823078],[-99.942161195026657,49.850910011155705],[-99.942267771949687,49.850974170545008],[-99.942343758913907,49.851025503225287],[-99.942376199349724,49.851047418116487],[-99.942389374578383,49.851069825115452],[-99.942453233056384,49.851122019956549],[-99.942516937796682,49.851122600229651],[-99.942916465175557,49.851229720650821],[-99.943124230254767,49.851301609878774],[-99.943349917525239,49.851421673986351],[-99.943438882453393,49.85149837362983],[-99.943610529329547,49.85172155993645],[-99.943687575285196,49.851796708619311],[-99.943794129827594,49.851947942442912],[-99.943894025909714,49.85214974793449],[-99.943951609741788,49.852315657301112],[-99.943970843706964,49.852575841663842],[-99.943970926611584,49.852576955405894],[-99.943957690755411,49.852676401021256],[-99.943917956870166,49.852863275663893],[-99.943917724867674,49.852864363187798],[-99.94406317228794,49.853045473637614],[-99.944063521577178,49.853045907925122],[-99.943833982781186,49.853743231756475],[-99.943778935598488,49.853814705806315],[-99.943695048392172,49.853923626605145],[-99.943377674618176,49.85434624877184],[-99.94316940771013,49.854623576792719],[-99.942961799071611,49.85480452855618],[-99.942143585915801,49.855503565101344],[-99.94200239725437,49.855622898223608],[-99.941933361637695,49.8556812469538],[-99.941636442751587,49.855935919373842],[-99.941408593261528,49.856131346522147],[-99.941198220345129,49.856312181682277],[-99.941034674924538,49.85645075622061]]]},"properties":{"WARD_NUM":2,"WARD":"Rosser"}},{"type":"Feature","geometry":{"type":"MultiPolygon","coordinates":[[[[-99.97238790085035,49.855672784369375],[-99.972265901885834,49.855689186462278],[-99.972184290598875,49.855709510412701],[-99.972079021565037,49.855735726209829],[-99.971945364287919,49.855785436105428],[-99.971853025190484,49.85581977954471],[-99.971739254950307,49.855866090749714],[-99.97164428854137,49.855910266342264],[-99.971608813573766,49.855934746286174],[-99.971552529982105,49.855973584940045],[-99.971472759090688,49.856028632403088],[-99.971405129429911,49.8560671037513],[-99.971328327567861,49.856110793168952],[-99.971285465002666,49.856142080785553],[-99.971198910140927,49.856205261055763],[-99.971122652548871,49.856260924643962],[-99.971054364277379,49.856324458166519],[-99.970995662696566,49.856412144315705],[-99.970944477229807,49.856510773143768],[-99.970906646514635,49.856605257863237],[-99.970881777492878,49.856667368960856],[-99.9708418653302,49.856755123419141],[-99.970801005313618,49.856837934330819],[-99.970780290462997,49.856879916014805],[-99.970801516068718,49.85689772724961],[-99.970860710753428,49.856897231504249],[-99.970912797345136,49.856896795262934],[-99.970963662978377,49.856877434015722],[-99.971009447555758,49.85686000774853],[-99.97107827734412,49.856823453206999],[-99.971252579626963,49.856770977078476],[-99.971493147162491,49.85669855053716],[-99.97169421239019,49.856665385492754],[-99.97178408686726,49.856637648619369],[-99.971888638956713,49.85659417327733],[-99.972022526686885,49.856538499975635],[-99.972278359903399,49.856426373407068],[-99.972482964014844,49.856325547693871],[-99.972583470294694,49.856262170259676],[-99.972607801477196,49.856234166830419],[-99.972658260101994,49.856176094139165],[-99.972719861912083,49.85612610841558],[-99.972871999887062,49.856070207225628],[-99.973133973304641,49.855989785885207],[-99.973231277891642,49.855959914974235],[-99.973317733543098,49.855914526922753],[-99.973378159737649,49.855882803247901],[-99.973527268634925,49.855804523133521],[-99.973581914128673,49.855754593566402],[-99.973587784859419,49.855700577277339],[-99.97353864884235,49.855678504600867],[-99.973466232343554,49.855664189980018],[-99.973364053733832,49.85564399277456],[-99.97325647681042,49.85564489602092],[-99.973106722613295,49.855646153233359],[-99.973004811926813,49.855653006211178],[-99.972824276764129,49.855656187199934],[-99.972707716504047,49.85565596995685],[-99.9725156466382,49.855655609878383],[-99.97238790085035,49.855672784369375]]],[[[-99.929285902808843,49.889533873489491],[-99.934792521830346,49.889531507116622],[-99.93479311342638,49.888157139074522],[-99.939567202062918,49.888133235590978],[-99.939272012729262,49.888678899107937],[-99.941874322250385,49.88869558419308],[-99.941874336390271,49.888147562235424],[-99.946423457219254,49.888146089668759],[-99.946422796532261,49.889050321830908],[-99.957631304559612,49.889045644844913],[-99.957633233768235,49.888281259802717],[-99.959905789415544,49.888288098203184],[-99.96001132052794,49.888878367929941],[-99.9617080527334,49.88887905140075],[-99.961708353250245,49.888562792640116],[-99.969259018156805,49.888565151655754],[-99.969189829850521,49.886649145614932],[-99.984819560185926,49.88665031213624],[-99.984784312208845,49.863599218619321],[-99.992094960838486,49.863615093042561],[-99.992329759743328,49.86362200249004],[-99.992564252196246,49.863635842854968],[-99.992798233651484,49.863656602064502],[-99.993031500009025,49.863684262010572],[-99.993263847792619,49.863718798565628],[-99.996381150623776,49.864290455756787],[-99.996370258723047,49.860583883753073],[-99.998347660848808,49.860391992840611],[-99.998343948193451,49.859076322509935],[-99.997913083279542,49.858696838634017],[-99.997811686417649,49.857758360500924],[-99.998339797770484,49.857605547211925],[-99.998339585759553,49.857530033867356],[-99.998076082442424,49.857529577561117],[-99.997775530956531,49.857460208837367],[-99.997572085829233,49.857396619183454],[-99.997551486365438,49.85739018099212],[-99.997418876716893,49.85736883490582],[-99.997348585328837,49.857333461664489],[-99.997299714611273,49.857324887613011],[-99.997285804439315,49.857325007283926],[-99.997223599708008,49.85728911647022],[-99.996947848543542,49.857130011741297],[-99.996843398546247,49.857117438010157],[-99.996703257294271,49.857073821615963],[-99.99661919857175,49.857012928365506],[-99.996618133732156,49.857012158596085],[-99.996512606562675,49.856935898337056],[-99.996449363979707,49.856904962108608],[-99.996372303878573,49.856878640964318],[-99.996217241706262,49.856839176372752],[-99.996064618929609,49.856800334620111],[-99.995728468094441,49.856690790306871],[-99.994903069372285,49.856468518270304],[-99.994776402875459,49.856397649277163],[-99.994706484052244,49.856380260250219],[-99.994608837746895,49.856367605440099],[-99.994037608942577,49.856327532656785],[-99.993807450023979,49.856298026191894],[-99.993612711528442,49.856299695541665],[-99.993529436568636,49.856309403801994],[-99.993334329281339,49.856293086834313],[-99.993257824871378,49.856293742377034],[-99.993119002405734,49.856308422633241],[-99.992965440635601,49.856282754605168],[-99.992840251612378,49.856283826886667],[-99.992750113715957,49.856298091517893],[-99.992556480480673,49.856353716656322],[-99.992404852857447,49.856422472724816],[-99.992321945787808,49.856450165975829],[-99.992079626589657,49.856506207068556],[-99.991656661183356,49.856572787641433],[-99.991455886556281,49.856619477519992],[-99.991138072219883,49.856725632977096],[-99.990841765219486,49.856863083587591],[-99.990603634826144,49.856988432495911],[-99.9906034311078,49.856988539472439],[-99.990477740401587,49.857054587973899],[-99.990319259795243,49.8571688760521],[-99.990223375732072,49.85725819295488],[-99.990223187337151,49.857258369057504],[-99.990216943874572,49.857264180670207],[-99.990122053526733,49.857386416071748],[-99.990048763174769,49.857544446723089],[-99.98999342521671,49.857900201240454],[-99.989988583226591,49.858003680254456],[-99.989913572951153,49.858418067857258],[-99.989847511267229,49.858589527470563],[-99.989822078598039,49.858706673133277],[-99.989761593629467,49.858810625422798],[-99.989528143556996,49.858961028541529],[-99.989432697225794,49.859056284579616],[-99.989400254055468,49.859071382620307],[-99.989363786492831,49.85908835437364],[-99.989211778539342,49.859139120449143],[-99.989093812770676,49.859153619674728],[-99.988899154282521,49.85915977674297],[-99.988642264486202,49.859184455029983],[-99.988558708264179,49.859180669450907],[-99.988328172036375,49.859133166314955],[-99.988118135462571,49.859067497190473],[-99.988083266999382,49.859063298049648],[-99.987922101854053,49.859006206499814],[-99.987865817309427,49.858975206307562],[-99.987767067374691,49.858908588143294],[-99.987464322177871,49.858731277420233],[-99.987379392271507,49.858660044852201],[-99.987293729581452,49.858552840466594],[-99.987220511857572,49.858373574040236],[-99.98722215305294,49.858112719578706],[-99.987253355841247,49.857937061998555],[-99.987350719714257,49.857594441751417],[-99.987464741663842,49.857386597016429],[-99.987708134226324,49.85724958436154],[-99.987951146260187,49.857090769961474],[-99.988152409001273,49.856979550057552],[-99.988152593342605,49.85697944774774],[-99.98815895472903,49.856975928839255],[-99.988261996559146,49.856912088917234],[-99.98837903989633,49.856852625874524],[-99.988515663751372,49.856730036025439],[-99.988639202626089,49.856648031969122],[-99.988797516057531,49.856565731161972],[-99.988934688659128,49.856470117837702],[-99.989113722345465,49.856313068198887],[-99.989276378466911,49.856170383750914],[-99.989432301946451,49.85597117390968],[-99.989689424700146,49.855618193318392],[-99.98975640152311,49.855491698411399],[-99.989868479314211,49.855189426394944],[-99.989897098676323,49.854887865170511],[-99.989900195349719,49.854698954102403],[-99.9898840813334,49.854591157632917],[-99.989773882531622,49.854304274401485],[-99.98970954558402,49.854219376804984],[-99.989581606948391,49.854085551454723],[-99.989461266330508,49.853983140982493],[-99.98932033782188,49.853894398754285],[-99.989115441723413,49.853738744287902],[-99.988792044033076,49.853570607673831],[-99.988778189358925,49.853564804768851],[-99.98862366668294,49.853500087747584],[-99.988252324170105,49.853368336547277],[-99.988084498414295,49.853324794658477],[-99.988063634820378,49.853324972495358],[-99.987651942731304,49.85326102120051],[-99.98727621523345,49.853255227339169],[-99.986900762552665,49.8532629225801],[-99.986477818001859,49.853329484164554],[-99.986221689828014,49.853390126928645],[-99.986117920677415,49.85341799324857],[-99.985703666077072,49.853569926781233],[-99.985407728381048,49.853725349452844],[-99.985339279623005,49.853779898331794],[-99.985002334878757,49.854113943200154],[-99.984842614410169,49.854310518798549],[-99.984768006927567,49.854382116569262],[-99.984679784744472,49.854494291717053],[-99.984583693373992,49.854600498320586],[-99.984461410894596,49.854736276338798],[-99.984126929855506,49.855049427709346],[-99.983865752125851,49.855204551266127],[-99.983672021527823,49.855255664233574],[-99.983478655612345,49.855324764585113],[-99.983374698211279,49.85534363552101],[-99.98309696108771,49.85536847662582],[-99.983034367571875,49.855369007448211],[-99.982678941421909,49.855336042980639],[-99.982518250893207,49.855301427057327],[-99.982209777555738,49.855182616315417],[-99.982118453641533,49.855138417566387],[-99.981900030044088,49.855000852234191],[-99.981709062388546,49.854845066769499],[-99.981652148974675,49.8547825872283],[-99.981608871912428,49.854706499535069],[-99.981521498529432,49.854513858472039],[-99.981490947339623,49.854379199611259],[-99.981522988417851,49.854244010774366],[-99.981556031211127,49.85415828231087],[-99.981637027772294,49.854036171549531],[-99.981688292420344,49.853819869334131],[-99.981728653634278,49.853752067843999],[-99.981863554703679,49.853544051693802],[-99.981993231388159,49.853421528326038],[-99.982216260740884,49.853100332940834],[-99.98239965698923,49.852882910706136],[-99.982412745545744,49.852842325406762],[-99.982402782879845,49.852693999597975],[-99.98235886850955,49.852586437689908],[-99.982308911385715,49.852523899500433],[-99.982266820241918,49.852506267164998],[-99.982169276007824,49.852498099181012],[-99.981933645573221,49.852540571585941],[-99.981829875713473,49.85256843407516],[-99.98172628791994,49.852605289434607],[-99.981491840479066,49.852706214304618],[-99.981236346546822,49.852798322347944],[-99.981043259929038,49.852880907173962],[-99.980835808583791,49.852941126060522],[-99.980359132513868,49.853102563129831],[-99.979646635185034,49.853297471273294],[-99.979343088779316,49.853421461064691],[-99.979163996449586,49.853508422657598],[-99.978908766298176,49.853614014163114],[-99.978640624749971,49.853769184768304],[-99.97852412151515,49.853855616944223],[-99.978415117211668,49.853968967413977],[-99.978409161275891,49.854018488344458],[-99.97837520508547,49.854059249300896],[-99.978320384885976,49.854100188131419],[-99.978189063198357,49.854141770716303],[-99.978171489501761,49.854156359682136],[-99.978134333494964,49.854187205045307],[-99.978073375084165,49.854268669908059],[-99.977910001637952,49.85444544192039],[-99.977766220933248,49.854559085131378],[-99.977547842320149,49.854767800414685],[-99.977246911196261,49.855022183744616],[-99.977048032760223,49.855163275819308],[-99.97695238780129,49.855249528774195],[-99.97687688185168,49.855299635738866],[-99.976588041147295,49.855463970443324],[-99.976422664807629,49.855541815890504],[-99.976180693625437,49.855615809784055],[-99.975931585671404,49.855680868755442],[-99.975709662862016,49.855714218531617],[-99.975661069084225,49.855719123884001],[-99.975577519758687,49.855715330702452],[-99.975361193733733,49.855681173074331],[-99.975340148024458,49.85567235565253],[-99.975166456638576,49.855682811424238],[-99.97509736009448,49.85570587800953],[-99.975021127654415,49.855720011875007],[-99.97497939824072,49.855720362855322],[-99.974895577532649,49.855703078818756],[-99.974559662205877,49.855602465743161],[-99.973991706715111,49.855377880399203],[-99.973838699894344,49.855379165888557],[-99.973741693357425,49.855397969781393],[-99.973651912647185,49.855430203748575],[-99.973624815999159,49.855466409327057],[-99.973632855087246,49.855520308791547],[-99.973661307091731,49.855551551458156],[-99.973682262072529,49.855555871797996],[-99.973737449333498,49.855532922895328],[-99.97381937157617,49.855455780592528],[-99.973840145823686,49.855451109723361],[-99.973860829676426,49.855441941461542],[-99.973923423457833,49.855441415591521],[-99.974070198744116,49.855476160344679],[-99.974799113535695,49.85574886252531],[-99.974918070722339,49.855783840129213],[-99.974988162707291,49.855810234117001],[-99.975044525897957,49.855845738037033],[-99.975045340234828,49.855886205527135],[-99.975011379950331,49.855926967308584],[-99.974935961385725,49.855981568609984],[-99.974776811877888,49.856023381332925],[-99.97438047034484,49.856031211606535],[-99.97424110012868,49.856018890353837],[-99.974164234102773,49.856001547339218],[-99.974046090454493,49.856007038262824],[-99.973976902540116,49.85602560859526],[-99.973852707561988,49.8560761208497],[-99.973604316861582,49.856177146761311],[-99.973424571629096,49.856232623243081],[-99.97338169071854,49.856248946748423],[-99.973279600918744,49.856287807483412],[-99.973084331353022,49.856369322421237],[-99.972927785780897,49.856434672718585],[-99.972872452080239,49.85647007623664],[-99.972735482865147,49.856557713136489],[-99.972315647564429,49.856781599562197],[-99.971970059365177,49.856892431654437],[-99.971858393136117,49.856916758066788],[-99.971224715356271,49.857075232536744],[-99.971138775837503,49.857114919370986],[-99.971014016375591,49.857186144910415],[-99.970954060503573,49.857220251436829],[-99.970721730219296,49.857429070522208],[-99.970667350125382,49.857492487333111],[-99.970654070347692,49.857524078355574],[-99.970572409788446,49.857614707022748],[-99.970421196959009,49.857705917890641],[-99.970393916520976,49.857733129736928],[-99.970177562753918,49.858045251520771],[-99.970130766746493,49.858140084419986],[-99.970041135437526,49.858527597624189],[-99.97002333039201,49.858680652964473],[-99.970021236504536,49.858923521739719],[-99.970036407653978,49.858986356225202],[-99.970072445014779,49.859049016097913],[-99.970207658964469,49.85920079086354],[-99.970250472030514,49.859254399480953],[-99.970286599942924,49.859321556672072],[-99.970343504195199,49.859384041800517],[-99.970463277806388,49.859459491441044],[-99.970835700943042,49.859645257385743],[-99.970947619356821,49.859675801659854],[-99.971059177369355,49.859688358066123],[-99.971260976442892,49.859691165633848],[-99.971442089382279,49.859703138892343],[-99.971567197887282,49.859697594075215],[-99.971775321129414,49.859668866128715],[-99.972212613723713,49.859620227099398],[-99.972656860876938,49.859571528066141],[-99.972698593636181,49.859571177902211],[-99.972823611329744,49.859561134344673],[-99.972876494379349,49.859563219795071],[-99.973011589304235,49.859568551193888],[-99.973088520001994,49.859582479224009],[-99.973130283672418,49.859590040199542],[-99.973242203373104,49.859620582250685],[-99.973388980574072,49.859670395426811],[-99.973410309002062,49.859677634092016],[-99.973515544645494,49.859721722842288],[-99.973607050233781,49.859774921302659],[-99.973840648630357,49.859975336106466],[-99.97389060269731,49.860037877885226],[-99.973933962938219,49.860118464021234],[-99.973984550052336,49.860212480257651],[-99.97402908587712,49.860351521566287],[-99.974037668732777,49.860432399863186],[-99.974026017653543,49.860544927985799],[-99.973945623985557,49.860698509770373],[-99.97374842998201,49.860925028567166],[-99.97343289716467,49.861148044428937],[-99.973389409309434,49.861174677995528],[-99.973254217387847,49.861257478540381],[-99.973090856729513,49.861335853536566],[-99.973006160258549,49.861376489191123],[-99.972878997225322,49.861432845566426],[-99.972799294561469,49.861468170187734],[-99.972591886432056,49.861532871899094],[-99.972237865510792,49.861571819468381],[-99.971952770022114,49.86157870648033],[-99.971786463442939,49.861611582325381],[-99.971599108954635,49.861635638053826],[-99.971460083968822,49.861641301311586],[-99.971313922839187,49.861638027908647],[-99.970554483734105,49.861581427164865],[-99.970262342095779,49.861583872665847],[-99.970213741890646,49.86158877756678],[-99.969811928385809,49.861673090131745],[-99.969347241499918,49.86174443442092],[-99.969236039019336,49.861749862360654],[-99.969014623299017,49.861810176625063],[-99.968758338130755,49.861866285519689],[-99.968015954563256,49.86196693000759],[-99.967814685109531,49.861991095802729],[-99.967543767448163,49.862011346223952],[-99.966855141085048,49.86201709159522],[-99.966708979085766,49.862013814189851],[-99.96633969255862,49.861985411488064],[-99.965969958160429,49.861934526031234],[-99.96577403005071,49.861877695213728],[-99.965522455981073,49.861821325742767],[-99.965291570700813,49.861755790771952],[-99.964760423349389,49.861634289527352],[-99.964662326225294,49.861599127933765],[-99.964501537836895,49.861559989722764],[-99.96439693287823,49.861547369159879],[-99.964299104686532,49.861525695849046],[-99.964224088628598,49.861498447718368],[-99.964165960889716,49.861477334530441],[-99.963458869160618,49.861253853074935],[-99.962823217512948,49.861124216971582],[-99.962662342822497,49.861080580587583],[-99.962439313868515,49.861059947125092],[-99.962174104398258,49.861017176227193],[-99.962158315291532,49.861011227902793],[-99.96213905802739,49.861003974478713],[-99.962061563236361,49.860955148867674],[-99.962005739213083,49.860946617651457],[-99.961964809910455,49.860949164541559],[-99.96192236032546,49.860951805881925],[-99.961880894097519,49.860965642576716],[-99.961860562710498,49.860992794724488],[-99.961826230629271,49.8610155648907],[-99.961738984891568,49.861032942915578],[-99.961708430236143,49.861039029320978],[-99.961298133512273,49.861046928721137],[-99.961054862576006,49.861057940241437],[-99.960665967681933,49.861092645223046],[-99.960443385177641,49.861094489530842],[-99.960346183597679,49.86110428928739],[-99.960152671502598,49.86116885359025],[-99.95965979547455,49.861222403532786],[-99.95924905160426,49.861207814069736],[-99.9587466377494,49.861131019954328],[-99.958376472769672,49.861057628557404],[-99.958145244847714,49.860974091443921],[-99.958067842999284,49.860929758745769],[-99.957933195450536,49.860804948709045],[-99.957721325319781,49.860644798586577],[-99.957665146845088,49.860618279245074],[-99.957622435313525,49.860569163323781],[-99.957565990332782,49.860529153512182],[-99.957523190090797,49.860475540145913],[-99.957292791340109,49.860081685718185],[-99.957234748040676,49.859960740390882],[-99.957130707788721,49.859624305405013],[-99.957072221301161,49.85948087653869],[-99.957015094881157,49.859054111048778],[-99.95695669824444,49.858915177714088],[-99.956842570136658,49.858772208027617],[-99.956833394700112,49.858659853596357],[-99.956818862349465,49.858628491947037],[-99.956704380172752,49.858467536071601],[-99.956476927195368,49.858222065532615],[-99.956144082687885,49.857923495150374],[-99.955939452563683,49.857776774649381],[-99.955812661608547,49.857696869760147],[-99.955489528922811,49.857537632853493],[-99.955341785080094,49.857453402007373],[-99.955068228088976,49.857338727787642],[-99.954711476293951,49.857238230752252],[-99.954299881830522,49.857178658398041],[-99.954021144430698,49.857153969221066],[-99.953645477724507,49.857152562123538],[-99.953478731054318,49.857162928237393],[-99.953263563640817,49.857187184925095],[-99.953027884267755,49.857229597020293],[-99.952882533275428,49.857266769832144],[-99.952689468403463,49.857353805166404],[-99.952476155994574,49.857472486339191],[-99.952469642747701,49.857495025168049],[-99.952270769875554,49.857640570770293],[-99.952229568763201,49.857667892670086],[-99.952141359918556,49.857781049167301],[-99.952067326243721,49.85790758000315],[-99.951924269442458,49.858061661054016],[-99.951876995899468,49.858134005109321],[-99.951850411458011,49.858197184784053],[-99.95182471031589,49.858305329617487],[-99.951697593740008,49.858562715148999],[-99.951692493234617,49.85865719999417],[-99.951648486670194,49.858895914157799],[-99.951593903230844,49.858950329127843],[-99.951560274266484,49.859009070210114],[-99.951454727310335,49.859302256309952],[-99.95145622852732,49.859378697984063],[-99.951429113053322,49.859414898459271],[-99.951353927196195,49.859482973220942],[-99.951106266027452,49.859624420785849],[-99.950823737482835,49.859761655664457],[-99.950664995519858,49.859825918932913],[-99.950346363645011,49.859895989200666],[-99.950117183149686,49.859915856741893],[-99.950005894261423,49.859916768807437],[-99.949713143898805,49.859887687744632],[-99.94938429438902,49.859791442086433],[-99.949237082731059,49.85973418258228],[-99.948836390360043,49.859521595381196],[-99.948455511586346,49.859254877805398],[-99.948264633745751,49.859099036831275],[-99.948186627838254,49.859023220907623],[-99.947994256049057,49.858790937716705],[-99.947944160609993,49.858719391521355],[-99.9478789229602,49.858585007748403],[-99.947819761370212,49.858405601849164],[-99.947788157628693,49.858212479783603],[-99.947727589555996,49.85796112946894],[-99.947669484715504,49.857835681733143],[-99.947561462322113,49.857647680625014],[-99.947517444601246,49.857531112141807],[-99.947408808005292,49.857311634314499],[-99.947358802923986,49.857244585256531],[-99.947245234460311,49.857128585032491],[-99.947159047604046,49.856989873867498],[-99.947109306872562,49.856936313365964],[-99.947031569971685,49.85687398707686],[-99.9469119268215,49.856803008568718],[-99.94685593441676,49.856785476959317],[-99.946646314680521,49.856737720177783],[-99.946472085679574,49.856721153863035],[-99.946388712238857,49.85672633089181],[-99.94631246956142,49.856740445932765],[-99.946264135074657,49.856758829458144],[-99.946064544020444,49.856868392322596],[-99.945926319345986,49.856914492727441],[-99.9458444377468,49.856996111195592],[-99.94576986211429,49.857095658963587],[-99.945626524246364,49.857236241891179],[-99.945557849968324,49.857281774482992],[-99.94544268276843,49.857440118154905],[-99.945240605716307,49.857779058236339],[-99.945228888297663,49.857891585696976],[-99.945209426021677,49.85796370023882],[-99.945213899850756,49.858193022128269],[-99.945286611304738,49.858354329889835],[-99.945394626513988,49.858542333137201],[-99.945395335931366,49.8585430388151],[-99.945479758170123,49.858627087296846],[-99.945536190978061,49.858667101278655],[-99.945622025204059,49.858787827523393],[-99.945756811107287,49.858921645167349],[-99.945813332287287,49.858966156432039],[-99.946094886053615,49.859134754048618],[-99.946595927104809,49.859499437494605],[-99.946764968068493,49.859605990805008],[-99.94708148237234,49.859783294973184],[-99.947300093513775,49.859934414911429],[-99.947778789607568,49.860222821858478],[-99.948087916050397,49.860377698381619],[-99.948249743662771,49.860470815901763],[-99.948965208035659,49.86077077360617],[-99.949323207887502,49.860934241229707],[-99.949484863467831,49.861018363956958],[-99.9497583401903,49.861128555618578],[-99.950131050534623,49.861332374481627],[-99.950229665930479,49.86139452753519],[-99.950384986345171,49.861510182509015],[-99.950511690256462,49.861585595861769],[-99.95060343910481,49.861652303035982],[-99.950773378880896,49.861803815519302],[-99.950802261216282,49.861857545503391],[-99.950959438099432,49.862067625594094],[-99.950988409090726,49.862125852941197],[-99.951103057735338,49.862295807449954],[-99.951153691316719,49.862394331272604],[-99.95122000283051,49.862582671199469],[-99.951250652079779,49.86272633133607],[-99.951241861378548,49.862987243285687],[-99.951216862847886,49.863131360026713],[-99.951141670995341,49.863199434642901],[-99.951121420947175,49.863231082350268],[-99.951115259478172,49.86327160714324],[-99.951074494395414,49.863321412104987],[-99.950965139717212,49.863421248435259],[-99.950882814466254,49.863480386918731],[-99.950807798159374,49.863557456146161],[-99.950766679466341,49.863589273147035],[-99.950443360869343,49.863776311987642],[-99.950195410612253,49.863904267205058],[-99.949878250271013,49.864050777940982],[-99.949435612502455,49.864184822901912],[-99.949089213615608,49.864259615131395],[-99.948846363835727,49.864293084612697],[-99.948645691148499,49.864348693738201],[-99.948402752547622,49.864377664878745],[-99.948187110355619,49.864379428834603],[-99.947685824016105,49.864361040731879],[-99.947502472997698,49.864364484042106],[-99.947261583819142,49.864369006152238],[-99.947115239831192,49.864356709242898],[-99.946634998444424,49.864347140932452],[-99.946251704782071,49.864314292268908],[-99.946069877660833,49.86426630577423],[-99.945881182536212,49.864222873167833],[-99.945665189741689,49.864206646350127],[-99.94544884603259,49.864172433048275],[-99.944699975013293,49.863944681756692],[-99.944581457521863,49.863932156688904],[-99.944406501946943,49.863879615263031],[-99.944238941110086,49.863849498623559],[-99.944085029844672,49.863805779776349],[-99.943994249696502,49.863788530085174],[-99.943847207363717,49.863740258652712],[-99.943741989569901,49.863696142894277],[-99.94345538777506,49.863626519923322],[-99.942965046889029,49.863455116325994],[-99.94283852471905,49.863388687757649],[-99.942474097078644,49.863252235855427],[-99.942151407700365,49.863115445405654],[-99.941702987416292,49.862952690250026],[-99.941576555662309,49.862890755907877],[-99.940918149988093,49.862662245415756],[-99.940559641497529,49.862471774425231],[-99.940489121789,49.862422876058673],[-99.94018670034194,49.862254434161969],[-99.939940015356953,49.862090037711873],[-99.939630729227986,49.861926146360361],[-99.939462218848831,49.861846561823803],[-99.939356573194942,49.861779960273935],[-99.93925531551281,49.861732983194734],[-99.938853865177023,49.86152424347987],[-99.938633151236871,49.861426041007554],[-99.938598110886247,49.861412832107845],[-99.938514292919791,49.861395521763399],[-99.938394912185899,49.861338025005807],[-99.938303267725672,49.861275805496291],[-99.938168843965201,49.861159965286845],[-99.938126586970725,49.861133323836839],[-99.937782708490516,49.860978701961514],[-99.937544908287506,49.860913167747782],[-99.937327105838804,49.86080249718929],[-99.937249375159894,49.860740164344818],[-99.93711547728067,49.860651302081926],[-99.936925847552629,49.860558393771257],[-99.936848204718686,49.860500556284755],[-99.936770127355928,49.86042023697226],[-99.936720046708174,49.860348685860799],[-99.936683877477719,49.860277022323231],[-99.936594498669209,49.85997193234904],[-99.93655633065967,49.859796849357998],[-99.936550767532736,49.85950907110427],[-99.936557114573347,49.859477538264237],[-99.936590762140682,49.859418803231407],[-99.936654666631043,49.859125965556586],[-99.936701181533465,49.859013159664983],[-99.936828466083526,49.858760285769876],[-99.937052863714612,49.858493134151864],[-99.937332292667648,49.858194057354311],[-99.937564597376493,49.857976311300789],[-99.937640061463753,49.857921734073479],[-99.937838283476935,49.857740241038861],[-99.93800955357051,49.857603938137366],[-99.938173519204582,49.857449705134947],[-99.938358697743098,49.857313289143868],[-99.938549959410636,49.85713185120283],[-99.938697573384175,49.85702559865998],[-99.939846568934925,49.856077284852432],[-99.940054091275456,49.855855728460888],[-99.940377379777019,49.855584628246383],[-99.940437580593013,49.855539920297524],[-99.940587426501608,49.855457371039961],[-99.940907828787488,49.855226563734455],[-99.94106371397902,49.855077635012591],[-99.941192859851824,49.854998411865743],[-99.941348135688884,49.854881073629777],[-99.941460592446532,49.854760134367169],[-99.941682808531581,49.854568025911782],[-99.941786308322918,49.854489010423322],[-99.942141044799754,49.854140264727391],[-99.942309502302493,49.854010183486466],[-99.942543884626389,49.853753223133509],[-99.942770399448662,49.853468688915271],[-99.94284498140064,49.85334726657441],[-99.942925996542215,49.853179992822447],[-99.942957084772928,49.853020231695005],[-99.942945947157753,49.852698937544297],[-99.942935787217507,49.852612546279211],[-99.942846591955572,49.852327734556411],[-99.942781736291067,49.852231824038896],[-99.942732566025995,49.852200361855196],[-99.942690018696936,49.852192344793124],[-99.942593209004244,49.852201959225603],[-99.9425505519106,49.852188369120206],[-99.942529472697601,49.852157415085813],[-99.942514676573026,49.852098536040153],[-99.942505799405637,49.851999446674462],[-99.942495912141624,49.85190106259212],[-99.942425148805697,49.851788221905736],[-99.942330168656582,49.851742080597027],[-99.942273904174527,49.851718824895393],[-99.942072204920464,49.851637979406405],[-99.941989683734732,49.851617513872327],[-99.941941762716695,49.851613263023239],[-99.941925657426779,49.851605145944163],[-99.94187277287881,49.851591655783842],[-99.941750884280182,49.851514802385012],[-99.94149582772431,49.851354999504551],[-99.941358925314091,49.851284968529271],[-99.941313145296292,49.851267812729418],[-99.941063378858232,49.851174982982918],[-99.940837939534859,49.851103093204927],[-99.940620882067378,49.851052271126676],[-99.9403461415815,49.851028208379809],[-99.940214536569641,49.851025667308029],[-99.940184245032754,49.851025912997457],[-99.939131962809967,49.851069303803122],[-99.938986638526501,49.851088424179537],[-99.938980810845152,49.851089190944833],[-99.938767331654887,49.851117279244939],[-99.938323387218645,49.851179336940412],[-99.938288789710626,49.851188611477951],[-99.938094677864143,49.851221664130478],[-99.937900826800472,49.851268205180091],[-99.937693127727229,49.851342026674885],[-99.937493478284765,49.851424406609233],[-99.936636264704561,49.851696672594535],[-99.936470575518953,49.851760972661673],[-99.935696369507156,49.85201007572207],[-99.935510161827963,49.852092529001325],[-99.935046728929009,49.85222668906588],[-99.934617458883622,49.852329090234463],[-99.934430120949898,49.852353085827467],[-99.934006503007524,49.852387981427178],[-99.933715539971132,49.85244878869733],[-99.933384148176771,49.85257738030441],[-99.9332394018641,49.85264600523476],[-99.9331080447201,49.852687536955536],[-99.932428488507753,49.852796442553334],[-99.932303392756694,49.852801945059767],[-99.932144735068562,49.852870680498285],[-99.931798735278278,49.85296340708026],[-99.931715885312485,49.852995552810384],[-99.931357357315918,49.85316033462496],[-99.931184701411695,49.853224683065541],[-99.930826342648146,49.85339845634563],[-99.930558823960197,49.853593986425039],[-99.930401801529172,49.853748153002968],[-99.930250783282517,49.853852800634385],[-99.93004628404654,49.854070309068625],[-99.929690503055625,49.854378975308208],[-99.929594947355127,49.854474184562903],[-99.929486085372602,49.854600980209021],[-99.929425389303205,49.854700406141561],[-99.92939130501577,49.854736657331138],[-99.929356703231193,49.854745929221352],[-99.92931549152604,49.854773243049877],[-99.929288534439124,49.854818431550569],[-99.929179670889766,49.854945226910459],[-99.929173319561144,49.854976757596411],[-99.92920887007088,49.855016948690192],[-99.929115812535798,49.85524255654915],[-99.928973897018892,49.855459561390958],[-99.928963390283528,49.855482038241391],[-99.928853620966692,49.855716866909411],[-99.928751709300627,49.855843606137292],[-99.928691354928986,49.8559610178743],[-99.928672041099816,49.856042122895346],[-99.928658475736398,49.856060220522366],[-99.928589700870759,49.856101247503425],[-99.928548832268206,49.856146547254752],[-99.928508049739065,49.856196342640636],[-99.928353166263022,49.856462921062509],[-99.928271341773439,49.856549022936932],[-99.928223172811855,49.856576392074814],[-99.928189172475186,49.856617140359532],[-99.928183164848633,49.856666657180128],[-99.928150111884108,49.856756866584327],[-99.928148103658287,49.856760463364125],[-99.927954149645615,49.856919214355138],[-99.927759878663238,49.857031542567917],[-99.92759378556903,49.857084879579361],[-99.927419214048555,49.857095563124055],[-99.927321936058959,49.857091697485217],[-99.927134319246733,49.857071219260888],[-99.927020846310128,49.857071817329775],[-99.926757880020872,49.857042343924206],[-99.926693458957061,49.857028928281835],[-99.926371047536932,49.856920343378626],[-99.926077170850846,49.856756961048887],[-99.926041928319947,49.856733252522169],[-99.925794803759672,49.856541844277601],[-99.925667034486409,49.856407947480967],[-99.925554292709634,49.856332395549344],[-99.925405659444948,49.856198665043365],[-99.925221994141609,49.85605172134126],[-99.924967062950003,49.85581540305256],[-99.924840413600094,49.855739959595816],[-99.924754979751228,49.8556372055887],[-99.924609702096319,49.855314563285589],[-99.924467006102901,49.854762540135276],[-99.924377886295204,49.854466433069298],[-99.924346893332796,49.854300283269282],[-99.924294607395922,49.854111816142471],[-99.924269969328833,49.853914134068695],[-99.924252637058046,49.853370105394596],[-99.924228685663749,49.853208395731521],[-99.92421418423487,49.852812754240382],[-99.92420663761726,49.852417057272653],[-99.924228366946878,49.852097580855094],[-99.924197547595341,49.851940422251602],[-99.924139939701789,49.851837445891718],[-99.924117618659906,49.851761169845268],[-99.924067308539279,49.851676124232156],[-99.923981712104265,49.85156437461999],[-99.92392513385083,49.851515356833389],[-99.923813263385583,49.851484766844159],[-99.923588408882949,49.851365133980359],[-99.923260353649354,49.851304785918877],[-99.923064517777874,49.851247880487811],[-99.922875979269861,49.851208907392497],[-99.922352690616449,49.851123127476782],[-99.92191354014416,49.851072654003644],[-99.921467350714224,49.851017736682323],[-99.921209527457037,49.850992802440572],[-99.92106975712592,49.850957935182329],[-99.920888688293729,49.850945882950533],[-99.920659366370586,49.850956698987559],[-99.919832398595801,49.850994743793734],[-99.919172674820857,49.851049447431912],[-99.918784169234769,49.85110199614094],[-99.918035398910959,49.851229354890798],[-99.917274588187937,49.851455741541116],[-99.917157639785287,49.851524126388135],[-99.917026611990934,49.85158362621884],[-99.91694426494378,49.851642742637296],[-99.91669790299099,49.851856060479967],[-99.91661555508125,49.851915176666985],[-99.916526677682725,49.851996829715986],[-99.916465447900421,49.852069269638477],[-99.916417090190379,49.852155850522422],[-99.916324164819656,49.852322231910129],[-99.916272694513594,49.852543002553105],[-99.916260655809324,49.852642036957413],[-99.916280771558363,49.852970177256061],[-99.916288491374686,49.853010590480096],[-99.916360673631985,49.853149435180967],[-99.91641646723528,49.853251424110915],[-99.916483154786306,49.853373328800402],[-99.91652598846882,49.853431453339638],[-99.916866449725717,49.853779545552669],[-99.917184008895148,49.85401988426009],[-99.917374937514438,49.854184772146809],[-99.917473326318856,49.85423796033195],[-99.917543810928365,49.854286871167098],[-99.917691905749322,49.854393632573007],[-99.917776811501625,49.854469414324235],[-99.917931777050526,49.854571622888926],[-99.918108459857436,49.854718633418408],[-99.918432645353278,49.854940927265048],[-99.918750049405986,49.855172268424447],[-99.919192987134707,49.855420602325658],[-99.919642969729551,49.855673374983141],[-99.91967113113698,49.855691140516122],[-99.920008898882401,49.855895333246345],[-99.920297129961995,49.856054945899857],[-99.920748064128588,49.85635717721437],[-99.921247239580325,49.856747871709537],[-99.921521825772828,49.857020406521222],[-99.921632847150619,49.857159648802977],[-99.921676203642861,49.8572447524826],[-99.921705735329951,49.857334462402946],[-99.921728825122514,49.857451206951239],[-99.921738774348029,49.857608530200665],[-99.921713605000136,49.857748145534316],[-99.921711611069682,49.858009001055471],[-99.921647617494216,49.858301829251957],[-99.921636272797855,49.858436836504055],[-99.921434965293884,49.858825198995966],[-99.921358694283015,49.858920022283925],[-99.921357299141874,49.85895032854463],[-99.921332247034258,49.85931415155742],[-99.921850378400052,49.861027281469681],[-99.921323990141047,49.862103900535395],[-99.918675066177883,49.862558919644933],[-99.916431126124181,49.862564268689958],[-99.916404738893974,49.864388529595615],[-99.927347690864664,49.864393234045231],[-99.927346166753622,49.865998815370077],[-99.924070625069447,49.865911115316536],[-99.922035903502262,49.865744730378431],[-99.922036190281119,49.867569494072832],[-99.918892605033932,49.867528503304257],[-99.917587906985048,49.867884792753095],[-99.916433627958071,49.868035867201648],[-99.916437583150682,49.871177079672179],[-99.927116683842428,49.885902350569552],[-99.928488801748287,49.887339007162161],[-99.926145462363309,49.88733976010473],[-99.926145293983538,49.888017587832451],[-99.928185212936668,49.888017782073476],[-99.929285902808843,49.889533873489491]]],[[[-99.929187775407541,49.902213601725506],[-99.930855506696119,49.90156315354082],[-99.93455512806112,49.901566850574902],[-99.934555386785505,49.901457199429963],[-99.929335540870412,49.901451948458849],[-99.929187775407541,49.902213601725506]]],[[[-99.935429433383277,49.91595047716099],[-99.957588854495384,49.915972650894624],[-99.957580530409359,49.910557912856198],[-99.969232160385459,49.910522448951674],[-99.969238414928469,49.905096283893776],[-99.957577446024587,49.9051317720605],[-99.957577144657492,49.901543714185735],[-99.935404050793252,49.901458579084625],[-99.935429433383277,49.91595047716099]]]]},"properties":{"WARD_NUM":1,"WARD":"Assiniboine"}},{"type":"Feature","geometry":{"type":"MultiPolygon","coordinates":[[[[-99.990443131851137,49.854376911994848],[-99.990548678025633,49.854776265682695],[-99.990580633455139,49.854978369004264],[-99.990578458663009,49.855212244738496],[-99.990482500926433,49.855622314674633],[-99.990442885765063,49.855726089963198],[-99.990342514528933,49.855920329349942],[-99.990288713308033,49.856010734016714],[-99.990160153567771,49.856187225029295],[-99.990098753591084,49.856246213744569],[-99.989749562284928,49.856519030802076],[-99.98954311664157,49.856628727304297],[-99.989303088495745,49.856797174307005],[-99.989137544758933,49.856866045742962],[-99.98895205318513,49.856980059631823],[-99.988943179168047,49.85698405154352],[-99.988520572520628,49.857184348737029],[-99.988420220767779,49.857253216360924],[-99.988419611576163,49.857253634402859],[-99.988312203689532,49.857327307595014],[-99.988250249739366,49.857359316529866],[-99.988229059975822,49.857365006304796],[-99.988146473314131,49.857387184691447],[-99.988091657695151,49.857428127193067],[-99.987989531453977,49.857536931656107],[-99.987963601012538,49.857571593497461],[-99.987745746642261,49.857862811158256],[-99.987719025906117,49.857917005836534],[-99.98771725862747,49.857936643296171],[-99.987713354040181,49.857980015664467],[-99.987713418043995,49.857981039592687],[-99.987713382805055,49.85798142665643],[-99.987723729678166,49.858147735846202],[-99.987753475675333,49.858241925538408],[-99.987840972404967,49.858439058957494],[-99.987941096792611,49.858573123194091],[-99.98813209920587,49.858728898081374],[-99.988230849268163,49.858795515935903],[-99.988308091537249,49.858830835427213],[-99.988455162372617,49.858879050323814],[-99.988524899137104,49.858887450171245],[-99.988615318408634,49.858886679095548],[-99.988670777519275,49.858877211618349],[-99.988732916660496,49.858854196290117],[-99.988836328778106,49.858808341726103],[-99.988904872351625,49.858758286377295],[-99.989006999060052,49.858649481127387],[-99.989094847571465,49.85852280861171],[-99.989281791156273,49.858138948034643],[-99.989307316651448,49.858026298040492],[-99.989387289870066,49.857854719989113],[-99.9894327622535,49.85769692900729],[-99.98949965069427,49.857565936905729],[-99.989552353054791,49.857421575006576],[-99.989606157182962,49.857331170685477],[-99.989608629118877,49.857323320768529],[-99.989670586106442,49.857163796921945],[-99.989673227987424,49.857158478404315],[-99.989773625633518,49.856989319695892],[-99.989773990141998,49.856988706756361],[-99.989806726749578,49.85693370018685],[-99.989922757694245,49.8568247753593],[-99.990115017633329,49.856701708493318],[-99.990217688705769,49.85661988098213],[-99.990348638895085,49.856560297145137],[-99.990728405118148,49.856422134530433],[-99.991268776951031,49.856314079067729],[-99.99150368112889,49.856235615930437],[-99.991663000613997,49.856202773258239],[-99.992527670054315,49.855966012344943],[-99.992572283997504,49.855957463337361],[-99.992919607083692,49.855901922286407],[-99.992943674041967,49.855899488200194],[-99.99335401254487,49.855895972648739],[-99.993952686360487,49.855917824457414],[-99.994244884048996,49.85591981682844],[-99.994787273121574,49.855910665390738],[-99.994891688787263,49.855914267445165],[-99.995059067793861,49.855935316164398],[-99.995163852933246,49.855956903815404],[-99.995359975480085,49.856022677871678],[-99.995632787415275,49.856096789252739],[-99.995655901212842,49.856106467596817],[-99.995886164766631,49.856216795928468],[-99.995927851268462,49.856238166719187],[-99.996216893367816,49.856349190156294],[-99.996271416595533,49.856370132099954],[-99.996685828393396,49.85656444889743],[-99.996847088013055,49.856626023831545],[-99.997100613638551,49.856776750015236],[-99.997191954155952,49.856820936845459],[-99.99719192511624,49.856819525857226],[-99.997191898001461,49.856818208395332],[-99.997595013689221,49.856733199383221],[-99.997768279434041,49.856731708170052],[-99.998119489742024,49.856779989346911],[-99.998308610247079,49.856789299030943],[-99.998521148580906,49.856824814565591],[-99.998809924815134,49.856822326760259],[-99.998949911646307,49.856686188518218],[-99.999088126660396,49.856476913043132],[-99.999109942913876,49.856343200648332],[-99.999076996632482,49.85617477102052],[-99.999015919100088,49.856071816490029],[-99.998889597269027,49.855904872365684],[-99.998802278199904,49.855806319090412],[-99.998650856027069,49.855642205673377],[-99.998516026388259,49.85548889005387],[-99.998344704464756,49.855287681593666],[-99.998205655329357,49.855108946587841],[-99.998045141026864,49.85490839205594],[-99.997937256024471,49.854749009025923],[-99.997823654223922,49.854434998313565],[-99.997843899563406,49.854343569340642],[-99.997874272664419,49.854206409637705],[-99.997987967530364,49.853905881274684],[-99.998140383152588,49.853629699417759],[-99.99828065106739,49.853451709808262],[-99.998563758924277,49.85311659495693],[-99.998894638000266,49.852786445561364],[-99.99916215239486,49.852569843053544],[-99.999505148712885,49.852334860911093],[-99.999942266410415,49.85211729863952],[-100.00036948756292,49.851956858825957],[-100.00087066238602,49.851803143622149],[-100.00136912442903,49.851669502047692],[-100.00238371582631,49.851441844210157],[-100.00282396193263,49.851381108311514],[-100.00341582728993,49.851361878577848],[-100.00376234361156,49.851394619136123],[-100.00416371189435,49.851687400705586],[-100.00427189679172,49.852019825463955],[-100.0043631735934,49.85492435188219],[-100.00436135687511,49.85498845802001],[-100.00436856253353,49.855072788397727],[-100.00438663323509,49.855156434594832],[-100.00441544148771,49.855238813967276],[-100.00445478620526,49.855319350801935],[-100.00450439422733,49.855397482600054],[-100.00456391761024,49.855472663698677],[-100.00463294208321,49.855544370594714],[-100.00471098424666,49.855612101070044],[-100.00479750147596,49.855675382201575],[-100.00489188641288,49.855733773107737],[-100.00499348367562,49.855786865703912],[-100.0051015816064,49.855834289271705],[-100.00521542623748,49.855875713036887],[-100.0053342213106,49.855910847069339],[-100.00545714089016,49.855939446671471],[-100.00558332239066,49.855961311539573],[-100.00571188890891,49.85597628916851],[-100.00584193950725,49.855984275835752],[-100.00597256726095,49.855985214646076],[-100.00610286072576,49.855979099116823],[-100.00623190950373,49.855965973129479],[-100.0063588125164,49.855945927260244],[-100.0064826836266,49.855919101429151],[-100.00660265857636,49.855885683940215],[-100.0065885347157,49.855753413663557],[-100.00650530648613,49.855430333895093],[-100.00638249886075,49.855211034572577],[-100.00629661378095,49.855094851498514],[-100.00609100491113,49.854907751418416],[-100.00593585407579,49.854805660992604],[-100.00576558121324,49.854645237227324],[-100.00565281315737,49.854574259482483],[-100.0054354455789,49.854490697151839],[-100.00536571237306,49.854482307450382],[-100.00523161492656,49.854389027998756],[-100.00494386325771,49.854265599770343],[-100.00476720039036,49.854132213474635],[-100.00467427329393,49.854011592973272],[-100.00465859281839,49.853926280992432],[-100.00457206165753,49.85377862143126],[-100.00450536933985,49.853581320061139],[-100.00448124347169,49.853424125118053],[-100.00451877606014,49.853221423295075],[-100.00453824132788,49.853153795750664],[-100.00460508273152,49.853022796022387],[-100.00467285601142,49.852936760752826],[-100.00502165734677,49.852650409905912],[-100.00511715365364,49.852559636746285],[-100.00519253264817,49.852505016021134],[-100.00557073133677,49.852294861955151],[-100.00566039133619,49.852258106069002],[-100.00598519179626,49.852156348089629],[-100.00639260218533,49.852013396682388],[-100.00695356496472,49.851896093615942],[-100.00730711196512,49.851839054786858],[-100.00741114570188,49.851824658928166],[-100.00744557406473,49.851822645360656],[-100.00758053504504,49.851814751629995],[-100.00761814792897,49.838664669585071],[-99.996209055126798,49.838611502198852],[-99.996200367763862,49.832395476853101],[-99.984759829838552,49.832805058011111],[-99.984761940027596,49.853646641582102],[-99.985001186390562,49.853465110939865],[-99.985047141330355,49.853437992366032],[-99.985170403570422,49.85334250254725],[-99.985563337146829,49.853168266823673],[-99.985784966868849,49.853121409753427],[-99.986109724130046,49.853015210718574],[-99.986636068175201,49.85290279790361],[-99.986878833735915,49.852869250597649],[-99.987358233918897,49.852842681963402],[-99.987559913353877,49.852840963955529],[-99.987922003740394,49.852860364874864],[-99.988089644369651,49.852894914068088],[-99.988131462875231,49.852899054855847],[-99.988180510937767,49.852916625760727],[-99.988306883603229,49.85297401270104],[-99.988410833948777,49.852955137376846],[-99.988501333877934,49.852958862928496],[-99.988571153844362,49.852971759280194],[-99.988816028653716,49.853041626770441],[-99.989405622294484,49.853301933905875],[-99.989539411039644,49.853381742475825],[-99.989674118560757,49.853506515586218],[-99.989695625072542,49.853537812747646],[-99.989717498963984,49.853587095783638],[-99.989712197473921,49.853668091615774],[-99.989740566824509,49.853694832920041],[-99.989803800976048,49.853725773776446],[-99.989894853566014,49.853756477046815],[-99.989980329622568,49.853854686676371],[-99.99015750237011,49.854015074580495],[-99.990313812348333,49.854175640446343],[-99.990349688374323,49.854229300991463],[-99.990443131851137,49.854376911994848]]],[[[-100.00709223752712,49.852209697045048],[-100.00695361806487,49.852233387574522],[-100.0066082363175,49.852348818771034],[-100.00634527819695,49.852414063558079],[-100.00595010903599,49.852536174391155],[-100.00585281859722,49.852566237331096],[-100.00571635054499,49.852608406729054],[-100.00561992216844,49.852654215888556],[-100.00557903553951,49.852695045905101],[-100.00545562887612,49.852781564278736],[-100.00531980544601,49.852940146331846],[-100.00526575566252,49.853017068455557],[-100.00506864634714,49.853239143274969],[-100.00503667167928,49.853374338231156],[-100.00499652999763,49.853451139635325],[-100.00499867487211,49.853554557959697],[-100.00505850786098,49.85375641578171],[-100.00518732757389,49.85393069183251],[-100.00532226323995,49.854064439383201],[-100.00542807500788,49.854135477787032],[-100.00550541546859,49.8541752822631],[-100.00568754199287,49.854236663925548],[-100.00591835140823,49.854297622856734],[-100.00607980170059,49.854368177838289],[-100.00626258329883,49.854461033712141],[-100.00641792048324,49.85457211660141],[-100.00653218406954,49.85471503672867],[-100.00683138176626,49.855054229929365],[-100.00699017966336,49.855331680482074],[-100.00704871490436,49.855470586926891],[-100.00708426668194,49.855652822602423],[-100.00716736869028,49.855588191897496],[-100.00724187924671,49.855519321115914],[-100.00730728099163,49.855446686082288],[-100.00736312390228,49.855370789018764],[-100.00740902104398,49.855292154983538],[-100.00744465405805,49.855211328224868],[-100.00746977859323,49.855128865837486],[-100.00748421879639,49.855045340508184],[-100.00748787815769,49.854961326929875],[-100.00748247965585,49.85488990254332],[-100.00756765472906,49.852222746999324],[-100.00744606033184,49.852203361998995],[-100.00741194977967,49.852197924443608],[-100.00732840436665,49.852194153223074],[-100.00709223752712,49.852209697045048]]],[[[-99.986109724130046,49.853015210718574],[-99.986100268560307,49.853019722748897],[-99.986109752824888,49.85301662081315],[-99.986115438744861,49.85301540675561],[-99.986109724130046,49.853015210718574]]],[[[-99.990443131851137,49.854376911994848],[-99.990441881253673,49.854376302958634],[-99.990442752413031,49.854377677970987],[-99.990443131851137,49.854376911994848]]]]},"properties":{"WARD_NUM":3,"WARD":"Victoria"}},{"type":"Feature","geometry":{"type":"Polygon","coordinates":[[[-99.96581718752843,49.861250807732489],[-99.966117448999796,49.861306769916027],[-99.966438129831076,49.861340074881014],[-99.96672421189551,49.861382661975234],[-99.967163410447085,49.861428468264492],[-99.967900898206963,49.861431307578052],[-99.968429084694137,49.861404410162955],[-99.96854706243542,49.861389932802176],[-99.969177694841633,49.861267733893008],[-99.96953135618044,49.861210809702264],[-99.969704888694707,49.861191369277208],[-99.969878871173236,49.861194411045396],[-99.970136051916882,49.861183264597301],[-99.970518615190855,49.861180062441761],[-99.970804429429208,49.861209149983701],[-99.971110750564421,49.861220076061258],[-99.971285003660412,49.861236605183954],[-99.971592975890317,49.861233757285838],[-99.971688163758444,49.861219734864349],[-99.971729356789666,49.861192406112863],[-99.97172890582388,49.861169923672897],[-99.971791056050577,49.861146916470567],[-99.971888435678764,49.861146100106509],[-99.972062959429195,49.86117611752308],[-99.97210469357789,49.861175767564774],[-99.972333419138423,49.8611333741406],[-99.972651484767056,49.861036263774565],[-99.972748051562917,49.860994978308213],[-99.972892495095451,49.860912815769296],[-99.97319438866711,49.860703408508364],[-99.973363671691146,49.860472627762661],[-99.973410980777601,49.860354371223124],[-99.973422046692434,49.860285912982654],[-99.973400345851388,49.860220474100608],[-99.973279572122237,49.860095565289662],[-99.973152746716934,49.860015679606342],[-99.973047781691648,49.859985079992313],[-99.972873713130937,49.859977546467348],[-99.972741016589779,49.85995167654891],[-99.9726303602678,49.859984085746092],[-99.97234581568695,49.860017953496815],[-99.972074640429184,49.860024724971701],[-99.971684950555726,49.860018997531697],[-99.971525153788647,49.860029331333607],[-99.971332994052446,49.8599997460108],[-99.971239255969834,49.85999574903424],[-99.971093460357039,49.860010462180554],[-99.970904579787643,49.859958077329701],[-99.970848755419482,49.859949550372924],[-99.970598356759197,49.85995164714754],[-99.970472887200089,49.859939205860172],[-99.9704239283748,49.85992612397866],[-99.97033251601745,49.859877419478693],[-99.970156197134699,49.859757469592708],[-99.970085471747154,49.859699597280112],[-99.969951697132501,49.859619766256635],[-99.969803111944259,49.859495086533819],[-99.969700961608467,49.859380285413913],[-99.969639785223052,49.859311532367464],[-99.969571902332461,49.859242752631388],[-99.969476142676484,49.859147036336324],[-99.969446791482213,49.859070828630877],[-99.969333076136692,49.858950353932222],[-99.969307737734354,49.858341593803722],[-99.96931868223659,49.858230915018268],[-99.96937973376275,49.858067873144314],[-99.969479605779,49.857862768538091],[-99.969548914252073,49.85772604375105],[-99.969565319444612,49.857693680174755],[-99.969619611224388,49.857625767379467],[-99.969783295662111,49.857462497283272],[-99.969994762434254,49.857316837708581],[-99.97001425296726,49.857304624695651],[-99.970056730793729,49.857221855400383],[-99.970060147655218,49.857184049935583],[-99.970013403211155,49.857108880151138],[-99.970162205566197,49.856791935377302],[-99.970213547000711,49.856785209540412],[-99.970264870412009,49.856777584382201],[-99.97030365668472,49.856769164691862],[-99.970335487882565,49.856760803206591],[-99.970370029050954,49.856748821230127],[-99.970431345168592,49.856721094203721],[-99.970478871879507,49.856682009210573],[-99.970550132329208,49.856449385233105],[-99.970576781469219,49.856390697896167],[-99.970698458400364,49.856214286420503],[-99.97070978205484,49.856206044385139],[-99.970910999389702,49.8560596000464],[-99.970930069707876,49.856050266834309],[-99.971172764328841,49.855931484383298],[-99.9712550518923,49.85587233074024],[-99.97133760967418,49.855826666517437],[-99.971578777988412,49.8557122142537],[-99.971916862671875,49.855574462709811],[-99.972239862801416,49.855378372457309],[-99.972322599269333,49.85534170052339],[-99.972446974458478,49.855300181987637],[-99.972497497999541,49.855292933117539],[-99.972613439504386,49.855276299173937],[-99.972710807311245,49.855275482188901],[-99.973031000959224,49.855286286706367],[-99.973260962383961,49.855306842450887],[-99.973608795032035,49.855308418818232],[-99.973678072425727,49.855294345198523],[-99.973864226498748,49.855211830970653],[-99.973940548887143,49.855202195256531],[-99.974051826166317,49.855201260279841],[-99.974254329895786,49.855240033765888],[-99.97455079265039,49.855276298174033],[-99.974979080216457,49.855305896359724],[-99.975098579361457,49.855367852715574],[-99.97536277319071,49.855361132838652],[-99.975791438406574,49.85523160227055],[-99.975956814703594,49.855153756820734],[-99.976349977657136,49.854988545069645],[-99.976558803177028,49.854831928637161],[-99.976771716613257,49.854613089401077],[-99.976902229205123,49.854466179755562],[-99.977018491827053,49.85433530852967],[-99.977210903227089,49.854173571949978],[-99.977456245638791,49.853967340860947],[-99.977654120122182,49.853776787648933],[-99.978023273403153,49.853528196617539],[-99.978319645310776,49.853360028684527],[-99.978732005400829,49.853136938896363],[-99.979071598925529,49.853013783151205],[-99.97954014244246,49.852793956726913],[-99.979987179505002,49.852649130996362],[-99.980230263900111,49.852577473517584],[-99.980417215055539,49.852535418106932],[-99.980571828831003,49.852509843142151],[-99.980798525781907,49.852473727259877],[-99.980985476031989,49.852431670937385],[-99.981179471832874,49.852403417008503],[-99.981346104083158,49.852379147818667],[-99.981671595017062,49.852308933929962],[-99.981831090656826,49.852285095951046],[-99.981936001821552,49.852260999683779],[-99.982018816681958,49.852228817367525],[-99.982303855370617,49.852221905030348],[-99.982308393071534,49.852222997186963],[-99.982305555715214,49.852223297362315],[-99.982519484515734,49.852274766873172],[-99.982610165117393,49.852287489096639],[-99.982749344195511,49.852290807386694],[-99.982826298482436,49.852312640317251],[-99.982951933673988,49.852334062209131],[-99.982995043690622,49.852369068439693],[-99.983062795861557,49.852424087125932],[-99.983171169123608,49.852512093092173],[-99.983172081395836,49.852557057886131],[-99.983118087946991,49.85263846637627],[-99.983111772039734,49.852669999813529],[-99.983134642317168,49.852768745414188],[-99.983123287653612,49.852894764796204],[-99.983042844056669,49.853043857259365],[-99.982947761219521,49.853157093977295],[-99.982886538617691,49.853225072790408],[-99.982811315555082,49.853288672120151],[-99.982586739297915,49.853533427572636],[-99.982347886947849,49.853760314547912],[-99.982286753881041,49.853832788627152],[-99.982118994422976,49.854135525042224],[-99.982092451634614,49.854198711442663],[-99.982080456073959,49.854293256253108],[-99.98209591468455,49.854369577663078],[-99.982169289511603,49.854557840558236],[-99.98221952204608,49.854633869110984],[-99.982276436010068,49.854696348371832],[-99.98234716844361,49.854754212352638],[-99.982480676231873,49.854820540559153],[-99.98280973864135,49.854925685170905],[-99.982914698678911,49.854956275101742],[-99.98306806865169,49.854972963552513],[-99.983158389551903,49.854967701198113],[-99.983159306719273,49.854967445171084],[-99.983092334474065,49.854971347425405],[-99.983089540357682,49.854971043721626],[-99.983159440371622,49.854966970027263],[-99.983242441488699,49.854943779783575],[-99.983469941232272,49.854842910372305],[-99.983559349117854,49.854792682036155],[-99.983744023621725,49.854638208415217],[-99.983941875923861,49.85444764462494],[-99.984186491523971,49.854162241172595],[-99.984357252366252,49.854007884676562],[-99.984546911584317,49.853809116248279],[-99.984579699026924,49.853782988461091],[-99.984761871229338,49.853644830673169],[-99.984759829838552,49.832805058011111],[-99.982622670329576,49.832881444761952],[-99.98066176660258,49.833005143960136],[-99.973121951138893,49.833755460517473],[-99.973127211786306,49.842286339876757],[-99.961927717068733,49.842234280775472],[-99.961955701675734,49.860494246933492],[-99.962504720772387,49.860500334807526],[-99.962637145478112,49.860512726962796],[-99.962832528264428,49.860542585047419],[-99.963028090054578,49.86058143580118],[-99.963237384607311,49.860611177633984],[-99.963488860339254,49.860663054729976],[-99.963719827468992,49.860733090747068],[-99.964705497898009,49.86097224075268],[-99.965110808291726,49.861063309240272],[-99.96581718752843,49.861250807732489]]]},"properties":{"WARD_NUM":4,"WARD":"University"}},{"type":"Feature","geometry":{"type":"Polygon","coordinates":[[[-99.973121951138893,49.833755460517473],[-99.98066176660258,49.833005143960136],[-99.981151536755604,49.832967336006412],[-99.981641639403463,49.832934114947989],[-99.982132031588975,49.832905483696663],[-99.982622670329576,49.832881444761952],[-99.984759829838552,49.832805058011111],[-99.996200367763862,49.832395476853101],[-99.996161623150257,49.812681834477488],[-99.976111282919774,49.812617320095931],[-99.973379953183752,49.81260815446015],[-99.973379545650502,49.820213022232444],[-99.973106745828815,49.820213712940934],[-99.973111412703915,49.825428264059262],[-99.973121951138893,49.833755460517473]]]},"properties":{"WARD_NUM":7,"WARD":"Linden Lanes"}},{"type":"Feature","geometry":{"type":"Polygon","coordinates":[[[-99.9390657005641,49.835891273712676],[-99.939063385075599,49.831690718017782],[-99.939053399857087,49.82740979064554],[-99.950043338654012,49.827442568795348],[-99.950046099366588,49.82090909071313],[-99.950039841370028,49.820841218970493],[-99.950027032025957,49.820774273793859],[-99.950007792042101,49.820708886035135],[-99.949982302724734,49.820645671870025],[-99.949950804270159,49.820585226991589],[-99.949913593501265,49.820528120996741],[-99.949871021070393,49.820474892018737],[-99.949823488155062,49.820426041656098],[-99.949771442677459,49.82038203024586],[-99.949772797744586,49.812659608559088],[-99.921132493988807,49.812595118099146],[-99.914515256790153,49.812644364253686],[-99.905570184474925,49.813011099012925],[-99.806388689552207,49.813127628308393],[-99.806495311521999,49.814393266936236],[-99.80806415628976,49.816628773440321],[-99.809426731128084,49.818733555496628],[-99.808763765057193,49.821231298236917],[-99.810820340292551,49.822688107029926],[-99.817573176976623,49.823433527371215],[-99.820074541340887,49.825424198520672],[-99.823194282751629,49.82819936587812],[-99.825123063456289,49.8289961047319],[-99.825258912967854,49.83097728153129],[-99.824887471358423,49.833160283616216],[-99.82550254390263,49.835245049981879],[-99.825554658788519,49.857116626350276],[-99.848438066077534,49.857126231149216],[-99.848493728452681,49.849927453566671],[-99.859731078541586,49.849954455323918],[-99.859698558001867,49.850205746219196],[-99.859563355955402,49.850835369645033],[-99.859602281007852,49.85164003444806],[-99.860378148023585,49.852295773893445],[-99.861334803286326,49.852719040754153],[-99.862830226176058,49.852939044773471],[-99.864593116266803,49.852949819794581],[-99.867414379732026,49.852864984332186],[-99.869170549702289,49.852501157734039],[-99.873190343062177,49.849840900838657],[-99.875696827887268,49.849399591426632],[-99.881203817560078,49.850300977179238],[-99.885888991308903,49.850584683473343],[-99.889089428769111,49.850149982575132],[-99.891298885735083,49.848707408591771],[-99.891898804896229,49.847817829801748],[-99.893244932008386,49.847650122420461],[-99.895134962394337,49.846942912265746],[-99.895859244540532,49.847307168043365],[-99.895611157924463,49.848795213476969],[-99.895718015575454,49.850075416685698],[-99.896502422780102,49.851194924651274],[-99.898689325414068,49.851592342879584],[-99.900253980689612,49.850161320391649],[-99.902643632174474,49.848639797116292],[-99.905474985604343,49.847935818412537],[-99.90549897421289,49.842342850166723],[-99.916212979959553,49.842087298448661],[-99.916223305463831,49.827355922545493],[-99.920860367212185,49.827357252552652],[-99.920854123654664,49.828537245096705],[-99.920884846838433,49.828630207721616],[-99.920922297217757,49.82872067004935],[-99.920966273566833,49.828808146013891],[-99.92101653959493,49.828892165595363],[-99.921072825216044,49.828972277345478],[-99.921134828000135,49.829048050813242],[-99.921202214798043,49.829119078857829],[-99.921274623531644,49.829184979836192],[-99.921351665139269,49.829245399653686],[-99.921432925666196,49.829300013666668],[-99.921517968488914,49.829348528426856],[-99.921606336661114,49.829390683258048],[-99.93019377243138,49.833204207087142],[-99.930331342752737,49.83326131083453],[-99.930466441055174,49.833324039456102],[-99.930598837469674,49.833392286219457],[-99.930728306724518,49.833465935003112],[-99.930854628528493,49.833544860494086],[-99.930977587945762,49.833628928401104],[-99.931096975761562,49.833717995683088],[-99.931212588838221,49.833811910792576],[-99.931324230460746,49.833910513933532],[-99.931431710671518,49.834013637333271],[-99.931534846593607,49.834121105527913],[-99.932743017974332,49.835412942713496],[-99.932827925188732,49.83548430569288],[-99.932916959625771,49.835550447804309],[-99.933009800728513,49.835611130911708],[-99.933106114234647,49.835666136533412],[-99.933205553379892,49.835715266628846],[-99.933307760146519,49.835758344311458],[-99.933412366552332,49.835795214485664],[-99.933518995975547,49.835825744405184],[-99.933627264510804,49.835849824151005],[-99.933736782351261,49.835867367027134],[-99.933847155192183,49.835878309872719],[-99.933957985650494,49.835882613289471],[-99.934068874695498,49.835880261783487],[-99.9390657005641,49.835891273712676]]]},"properties":{"WARD_NUM":10,"WARD":"Green Acres"}},{"type":"Feature","geometry":{"type":"Polygon","coordinates":[[[-99.905475284791081,49.847935825069968],[-99.905632850245155,49.847939022143372],[-99.905635009869059,49.847939065533808],[-99.906324373171145,49.847983147302394],[-99.906617026950983,49.848012339442931],[-99.906944703179661,49.848054748553409],[-99.907460725766853,49.848127163104195],[-99.907977255293261,49.848226554829914],[-99.908144655867375,49.848252226910716],[-99.908556709843651,49.848343440032032],[-99.908773379161232,49.848400205711172],[-99.909101481535785,49.848465091591351],[-99.909394392918671,49.848507766427268],[-99.909645918357867,49.84856875426086],[-99.909799244131889,49.84858553992332],[-99.909945362734078,49.848588890238297],[-99.910244891798172,49.848613522017864],[-99.910635668205686,49.848682408636712],[-99.910969883778492,49.848702268806584],[-99.911227943493856,49.848740715658487],[-99.911535189261485,49.848805758609217],[-99.911640091870595,49.84883641433106],[-99.911773233752456,49.848889334042866],[-99.912089381529626,49.849057742034496],[-99.912091426523887,49.849059674148201],[-99.912117705564526,49.849084502608605],[-99.912153576105808,49.849142684475026],[-99.912294096683766,49.849218031727531],[-99.912638404221227,49.849547030708088],[-99.912667125637569,49.849574474297228],[-99.91270488594688,49.84961055516596],[-99.912789436697807,49.849668353531015],[-99.912861010966637,49.849775723664479],[-99.912961927005,49.849963812981493],[-99.913049613093918,49.850187984331832],[-99.913158078075384,49.850407494684987],[-99.913248731594663,49.850789045871593],[-99.913287062189468,49.850977627931087],[-99.913288207349211,49.8510383945979],[-99.913289180661792,49.851090042217258],[-99.913258545619655,49.851186189895373],[-99.91324321165088,49.851234316028261],[-99.913286293773666,49.85130593243148],[-99.913294942974019,49.851395809064229],[-99.913276087820236,49.851467835184629],[-99.913243036111524,49.851594096513168],[-99.913143210147325,49.851833236562499],[-99.912960268023198,49.852091020098946],[-99.912858999720058,49.852253718190958],[-99.912593023114425,49.852534641166415],[-99.912503968432745,49.852607298024544],[-99.912367585880659,49.852752283123252],[-99.912299563605032,49.852833768755389],[-99.912205246194233,49.852996411543479],[-99.912007539136482,49.853209337319974],[-99.911912458464158,49.853331510727365],[-99.911817884973956,49.853480663485229],[-99.911804229384941,49.853494262607654],[-99.911755631023425,49.853499142094989],[-99.911735020699624,49.853512795909943],[-99.911728827402527,49.853553319752386],[-99.911603285804517,49.853905091536532],[-99.911522281507573,49.854036148380182],[-99.911325751183014,49.85431202499371],[-99.911319303751711,49.854339059097249],[-99.91134796876544,49.854383806105467],[-99.911327273385837,49.854392963277348],[-99.911271296424374,49.854375414385224],[-99.911229482845428,49.854371245841044],[-99.911194877773184,49.85438051232849],[-99.911167396631001,49.854398717282606],[-99.911106071265493,49.854466657834827],[-99.911011577654065,49.854620306503634],[-99.910945748355147,49.854818702199729],[-99.910865501512149,49.854990227724585],[-99.910903380261502,49.855525101092809],[-99.910961556377188,49.855659560993168],[-99.911006752695073,49.855843592451862],[-99.911042965200139,49.855919760855961],[-99.911079008722979,49.855986936106433],[-99.911094102562402,49.85604977876546],[-99.911318525595945,49.856146953869903],[-99.911360425291917,49.856155618941919],[-99.911423021120015,49.856155126812034],[-99.911471283834715,49.856132261172299],[-99.911525148141479,49.856037395708135],[-99.911529396317135,49.85589345078531],[-99.911512018079023,49.855709200794834],[-99.9115391614651,49.855673009479638],[-99.911545608941083,49.855645975369747],[-99.911509057508766,49.855551820841804],[-99.911430945429828,49.855466987545491],[-99.911370738482105,49.855224610189445],[-99.911347759323291,49.855112359958632],[-99.911321059276574,49.854802260601367],[-99.91131784572076,49.854631390901915],[-99.911347018327973,49.85470311733345],[-99.911397055704498,49.854774679717174],[-99.911430119107791,49.855053248379036],[-99.911452675522582,49.855143015741078],[-99.911481002810035,49.855169776424894],[-99.91155131362413,49.855209698680753],[-99.911579641005204,49.855236459339629],[-99.911594227679331,49.855272322517713],[-99.911603382122976,49.855389178650327],[-99.911709889289895,49.85587404244783],[-99.911713527408352,49.856067394939323],[-99.911693254414004,49.85609903502499],[-99.911576879091669,49.856198889381361],[-99.911535486870875,49.856217203805727],[-99.911528870135015,49.856235244773693],[-99.911543372489575,49.856266611381002],[-99.911538024634211,49.856352100892025],[-99.911553626752763,49.856441922899876],[-99.911632248250314,49.856553735504676],[-99.911712900745385,49.856773465707647],[-99.911827862932626,49.856971945484517],[-99.911948620883834,49.85724021619788],[-99.911948947211172,49.857240848640181],[-99.911987438496908,49.857315471549576],[-99.912080565504766,49.857458650359611],[-99.912289380468692,49.857834774877595],[-99.91238259406002,49.857982449988889],[-99.912496843718088,49.858138953907115],[-99.912653165307134,49.858313115427443],[-99.913025014435206,49.858849855329375],[-99.91309592510261,49.858921252545272],[-99.913139352992118,49.859010855133477],[-99.913167852999223,49.859046608500172],[-99.913259884990339,49.859131330934318],[-99.913345385620488,49.859238590918203],[-99.913458878374811,49.859354624737193],[-99.913523343584799,49.859453055873111],[-99.913664913981194,49.859582359923941],[-99.914045775013832,49.859858185975618],[-99.914389910128989,49.860030864115878],[-99.914488137894494,49.860075061607233],[-99.914886647779085,49.860179850836552],[-99.915131115217065,49.86023188803545],[-99.915221538924314,49.860231174187227],[-99.91527760903638,49.860253217669815],[-99.915430888726917,49.860265499068632],[-99.915584508411385,49.860295766509708],[-99.915765866017509,49.860321317400796],[-99.915807600106319,49.860320987712228],[-99.91586333056263,49.860325044665075],[-99.915989954197869,49.860330720809571],[-99.916204499098669,49.860340337724288],[-99.916323000858938,49.860352892801139],[-99.916409718503232,49.860355208773591],[-99.91671277443848,49.860363302930004],[-99.917234450807342,49.860359176479832],[-99.91766485145132,49.86031079792189],[-99.918081595511907,49.86027601761738],[-99.91844192643282,49.860201207669917],[-99.919078178923726,49.860002784077146],[-99.919195400852189,49.859947887861907],[-99.919766570944944,49.859619556717114],[-99.920034251871812,49.859428548767418],[-99.920246115733747,49.85922898882427],[-99.920396830657282,49.859106366982068],[-99.920818414338925,49.858594831496333],[-99.92098503450336,49.858211242889936],[-99.921031072237469,49.858071462830701],[-99.92101288770607,49.85784674553534],[-99.920962063708686,49.85773471842959],[-99.920876036214878,49.857600484775872],[-99.920592442475439,49.857319411385433],[-99.920281458262508,49.857061040922588],[-99.920218665502404,49.857016719943545],[-99.920015456280552,49.856859967200116],[-99.919807271039105,49.856744721696941],[-99.919647211110558,49.856629842380848],[-99.919506401572065,49.85654101464629],[-99.919091101733997,49.856283468368005],[-99.918978796812283,49.85623039188161],[-99.918774882398054,49.856115080085452],[-99.918718986048034,49.8561020313821],[-99.918620080585697,49.856021864935229],[-99.918521857365462,49.855977670889274],[-99.918239905866216,49.855782026200302],[-99.918162122508193,49.85571518375837],[-99.918055411804502,49.855590106283202],[-99.917857861029361,49.855443261818372],[-99.917560472766468,49.855166787434797],[-99.917207959400258,49.854917731882345],[-99.91710159334778,49.854810639742851],[-99.916910748260619,49.854650248895645],[-99.916782838316806,49.854507348968525],[-99.916570620698195,49.854320143160002],[-99.916415925101902,49.854154775042048],[-99.916357639427233,49.854092467860994],[-99.916211123002213,49.853957879563133],[-99.916187748954187,49.85393640740574],[-99.916130750658652,49.853864902078485],[-99.916059928048824,49.853798003206556],[-99.915996491695566,49.853711918275081],[-99.915974261206827,49.853681751972665],[-99.915903439082854,49.853614853000281],[-99.915647631413108,49.853329050659219],[-99.915590294800921,49.853239558783088],[-99.915561116837452,49.853167833431904],[-99.915530579712254,49.853024162999141],[-99.915527861229805,49.852880272850655],[-99.915515469757892,49.852592547468419],[-99.915528189584208,49.852529485672036],[-99.915627155542765,49.85224537798009],[-99.915674137924086,49.852155062094504],[-99.915897092954765,49.851807013326194],[-99.915972062182036,49.851725470658799],[-99.91599760325461,49.851704302707866],[-99.916081633335892,49.851634660019144],[-99.916211404034769,49.851508305342676],[-99.916286525525692,49.851435162105247],[-99.916417539474963,49.851319289423841],[-99.916532802128884,49.851217347656842],[-99.916628802564944,49.851144632743704],[-99.916718273647447,49.85109445558404],[-99.916958443052962,49.850921660906835],[-99.917082174453427,49.85084422900794],[-99.917414109067494,49.850742663190296],[-99.917864776153124,49.85066713977978],[-99.918281011214219,49.850609876340975],[-99.918725318093081,49.850565880644645],[-99.919162755156606,49.850526434956983],[-99.919301669944502,49.850516338889271],[-99.919746572342277,49.850503815236451],[-99.920184520224893,49.850491345081572],[-99.920233694398974,49.85049010653902],[-99.920705918971763,49.850478210479586],[-99.921032769130747,49.850475613958977],[-99.921241567817148,49.850482949247365],[-99.921471485829485,49.850503608002192],[-99.921785453876709,49.850555078656882],[-99.921994595182099,49.850580398830175],[-99.92209925146993,49.850597555335526],[-99.922602441565843,49.850723971527138],[-99.922804715335104,49.850753842140449],[-99.923083400984908,49.850778606705092],[-99.923502543893974,49.850874207556032],[-99.923656395724649,49.850917954165297],[-99.923908551308173,49.851010386759754],[-99.924077084262024,49.851094490969885],[-99.924273263693451,49.851169380019236],[-99.924505073339077,49.851288956989777],[-99.92465935635245,49.851355185037029],[-99.924849698909497,49.851488583806329],[-99.924920444342362,49.851550980728092],[-99.925013512284096,49.851689652578379],[-99.925050344379812,49.851797292445326],[-99.925073267731534,49.851905043295375],[-99.925081765494596,49.852350202312849],[-99.925106405988984,49.852547884252687],[-99.925102368482172,49.853065099099176],[-99.925125720523965,49.853559609118925],[-99.925131214636025,49.853847388602993],[-99.925136622989029,49.854130671518156],[-99.925130870073204,49.854193678779097],[-99.925162895873612,49.854413787903312],[-99.925268935243182,49.854867162687526],[-99.92539395223875,49.855221446605114],[-99.925509525407307,49.855445385860158],[-99.925588349120105,49.855566181948788],[-99.925902187220913,49.855972924341749],[-99.925951989558172,49.85603099064209],[-99.926192844627309,49.85625842565846],[-99.926249258865781,49.856298450051106],[-99.926397894753947,49.856432179458139],[-99.926538372553892,49.856503012551094],[-99.92674153286714,49.856577841616918],[-99.926867241166107,49.856603820007628],[-99.926971568056715,49.856602985812607],[-99.927027037002105,49.856593547770665],[-99.92708224781893,49.856570620053155],[-99.927391699614788,49.856383758081876],[-99.927487435545785,49.856297544626464],[-99.927625537853871,49.856116336007496],[-99.927697791458741,49.856021529869579],[-99.927778755096099,49.855890461998705],[-99.927818849294979,49.855804693569738],[-99.927940681068989,49.855628326086027],[-99.928190435566648,49.855230569552297],[-99.928339825728671,49.85504048924421],[-99.928407048567024,49.854918525423422],[-99.928454612684391,49.854859680366296],[-99.928738529868852,49.85443016827783],[-99.928989737234403,49.854108851353423],[-99.929221629198651,49.853868639018572],[-99.929329627903556,49.85369687811955],[-99.92939779507897,49.853624375761619],[-99.929582897785991,49.853483477093725],[-99.929685147457761,49.853374723320343],[-99.929862948609212,49.853215893789752],[-99.929993533336187,49.853133895888547],[-99.930137595299755,49.853029303493102],[-99.930550468001329,49.852796630596337],[-99.930743814205087,49.852723122487482],[-99.931074090982079,49.85253608326525],[-99.931419484171315,49.852411883017034],[-99.93171010412145,49.85233309440676],[-99.932159033051988,49.852167584546571],[-99.93245643174086,49.852079745060131],[-99.932733398714547,49.852014555421853],[-99.93283745588549,49.852000226366179],[-99.933107640598081,49.851944084894107],[-99.93338443268965,49.851869900617146],[-99.93358524502041,49.851823311077716],[-99.93382787012608,49.85178088160351],[-99.93427095916185,49.851673874724121],[-99.934811928073159,49.851593060310741],[-99.934950235144314,49.851551469687045],[-99.935261793989952,49.851477000493169],[-99.935441566156825,49.851421582994014],[-99.93555935633664,49.851398146178532],[-99.935801282905047,49.851319740250148],[-99.936264878794375,49.851194571193773],[-99.936492894549957,49.851116276169158],[-99.936569131367776,49.851102168506984],[-99.936755854936266,49.85104669279503],[-99.936908241220394,49.851013980535157],[-99.937177198233741,49.850894878047157],[-99.937349402946623,49.850808038043738],[-99.937536124475926,49.850752561083809],[-99.937743795352318,49.850701411594919],[-99.93833325300713,49.85061119393729],[-99.93851406333161,49.850609730182519],[-99.938840062766317,49.850581160118395],[-99.938909845342479,49.850575044420253],[-99.939090506681609,49.850573580972615],[-99.939053950030413,49.842180098168114],[-99.9390657005641,49.835891273712676],[-99.934068874695498,49.835880261783487],[-99.933957985650494,49.835882613289471],[-99.933847155192183,49.835878309872719],[-99.933736782351261,49.835867367027134],[-99.933627264510804,49.835849824151005],[-99.933518995975547,49.835825744405184],[-99.933412366552332,49.835795214485664],[-99.933307760146519,49.835758344311458],[-99.933205553379892,49.835715266628846],[-99.933106114234647,49.835666136533412],[-99.933009800728513,49.835611130911708],[-99.932916959625771,49.835550447804309],[-99.932827925188732,49.83548430569288],[-99.932743017974332,49.835412942713496],[-99.931534846593607,49.834121105527913],[-99.931431710671532,49.834013637333257],[-99.93132423046076,49.83391051393351],[-99.931212588838235,49.833811910792555],[-99.931096975761591,49.833717995683067],[-99.930977587945776,49.833628928401076],[-99.930854628528508,49.833544860494065],[-99.930728306724532,49.83346593500309],[-99.930598837469688,49.833392286219436],[-99.930466441055174,49.833324039456087],[-99.930331342752737,49.83326131083453],[-99.93019377243138,49.833204207087142],[-99.921606336661114,49.829390683258048],[-99.921517968488914,49.829348528426856],[-99.921432925666196,49.829300013666668],[-99.921351665139269,49.829245399653686],[-99.921274623531644,49.829184979836192],[-99.921202214798043,49.829119078857829],[-99.921134828000135,49.829048050813242],[-99.921072825216044,49.828972277345478],[-99.92101653959493,49.828892165595363],[-99.920966273566833,49.828808146013891],[-99.920922297217757,49.82872067004935],[-99.920884846838433,49.828630207721616],[-99.920854123654664,49.828537245096705],[-99.920860367212185,49.827357252552652],[-99.916223305463831,49.827355922545493],[-99.916212979959553,49.842087298448661],[-99.905503390899312,49.84234274460777],[-99.905475284791081,49.847935825069968]]]},"properties":{"WARD_NUM":9,"WARD":"Riverview"}}]}