{"type": "FeatureCollection", "features": [{"type": "Feature", "properties": {"district_id": "Richmond"}, "geometry": {"type": "Polygon", "coordinates": [[[-123.28692805, 49.26173319], [-123.26803441, 49.25438133], [-123.26753487, 49.25407252], [-123.25693634, 49.24755964], [-123.25385905, 49.24573737], [-123.2399499, 49.23749707], [-123.2365229, 49.23546607], [-123.23049754, 49.23189455], [-123.23042617, 49.2318524], [-123.23035459, 49.23181042], [-123.23028278, 49.23176858], [-123.23021073, 49.23172692], [-123.23013847, 49.23168545], [-123.23006597, 49.23164412], [-123.22999326, 49.23160297], [-123.22992033, 49.23156199], [-123.22984718, 49.23152116], [-123.22977381, 49.23148052], [-123.22970021, 49.23144004], [-123.22962639, 49.23139973], [-123.22955236, 49.2313596], [-123.22947812, 49.23131965], [-123.22940365, 49.23127985], [-123.22932898, 49.23124023], [-123.22925409, 49.23120079], [-123.229179, 49.23116151], [-123.22910369, 49.23112242], [-123.22902816, 49.2310835], [-123.22895242, 49.23104475], [-123.22887648, 49.23100618], [-123.22880033, 49.23096778], [-123.22872397, 49.23092956], [-123.22864742, 49.23089152], [-123.22857064, 49.23085366], [-123.22849367, 49.23081597], [-123.22841651, 49.23077846], [-123.22833913, 49.23074113], [-123.22826155, 49.23070398], [-123.22818377, 49.23066702], [-123.2281058, 49.23063023], [-123.22802763, 49.23059363], [-123.22794925, 49.2305572], [-123.22787069, 49.23052096], [-123.22779192, 49.23048488], [-123.22771297, 49.230449], [-123.22763383, 49.23041331], [-123.22755448, 49.23037779], [-123.22747494, 49.23034246], [-123.22739522, 49.23030731], [-123.22731529, 49.23027235], [-123.22723521, 49.23023758], [-123.22715492, 49.230203], [-123.22707444, 49.23016859], [-123.22699378, 49.23013437], [-123.22691294, 49.23010035], [-123.22683192, 49.23006651], [-123.2267507, 49.23003285], [-123.22666932, 49.22999939], [-123.22658775, 49.22996611], [-123.22650598, 49.22993302], [-123.22642406, 49.22990012], [-123.22634195, 49.22986742], [-123.22625968, 49.2298349], [-123.22617723, 49.22980257], [-123.20347347, 49.22253281], [-123.20347313, 49.222529], [-123.20346572, 49.22244628], [-123.20344879, 49.22235721], [-123.20342302, 49.22226905], [-123.20338852, 49.2221822], [-123.20334543, 49.22209701], [-123.20329395, 49.22201385], [-123.20323429, 49.22193308], [-123.20316671, 49.22185504], [-123.2030915, 49.22178007], [-123.20300898, 49.22170849], [-123.20291951, 49.22164061], [-123.20282346, 49.22157671], [-123.20272124, 49.22151707], [-123.20261727, 49.22146384], [-123.20243873, 49.22137824], [-123.20242992, 49.22137272], [-123.20232771, 49.22131308], [-123.20221977, 49.22125795], [-123.20210657, 49.22120758], [-123.20204139, 49.22118165], [-123.2019402, 49.22114303], [-123.20188741, 49.22112356], [-123.20176517, 49.22108331], [-123.20163917, 49.2210484], [-123.20150997, 49.22101897], [-123.20137811, 49.22099515], [-123.20124415, 49.22097704], [-123.20110868, 49.22096471], [-123.2010552, 49.22096147], [-123.20098675, 49.22094666], [-123.20085489, 49.22092283], [-123.20079817, 49.22091443], [-123.20074308, 49.22090264], [-123.20062347, 49.22088078], [-123.20030764, 49.22082965], [-123.20021381, 49.22081634], [-123.19987148, 49.22077314], [-123.19984934, 49.22076087], [-123.19974141, 49.22070575], [-123.19962821, 49.22065537], [-123.19951024, 49.22060996], [-123.199388, 49.22056971], [-123.19926201, 49.2205348], [-123.1991328, 49.22050536], [-123.19900095, 49.22048154], [-123.19898368, 49.22047886], [-123.19888324, 49.22045712], [-123.19884891, 49.2204499], [-123.19874961, 49.2204314], [-123.19863116, 49.22041138], [-123.19850075, 49.22038771], [-123.19843202, 49.22037605], [-123.1983588, 49.2203654], [-123.19815426, 49.22033819], [-123.19789302, 49.22030365], [-123.1976875, 49.22027788], [-123.1976509, 49.22027352], [-123.19761635, 49.22026981], [-123.19745464, 49.22025337], [-123.1972506, 49.22022404], [-123.19715812, 49.22021218], [-123.19712345, 49.22020846], [-123.19689786, 49.22018552], [-123.19682516, 49.22017898], [-123.1966549, 49.22016567], [-123.19651349, 49.22014792], [-123.19647543, 49.22014338], [-123.19633996, 49.22013105], [-123.1962965, 49.22012834], [-123.19619886, 49.22012294], [-123.19609513, 49.22011463], [-123.19606099, 49.22011208], [-123.19603094, 49.22011014], [-123.19593663, 49.22010452], [-123.19575079, 49.22008201], [-123.19550914, 49.220052], [-123.19510734, 49.21998539], [-123.1949734, 49.21996728], [-123.19488917, 49.21995891], [-123.19454171, 49.21992915], [-123.19449047, 49.21992519], [-123.19435407, 49.2199187], [-123.19421731, 49.21991808], [-123.19406589, 49.21992086], [-123.19393388, 49.21992603], [-123.19379817, 49.21993713], [-123.19368934, 49.21995036], [-123.19359576, 49.21996343], [-123.19343626, 49.21995056], [-123.19332352, 49.21993149], [-123.19330221, 49.21992766], [-123.19328737, 49.21992315], [-123.19316138, 49.21988823], [-123.19311963, 49.21987803], [-123.19286995, 49.21981903], [-123.19278251, 49.21979979], [-123.19265066, 49.21977596], [-123.19251671, 49.21975783], [-123.19238125, 49.2197455], [-123.19227939, 49.2197401], [-123.19218037, 49.21973644], [-123.1920464, 49.21972351], [-123.1919616, 49.21971648], [-123.19182519, 49.21970999], [-123.19173698, 49.21970892], [-123.19152156, 49.21970928], [-123.19147301, 49.21970973], [-123.19136139, 49.21964716], [-123.1913925, 49.21866158], [-123.19120694, 49.21859227], [-123.19102085, 49.21852356], [-123.19083426, 49.21845546], [-123.19064715, 49.21838796], [-123.19045953, 49.21832108], [-123.19027142, 49.2182548], [-123.1900828, 49.21818914], [-123.18989369, 49.21812409], [-123.1897041, 49.21805966], [-123.18951402, 49.21799584], [-123.18932346, 49.21793265], [-123.18913243, 49.21787007], [-123.18894093, 49.21780811], [-123.18874896, 49.21774678], [-123.18855653, 49.21768607], [-123.18836365, 49.21762599], [-123.18817032, 49.21756654], [-123.18797654, 49.21750771], [-123.18778232, 49.21744952], [-123.18758766, 49.21739196], [-123.18739257, 49.21733503], [-123.18719706, 49.21727873], [-123.18700112, 49.21722307], [-123.18680477, 49.21716805], [-123.186608, 49.21711367], [-123.18641083, 49.21705993], [-123.18621325, 49.21700683], [-123.18601528, 49.21695437], [-123.18581691, 49.21690256], [-123.18561815, 49.21685139], [-123.18541901, 49.21680087], [-123.18521949, 49.216751], [-123.1850196, 49.21670177], [-123.18481934, 49.2166532], [-123.18461872, 49.21660527], [-123.18441774, 49.216558], [-123.1842164, 49.21651139], [-123.18401471, 49.21646542], [-123.18381268, 49.21642012], [-123.18361031, 49.21637547], [-123.18340761, 49.21633148], [-123.18320458, 49.21628815], [-123.18300122, 49.21624548], [-123.18279755, 49.21620347], [-123.18259356, 49.21616213], [-123.18238926, 49.21612144], [-123.18218465, 49.21608143], [-123.18197975, 49.21604207], [-123.18177455, 49.21600339], [-123.18156907, 49.21596537], [-123.1813633, 49.21592802], [-123.18115725, 49.21589134], [-123.18095092, 49.21585532], [-123.18074433, 49.21581998], [-123.18053748, 49.21578532], [-123.18033036, 49.21575132], [-123.18012299, 49.215718], [-123.17991537, 49.21568535], [-123.17970751, 49.21565338], [-123.17949941, 49.21562208], [-123.17929108, 49.21559146], [-123.17908252, 49.21556152], [-123.17887374, 49.21553226], [-123.17866473, 49.21550367], [-123.17845552, 49.21547576], [-123.1782461, 49.21544854], [-123.17803647, 49.215422], [-123.17782665, 49.21539613], [-123.17761663, 49.21537095], [-123.17740643, 49.21534646], [-123.17719604, 49.21532264], [-123.17698548, 49.21529951], [-123.17677475, 49.21527707], [-123.17656384, 49.21525531], [-123.17636053, 49.21524495], [-123.1761573, 49.2152339], [-123.17595417, 49.21522215], [-123.17575113, 49.2152097], [-123.17554819, 49.21519656], [-123.17534536, 49.21518273], [-123.17514264, 49.2151682], [-123.17494004, 49.21515297], [-123.17473756, 49.21513705], [-123.17453521, 49.21512044], [-123.174333, 49.21510313], [-123.17413093, 49.21508514], [-123.173929, 49.21506644], [-123.17372723, 49.21504706], [-123.17352561, 49.21502699], [-123.17332416, 49.21500622], [-123.17312287, 49.21498477], [-123.17292176, 49.21496263], [-123.17272083, 49.2149398], [-123.17252008, 49.21491628], [-123.17231952, 49.21489207], [-123.17211915, 49.21486717], [-123.17191899, 49.21484159], [-123.17171903, 49.21481533], [-123.17151928, 49.21478837], [-123.17131976, 49.21476074], [-123.17112045, 49.21473242], [-123.17092137, 49.21470342], [-123.17072253, 49.21467374], [-123.17052392, 49.21464337], [-123.17032556, 49.21461233], [-123.17012745, 49.21458061], [-123.16992959, 49.2145482], [-123.169732, 49.21451513], [-123.16953467, 49.21448137], [-123.16933761, 49.21444694], [-123.16914083, 49.21441183], [-123.16894432, 49.21437605], [-123.16874811, 49.2143396], [-123.16855219, 49.21430247], [-123.16835657, 49.21426468], [-123.16816125, 49.21422621], [-123.16796624, 49.21418708], [-123.16777155, 49.21414728], [-123.16757717, 49.21410681], [-123.16738312, 49.21406568], [-123.1671894, 49.21402388], [-123.16699601, 49.21398142], [-123.16680296, 49.21393829], [-123.16661026, 49.21389451], [-123.16641791, 49.21385007], [-123.16622592, 49.21380496], [-123.16603429, 49.2137592], [-123.16584302, 49.21371279], [-123.16565213, 49.21366572], [-123.16546161, 49.21361799], [-123.16527148, 49.21356962], [-123.16508173, 49.21352059], [-123.16489238, 49.21347091], [-123.16470342, 49.21342059], [-123.16451487, 49.21336962], [-123.16432673, 49.213318], [-123.164139, 49.21326574], [-123.16395168, 49.21321284], [-123.16376479, 49.21315929], [-123.16358375, 49.21307837], [-123.16340333, 49.21299687], [-123.16322351, 49.21291478], [-123.16304432, 49.2128321], [-123.16286742, 49.21274963], [-123.1626898, 49.21266596], [-123.16251051, 49.21258061], [-123.16233385, 49.21249563], [-123.16215782, 49.21241008], [-123.16198244, 49.21232396], [-123.16180771, 49.21223727], [-123.16163753, 49.21215197], [-123.16146442, 49.21206433], [-123.16146023, 49.21206219], [-123.16129197, 49.21197613], [-123.16128748, 49.21197381], [-123.16112019, 49.21188737], [-123.16111539, 49.21188488], [-123.16094908, 49.21179806], [-123.16094398, 49.21179538], [-123.16077864, 49.21170819], [-123.16077324, 49.21170533], [-123.16060888, 49.21161777], [-123.16060319, 49.21161473], [-123.1604398, 49.21152681], [-123.16043381, 49.21152357], [-123.1602714, 49.2114353], [-123.16026513, 49.21143187], [-123.1601037, 49.21134325], [-123.16009714, 49.21133962], [-123.15993669, 49.21125065], [-123.15992984, 49.21124684], [-123.15977037, 49.21115751], [-123.15976325, 49.2111535], [-123.15960476, 49.21106384], [-123.15959736, 49.21105963], [-123.15943985, 49.21096963], [-123.15943218, 49.21096522], [-123.15927566, 49.21087489], [-123.15926771, 49.21087028], [-123.15911218, 49.21077962], [-123.15910395, 49.21077481], [-123.15894941, 49.21068383], [-123.15894092, 49.2106788], [-123.15878737, 49.2105875], [-123.15877861, 49.21058227], [-123.15862605, 49.21049066], [-123.15861704, 49.21048522], [-123.15846546, 49.21039329], [-123.15845619, 49.21038764], [-123.15830561, 49.2102954], [-123.15829608, 49.21028954], [-123.15814649, 49.210197], [-123.15813671, 49.21019092], [-123.15798811, 49.21009808], [-123.15797809, 49.21009179], [-123.15783048, 49.20999865], [-123.15782021, 49.20999214], [-123.1576736, 49.20989872], [-123.15766309, 49.20989198], [-123.15751747, 49.20979828], [-123.15750672, 49.20979132], [-123.1573621, 49.20969733], [-123.15735111, 49.20969015], [-123.15720749, 49.20959588], [-123.15719626, 49.20958847], [-123.15705364, 49.20949393], [-123.15704218, 49.2094863], [-123.15690056, 49.20939149], [-123.15688887, 49.20938362], [-123.15674825, 49.20928855], [-123.15673634, 49.20928046], [-123.15659672, 49.20918512], [-123.15658459, 49.20917679], [-123.15644596, 49.2090812], [-123.15643361, 49.20907264], [-123.15629599, 49.20897679], [-123.15628343, 49.208968], [-123.15614681, 49.2088719], [-123.15613403, 49.20886287], [-123.15599841, 49.20876653], [-123.15598543, 49.20875726], [-123.15585081, 49.20866068], [-123.15583762, 49.20865117], [-123.155704, 49.20855435], [-123.15569061, 49.2085446], [-123.155558, 49.20844755], [-123.15554441, 49.20843756], [-123.15541279, 49.20834028], [-123.15539901, 49.20833004], [-123.1552684, 49.20823254], [-123.15525442, 49.20822205], [-123.15512482, 49.20812433], [-123.15511065, 49.2081136], [-123.15498205, 49.20801566], [-123.1549677, 49.20800468], [-123.1548401, 49.20790653], [-123.15482557, 49.20789529], [-123.15469897, 49.20779694], [-123.15468426, 49.20778545], [-123.15455867, 49.20768689], [-123.15454379, 49.20767516], [-123.15441919, 49.2075764], [-123.15440414, 49.2075644], [-123.15428055, 49.20746545], [-123.15426533, 49.2074532], [-123.15414274, 49.20735405], [-123.15412735, 49.20734155], [-123.15400577, 49.20724221], [-123.15399022, 49.20722945], [-123.15386964, 49.20712993], [-123.15385394, 49.20711691], [-123.15373436, 49.20701721], [-123.1537185, 49.20700392], [-123.15359992, 49.20690405], [-123.15358392, 49.2068905], [-123.15346634, 49.20679046], [-123.15345019, 49.20677665], [-123.15333361, 49.20667644], [-123.15331732, 49.20666236], [-123.15320174, 49.20656199], [-123.15318531, 49.20654764], [-123.15307033, 49.20644673], [-123.15302681, 49.20640504], [-123.15298202, 49.20636335], [-123.15293636, 49.20632208], [-123.15288984, 49.20628122], [-123.15284247, 49.20624078], [-123.15279435, 49.20620087], [-123.15274593, 49.20616182], [-123.1526981, 49.20612429], [-123.15269529, 49.20612212], [-123.15264875, 49.20608661], [-123.15264458, 49.20608347], [-123.15259864, 49.20604936], [-123.15259307, 49.20604528], [-123.15254777, 49.20601255], [-123.15254076, 49.20600756], [-123.15249615, 49.2059762], [-123.15248766, 49.20597032], [-123.15244378, 49.20594031], [-123.15243378, 49.20593356], [-123.15239069, 49.20590489], [-123.15237914, 49.2058973], [-123.15233688, 49.20586993], [-123.15232373, 49.20586153], [-123.15228236, 49.20583546], [-123.15226759, 49.20582627], [-123.15222714, 49.20580147], [-123.1522107, 49.20579152], [-123.15217122, 49.20576797], [-123.15215309, 49.2057573], [-123.15211463, 49.20573496], [-123.15209477, 49.20572359], [-123.15205736, 49.20570246], [-123.15203574, 49.20569042], [-123.15199943, 49.20567047], [-123.15197603, 49.20565778], [-123.15194086, 49.20563899], [-123.15191563, 49.20562569], [-123.15188164, 49.20560803], [-123.15185456, 49.20559415], [-123.1518218, 49.2055776], [-123.15179284, 49.20556317], [-123.15176134, 49.20554769], [-123.15173047, 49.20553275], [-123.15170027, 49.20551833], [-123.15166747, 49.20550289], [-123.1516386, 49.2054895], [-123.15160384, 49.20547361], [-123.15157635, 49.20546123], [-123.15153961, 49.20544491], [-123.15151353, 49.2054335], [-123.15147478, 49.2054168], [-123.15144952, 49.20540607], [-123.15140936, 49.20538927], [-123.15138494, 49.20537921], [-123.15134337, 49.20536234], [-123.15131982, 49.20535293], [-123.15127683, 49.20533601], [-123.15125415, 49.20532723], [-123.15120973, 49.20531029], [-123.15118797, 49.20530212], [-123.1511421, 49.20528517], [-123.15112126, 49.2052776], [-123.15107395, 49.20526067], [-123.15105406, 49.20525368], [-123.15100529, 49.2052368], [-123.15098637, 49.20523036], [-123.15093614, 49.20521354], [-123.15091821, 49.20520764], [-123.1508665, 49.20519092], [-123.15084957, 49.20518554], [-123.15079639, 49.20516893], [-123.15078049, 49.20516405], [-123.15072583, 49.20514757], [-123.15071097, 49.20514317], [-123.15065483, 49.20512686], [-123.15064103, 49.20512292], [-123.15058339, 49.20510679], [-123.15057067, 49.2051033], [-123.15051154, 49.20508737], [-123.15049991, 49.2050843], [-123.15043929, 49.20506861], [-123.15042877, 49.20506594], [-123.15036666, 49.2050505], [-123.15035725, 49.20504821], [-123.15029365, 49.20503305], [-123.15028538, 49.20503112], [-123.15022027, 49.20501627], [-123.15021315, 49.20501468], [-123.15014656, 49.20500015], [-123.1501406, 49.20499888], [-123.15007251, 49.2049847], [-123.15006772, 49.20498372], [-123.14999634, 49.20496957], [-123.14992227, 49.2049556], [-123.14984851, 49.2049424], [-123.14977328, 49.20492965], [-123.14964746, 49.2049113], [-123.14952187, 49.20489226], [-123.14939653, 49.20487254], [-123.14927144, 49.20485214], [-123.14914661, 49.20483107], [-123.14902205, 49.20480932], [-123.14889776, 49.2047869], [-123.14877376, 49.2047638], [-123.14865006, 49.20474003], [-123.14852666, 49.2047156], [-123.14840357, 49.20469049], [-123.14828081, 49.20466472], [-123.14815837, 49.20463828], [-123.14803626, 49.20461118], [-123.1479145, 49.20458343], [-123.1477931, 49.20455501], [-123.14767206, 49.20452593], [-123.14755138, 49.2044962], [-123.14743109, 49.20446582], [-123.14731118, 49.20443479], [-123.14719166, 49.2044031], [-123.14707255, 49.20437077], [-123.14695384, 49.2043378], [-123.14683556, 49.20430418], [-123.1467177, 49.20426993], [-123.14660028, 49.20423504], [-123.1464833, 49.20419951], [-123.14636677, 49.20416335], [-123.1462507, 49.20412656], [-123.1461351, 49.20408914], [-123.14601997, 49.20405109], [-123.14590532, 49.20401243], [-123.14579116, 49.20397314], [-123.1456775, 49.20393324], [-123.14556435, 49.20389272], [-123.14545171, 49.20385159], [-123.14533959, 49.20380985], [-123.145228, 49.2037675], [-123.14511695, 49.20372455], [-123.14500643, 49.203681], [-123.14489648, 49.20363686], [-123.14478708, 49.20359212], [-123.14467824, 49.20354678], [-123.14456998, 49.20350086], [-123.1444623, 49.20345436], [-123.14431802, 49.20338135], [-123.14417436, 49.20330782], [-123.14403134, 49.20323376], [-123.14388895, 49.20315917], [-123.1437472, 49.20308406], [-123.14360609, 49.20300843], [-123.14346564, 49.20293228], [-123.14332583, 49.20285561], [-123.14318669, 49.20277843], [-123.14304821, 49.20270074], [-123.14291039, 49.20262253], [-123.14277324, 49.20254383], [-123.14263677, 49.20246461], [-123.14250098, 49.2023849], [-123.14236587, 49.20230469], [-123.14223145, 49.20222398], [-123.14209772, 49.20214277], [-123.14196469, 49.20206108], [-123.14183236, 49.20197889], [-123.14170074, 49.20189622], [-123.14156982, 49.20181307], [-123.14143961, 49.20172944], [-123.14131013, 49.20164532], [-123.14118136, 49.20156073], [-123.14105332, 49.20147567], [-123.14092601, 49.20139014], [-123.14079943, 49.20130414], [-123.14067359, 49.20121767], [-123.14054849, 49.20113074], [-123.14042413, 49.20104336], [-123.14030053, 49.20095551], [-123.14017767, 49.20086721], [-123.14005558, 49.20077846], [-123.13993424, 49.20068926], [-123.13981367, 49.20059962], [-123.13969387, 49.20050953], [-123.13957484, 49.20041901], [-123.13945658, 49.20032804], [-123.13937798, 49.20028615], [-123.13929904, 49.20024494], [-123.1392184, 49.20020372], [-123.13913773, 49.20016335], [-123.13905643, 49.20012353], [-123.13897452, 49.20008426], [-123.13889418, 49.20004655], [-123.13881013, 49.20000794], [-123.13872659, 49.1999704], [-123.13864247, 49.19993342], [-123.13855954, 49.19989776], [-123.13855601, 49.19989626], [-123.13847445, 49.19986197], [-123.13847058, 49.19986036], [-123.13838882, 49.19982675], [-123.1383846, 49.19982503], [-123.13830264, 49.19979211], [-123.13829807, 49.19979029], [-123.13821593, 49.19975804], [-123.13821101, 49.19975613], [-123.1381287, 49.19972456], [-123.13812341, 49.19972256], [-123.13804095, 49.19969167], [-123.1380353, 49.19968957], [-123.1379527, 49.19965936], [-123.13794668, 49.19965718], [-123.13786394, 49.19962765], [-123.13785756, 49.19962539], [-123.1377747, 49.19959653], [-123.13776794, 49.1995942], [-123.13768499, 49.19956601], [-123.13767785, 49.19956361], [-123.1375948, 49.19953609], [-123.13758728, 49.19953363], [-123.13750415, 49.19950678], [-123.13749626, 49.19950426], [-123.13741306, 49.19947807], [-123.13740478, 49.1994755], [-123.13732152, 49.19944998], [-123.13731285, 49.19944736], [-123.13722955, 49.1994225], [-123.13722049, 49.19941984], [-123.13713716, 49.19939564], [-123.13712771, 49.19939294], [-123.13704435, 49.1993694], [-123.13703452, 49.19936666], [-123.13695115, 49.19934378], [-123.13694092, 49.19934102], [-123.13685755, 49.19931879], [-123.13684692, 49.199316], [-123.13676357, 49.19929443], [-123.13675254, 49.19929161], [-123.13667266, 49.19927155], [-123.13665778, 49.19926787], [-123.13658142, 49.19924926], [-123.13656266, 49.19924476], [-123.13648985, 49.19922756], [-123.13646718, 49.19922229], [-123.13639796, 49.19920646], [-123.13637136, 49.19920047], [-123.13630576, 49.19918594], [-123.1362752, 49.19917929], [-123.13621325, 49.19916602], [-123.13617872, 49.19915875], [-123.13612046, 49.1991467], [-123.13608192, 49.19913887], [-123.13602738, 49.19912798], [-123.13598482, 49.19911963], [-123.13593402, 49.19910985], [-123.13588743, 49.19910105], [-123.1358404, 49.19909233], [-123.13578975, 49.19908312], [-123.13574652, 49.19907542], [-123.1356918, 49.19906585], [-123.13565239, 49.19905911], [-123.13559358, 49.19904924], [-123.13555802, 49.1990434], [-123.13549511, 49.19903329], [-123.13546342, 49.19902831], [-123.13539639, 49.199018], [-123.1353686, 49.19901383], [-123.13529745, 49.19900338], [-123.13527357, 49.19899996], [-123.13519828, 49.19898942], [-123.13517834, 49.1989867], [-123.1350989, 49.19897612], [-123.13508291, 49.19897405], [-123.13499931, 49.1989635], [-123.1349873, 49.19896202], [-123.13489954, 49.19895154], [-123.13489152, 49.19895061], [-123.13479958, 49.19894026], [-123.13479556, 49.19893982], [-123.13469945, 49.19892964], [-123.1345424, 49.19891618], [-123.13438522, 49.19890338], [-123.13422792, 49.19889125], [-123.1340705, 49.19887978], [-123.13391297, 49.19886898], [-123.13375534, 49.19885885], [-123.13359761, 49.19884938], [-123.13343979, 49.19884057], [-123.13328189, 49.19883243], [-123.13312392, 49.19882496], [-123.13296587, 49.19881816], [-123.13280776, 49.19881203], [-123.1326496, 49.19880656], [-123.13249138, 49.19880176], [-123.13233312, 49.19879763], [-123.13217482, 49.19879417], [-123.13201649, 49.19879138], [-123.13185814, 49.19878925], [-123.13169977, 49.1987878], [-123.13154139, 49.19878701], [-123.13138301, 49.19878689], [-123.13122463, 49.19878745], [-123.13106625, 49.19878867], [-123.13090789, 49.19879056], [-123.13074956, 49.19879312], [-123.13059125, 49.19879635], [-123.13043297, 49.19880024], [-123.13027474, 49.19880481], [-123.13011656, 49.19881004], [-123.12995843, 49.19881594], [-123.12980036, 49.19882251], [-123.12967291, 49.198835], [-123.12954563, 49.19884818], [-123.12941852, 49.19886206], [-123.12929159, 49.19887664], [-123.12916485, 49.19889192], [-123.1290383, 49.19890789], [-123.12891197, 49.19892455], [-123.12878585, 49.19894191], [-123.12865996, 49.19895996], [-123.1285343, 49.19897869], [-123.12840889, 49.19899812], [-123.12828372, 49.19901824], [-123.12815882, 49.19903904], [-123.12803418, 49.19906052], [-123.12790983, 49.19908269], [-123.12778576, 49.19910554], [-123.12766198, 49.19912907], [-123.12753851, 49.19915328], [-123.12741535, 49.19917816], [-123.12729251, 49.19920372], [-123.12717, 49.19922995], [-123.12704783, 49.19925685], [-123.126926, 49.19928443], [-123.12680453, 49.19931267], [-123.12668343, 49.19934158], [-123.12656269, 49.19937114], [-123.12644234, 49.19940138], [-123.12632237, 49.19943227], [-123.12620281, 49.19946381], [-123.12608364, 49.19949601], [-123.12596489, 49.19952887], [-123.12584657, 49.19956238], [-123.12572867, 49.19959653], [-123.12561121, 49.19963133], [-123.1254942, 49.19966677], [-123.12537765, 49.19970285], [-123.12526156, 49.19973958], [-123.12514594, 49.19977693], [-123.12503079, 49.19981492], [-123.12491614, 49.19985354], [-123.12480198, 49.19989279], [-123.12468833, 49.19993267], [-123.12457518, 49.19997316], [-123.12446256, 49.20001428], [-123.12435046, 49.20005601], [-123.1242389, 49.20009835], [-123.12412788, 49.20014131], [-123.12401741, 49.20018487], [-123.1239075, 49.20022904], [-123.12379815, 49.20027381], [-123.12368938, 49.20031918], [-123.12358118, 49.20036514], [-123.12347358, 49.2004117], [-123.12336657, 49.20045884], [-123.12326017, 49.20050657], [-123.12315438, 49.20055488], [-123.12304921, 49.20060377], [-123.12294466, 49.20065324], [-123.12284074, 49.20070327], [-123.12273747, 49.20075388], [-123.12263484, 49.20080505], [-123.12253287, 49.20085678], [-123.12243156, 49.20090907], [-123.12233092, 49.20096192], [-123.12223095, 49.20101531], [-123.12213167, 49.20106925], [-123.12203307, 49.20112374], [-123.12193518, 49.20117876], [-123.12183798, 49.20123432], [-123.1217415, 49.20129041], [-123.12164574, 49.20134702], [-123.12155069, 49.20140416], [-123.12158574, 49.20238073], [-123.12146407, 49.20234009], [-123.12135641, 49.20232122], [-123.12123636, 49.20231592], [-123.12103774, 49.20233511], [-123.12090512, 49.20233784], [-123.1208816, 49.20234427], [-123.1208706, 49.20234743], [-123.12082136, 49.20236305], [-123.12077379, 49.20238076], [-123.12072808, 49.20240047], [-123.12068443, 49.2024221], [-123.12064304, 49.20244556], [-123.12060406, 49.20247074], [-123.12056768, 49.20249755], [-123.12053405, 49.20252586], [-123.12050331, 49.20255555], [-123.12047559, 49.2025865], [-123.12045101, 49.20261858], [-123.12042968, 49.20265164], [-123.12042314, 49.20266317], [-123.12041833, 49.20266476], [-123.12036283, 49.20265963], [-123.12030829, 49.202657], [-123.12025361, 49.20265671], [-123.12019901, 49.20265878], [-123.12014474, 49.20266318], [-123.12009102, 49.2026699], [-123.12003809, 49.20267892], [-123.11998617, 49.20269019], [-123.11993548, 49.20270367], [-123.11988625, 49.20271929], [-123.11986299, 49.20272761], [-123.11971552, 49.20278236], [-123.11969121, 49.20279174], [-123.1196455, 49.20281145], [-123.11960185, 49.20283308], [-123.11956045, 49.20285654], [-123.11952148, 49.20288173], [-123.11948509, 49.20290853], [-123.11945146, 49.20293684], [-123.11942072, 49.20296654], [-123.119393, 49.20299749], [-123.11936679, 49.20303189], [-123.11881314, 49.20322524], [-123.11876995, 49.20324142], [-123.11872424, 49.20326113], [-123.11868059, 49.20328276], [-123.11863919, 49.20330622], [-123.11860022, 49.20333141], [-123.11856383, 49.20335821], [-123.1185302, 49.20338652], [-123.11850815, 49.20340738], [-123.11846817, 49.2034273], [-123.11842677, 49.20345076], [-123.11838529, 49.20347768], [-123.11823099, 49.20349907], [-123.11807074, 49.20348874], [-123.11790673, 49.20348987], [-123.1178738, 49.20351433], [-123.11711998, 49.20386468], [-123.11563786, 49.20433753], [-123.11397988, 49.20466794], [-123.11310139, 49.20476336], [-123.11205405, 49.20479185], [-123.1089342, 49.20447994], [-123.10625668, 49.20430191], [-123.10310058, 49.20429764], [-123.10207809, 49.20427835], [-123.10115479, 49.20428482], [-123.09785702, 49.20437999], [-123.09437628, 49.20462441], [-123.09243833, 49.20491035], [-123.09065086, 49.2053131], [-123.08710922, 49.20612775], [-123.08319738, 49.20691107], [-123.08086428, 49.20729703], [-123.07642685, 49.20818219], [-123.07576647, 49.20825651], [-123.07464049, 49.20828746], [-123.07338978, 49.20814586], [-123.07190074, 49.2077955], [-123.06874691, 49.20668219], [-123.06787226, 49.20630578], [-123.06751627, 49.20610548], [-123.06748033, 49.20603209], [-123.06745481, 49.20600193], [-123.06740447, 49.20598791], [-123.06735481, 49.20597648], [-123.06732513, 49.20597033], [-123.06729513, 49.20595706], [-123.06724418, 49.20593558], [-123.06719706, 49.20591736], [-123.06714822, 49.2059012], [-123.06710536, 49.2058891], [-123.0670475, 49.20587403], [-123.06699587, 49.20586219], [-123.06694317, 49.20585259], [-123.06688963, 49.20584528], [-123.06683547, 49.20584029], [-123.06678093, 49.20583763], [-123.06674629, 49.20583716], [-123.0666907, 49.20583726], [-123.06667422, 49.20582208], [-123.06664431, 49.20579619], [-123.06660861, 49.20576899], [-123.06657028, 49.20574338], [-123.06652948, 49.20571948], [-123.06648638, 49.20569737], [-123.06645535, 49.20568319], [-123.06640761, 49.20566256], [-123.06636049, 49.20564433], [-123.06631165, 49.20562817], [-123.06626131, 49.20561415], [-123.0662083, 49.2056013], [-123.06617025, 49.20559282], [-123.06611756, 49.20558323], [-123.06606401, 49.20557591], [-123.06600986, 49.20557092], [-123.06595532, 49.20556826], [-123.0659299, 49.20556811], [-123.06592062, 49.20556779], [-123.06586815, 49.20556779], [-123.06584119, 49.20556415], [-123.06582215, 49.20555598], [-123.06577503, 49.20553776], [-123.06572619, 49.2055216], [-123.06567585, 49.20550757], [-123.06562422, 49.20549573], [-123.06557073, 49.20548502], [-123.06552407, 49.20547665], [-123.06547053, 49.20546934], [-123.06541638, 49.20546434], [-123.06536411, 49.20546174], [-123.06531147, 49.20546022], [-123.06525678, 49.2054599], [-123.06523649, 49.20546039], [-123.06514451, 49.2054633], [-123.0651102, 49.20546486], [-123.06506645, 49.2054682], [-123.06501254, 49.20547205], [-123.06497534, 49.20546905], [-123.0649632, 49.20546021], [-123.06493724, 49.2054425], [-123.06488687, 49.20540965], [-123.06487451, 49.20540175], [-123.06484101, 49.2053819], [-123.0647994, 49.20535854], [-123.0647921, 49.20535449], [-123.064749, 49.20533238], [-123.06468953, 49.20530482], [-123.06465635, 49.20529027], [-123.06460923, 49.20527204], [-123.0645604, 49.20525588], [-123.06454427, 49.20525111], [-123.06449098, 49.20523578], [-123.06445676, 49.20522652], [-123.06440513, 49.20521468], [-123.06435243, 49.20520509], [-123.06429889, 49.20519777], [-123.06424473, 49.20519278], [-123.0641555, 49.20518964], [-123.06408616, 49.20518964], [-123.06406617, 49.2051898], [-123.06401784, 49.20519148], [-123.06401362, 49.20519019], [-123.06396328, 49.20517616], [-123.06394399, 49.2051714], [-123.06385202, 49.20514951], [-123.06382993, 49.20514448], [-123.06378318, 49.20513439], [-123.06374842, 49.20512779], [-123.06365644, 49.20511172], [-123.0636385, 49.20510873], [-123.06357415, 49.20509849], [-123.06352072, 49.2050912], [-123.0634248, 49.20508054], [-123.06340183, 49.2050782], [-123.06335438, 49.20507382], [-123.06333259, 49.20507199], [-123.0632567, 49.20506416], [-123.06321618, 49.20506065], [-123.06319309, 49.20505923], [-123.06311836, 49.20505335], [-123.06306382, 49.20505069], [-123.06302921, 49.20505022], [-123.06292627, 49.20505021], [-123.0629062, 49.20505037], [-123.0628516, 49.20505241], [-123.06279732, 49.20505678], [-123.0627771, 49.20505902], [-123.06268512, 49.20506997], [-123.06265162, 49.20507443], [-123.06259867, 49.20508342], [-123.06254673, 49.20509466], [-123.06253001, 49.2050988], [-123.0625121, 49.20510343], [-123.06246116, 49.20511602], [-123.06241719, 49.20512782], [-123.06236793, 49.20514342], [-123.06235133, 49.20514928], [-123.06228491, 49.20517337], [-123.06225391, 49.20518519], [-123.06220817, 49.20520487], [-123.0621645, 49.20522648], [-123.06214919, 49.20523478], [-123.06209006, 49.20526763], [-123.06206394, 49.20528276], [-123.06202493, 49.20530792], [-123.06199262, 49.20533169], [-123.06196344, 49.20533008], [-123.06187145, 49.20532643], [-123.06180234, 49.2053243], [-123.06171651, 49.20531957], [-123.06162954, 49.20531542], [-123.06153483, 49.20531018], [-123.06149832, 49.20530499], [-123.06142691, 49.20529138], [-123.06135231, 49.20527481], [-123.06130792, 49.20526526], [-123.06121268, 49.2052404], [-123.06116105, 49.20522856], [-123.06110835, 49.20521896], [-123.06105481, 49.20521165], [-123.06100671, 49.20520667], [-123.0609211, 49.20519553], [-123.0608234, 49.20518392], [-123.06079835, 49.20518123], [-123.06077632, 49.20517911], [-123.06067448, 49.20517026], [-123.06058249, 49.20516295], [-123.06051842, 49.20515842], [-123.06044694, 49.20515104], [-123.06042798, 49.20514923], [-123.06035421, 49.20514275], [-123.06026897, 49.20513397], [-123.06018211, 49.2051252], [-123.06014057, 49.20512171], [-123.06010811, 49.20511832], [-123.06006626, 49.20511467], [-123.06001732, 49.20511217], [-123.05991976, 49.20510909], [-123.05987418, 49.20510832], [-123.05978672, 49.20510427], [-123.05977831, 49.2051029], [-123.05972477, 49.20509559], [-123.05970007, 49.20509301], [-123.05963801, 49.20508717], [-123.05960856, 49.20508474], [-123.05953966, 49.20508177], [-123.05946695, 49.20507599], [-123.05940806, 49.20507321], [-123.05931607, 49.20507102], [-123.05928552, 49.20507065], [-123.0592635, 49.20507066], [-123.05917749, 49.205068], [-123.05912703, 49.2050509], [-123.05909105, 49.20503832], [-123.05905803, 49.20502384], [-123.05901091, 49.20500562], [-123.05896208, 49.20498945], [-123.05891174, 49.20497542], [-123.05886011, 49.20496358], [-123.05880742, 49.20495398], [-123.05879195, 49.20495154], [-123.05874001, 49.20494448], [-123.05868585, 49.20493948], [-123.05863132, 49.20493681], [-123.05857663, 49.2049365], [-123.05848452, 49.20493795], [-123.05838738, 49.20494023], [-123.05830044, 49.20494161], [-123.05826812, 49.20494253], [-123.05820579, 49.20494307], [-123.05811368, 49.20494452], [-123.05809257, 49.20494503], [-123.05806994, 49.20494576], [-123.05803658, 49.20494728], [-123.05801085, 49.20494906], [-123.05791888, 49.20495636], [-123.05789033, 49.20495896], [-123.05785695, 49.20496283], [-123.05784626, 49.20496422], [-123.05780155, 49.2049667], [-123.05774359, 49.20496808], [-123.05769933, 49.20496991], [-123.05765936, 49.20497287], [-123.05763809, 49.20497483], [-123.05758519, 49.20498018], [-123.0575557, 49.2049783], [-123.05751475, 49.20497637], [-123.05749149, 49.20497484], [-123.05744289, 49.20497258], [-123.05739804, 49.20497215], [-123.05733746, 49.20497263], [-123.05732929, 49.20496744], [-123.0573123, 49.2049571], [-123.05725682, 49.20492425], [-123.05723301, 49.20491068], [-123.05721989, 49.20490363], [-123.0571644, 49.20487443], [-123.05713443, 49.20485937], [-123.05708923, 49.20483916], [-123.05704212, 49.20482093], [-123.05701021, 49.20480954], [-123.05696263, 49.20479382], [-123.05693272, 49.20478518], [-123.05687141, 49.20476839], [-123.05685098, 49.204763], [-123.05679935, 49.20475115], [-123.05674665, 49.20474155], [-123.05670841, 49.20473609], [-123.05660781, 49.20472334], [-123.05656463, 49.20471818], [-123.05655099, 49.2047167], [-123.056459, 49.2047072], [-123.05644065, 49.20470544], [-123.05642521, 49.20470358], [-123.05637105, 49.20469858], [-123.05626708, 49.20469552], [-123.05619804, 49.20469055], [-123.0561435, 49.20468788], [-123.05609865, 49.20468745], [-123.05599684, 49.20468829], [-123.05593593, 49.20468988], [-123.05585131, 49.20469122], [-123.05582984, 49.20469174], [-123.05578532, 49.2046932], [-123.05575245, 49.2046947], [-123.05573521, 49.20469584], [-123.05571645, 49.20469519], [-123.05566177, 49.20469487], [-123.05560717, 49.2046969], [-123.05556459, 49.20470012], [-123.05552494, 49.20470109], [-123.05548519, 49.20469698], [-123.05545891, 49.20469455], [-123.05535563, 49.20468617], [-123.05528653, 49.20468319], [-123.05519456, 49.20468173], [-123.05517092, 49.20468157], [-123.05515151, 49.20468173], [-123.05509691, 49.20468376], [-123.05501017, 49.2046889], [-123.05495649, 49.20469323], [-123.05489834, 49.20469977], [-123.05487474, 49.20470168], [-123.0548292, 49.20470204], [-123.05478547, 49.20470261], [-123.05475473, 49.20470212], [-123.05472068, 49.20469774], [-123.05466652, 49.20469274], [-123.05461199, 49.20469007], [-123.0545573, 49.20468975], [-123.0545027, 49.20469178], [-123.05444842, 49.20469615], [-123.05443402, 49.20469771], [-123.05440559, 49.20469974], [-123.05420725, 49.20470131], [-123.05416656, 49.20470201], [-123.05382389, 49.204702], [-123.05372042, 49.20470279], [-123.05363938, 49.20470352], [-123.05362059, 49.20470383], [-123.05352861, 49.20470602], [-123.05342657, 49.20470921], [-123.05339238, 49.20471076], [-123.0533381, 49.20471513], [-123.05325899, 49.20472211], [-123.05324028, 49.20472389], [-123.05320554, 49.20472794], [-123.05298815, 49.20475579], [-123.05295815, 49.2047404], [-123.05294103, 49.2047324], [-123.05286876, 49.20469956], [-123.05284068, 49.20468734], [-123.05279357, 49.20466911], [-123.05274474, 49.20465294], [-123.0526944, 49.20463891], [-123.05264277, 49.20462706], [-123.05259008, 49.20461746], [-123.05253654, 49.20461014], [-123.05248239, 49.20460514], [-123.05242785, 49.20460247], [-123.05237317, 49.20460215], [-123.05231857, 49.20460418], [-123.05226429, 49.20460855], [-123.05221056, 49.20461524], [-123.05215761, 49.20462422], [-123.05210567, 49.20463546], [-123.05205496, 49.2046489], [-123.05203405, 49.20465521], [-123.05200657, 49.20465175], [-123.05195241, 49.20464675], [-123.05193906, 49.20464588], [-123.05190257, 49.20464369], [-123.05186138, 49.20464189], [-123.0518067, 49.20464157], [-123.05177611, 49.20464242], [-123.05168413, 49.20464607], [-123.05159474, 49.20464985], [-123.05157397, 49.2046509], [-123.05151969, 49.20465527], [-123.05151003, 49.20465629], [-123.05147588, 49.2046571], [-123.0514387, 49.20465853], [-123.05126792, 49.20466395], [-123.05123566, 49.20466539], [-123.0512262, 49.20466593], [-123.05118008, 49.2046674], [-123.05114839, 49.20466532], [-123.05109999, 49.20466307], [-123.05104531, 49.20466274], [-123.0510249, 49.20466323], [-123.05093292, 49.20466614], [-123.05089896, 49.20466767], [-123.05083218, 49.20466979], [-123.05079799, 49.20467134], [-123.05078738, 49.204672], [-123.05077643, 49.20467274], [-123.05073346, 49.20467637], [-123.05067476, 49.20467507], [-123.05060031, 49.20467272], [-123.05057786, 49.2046722], [-123.0505253, 49.20467147], [-123.0504876, 49.2046715], [-123.050433, 49.20467353], [-123.05037872, 49.20467789], [-123.05035392, 49.20468066], [-123.05029462, 49.20468352], [-123.05020264, 49.20468863], [-123.05016487, 49.2046913], [-123.05010377, 49.2046947], [-123.0500698, 49.20469685], [-123.05001222, 49.20468972], [-123.04995807, 49.20468471], [-123.04988897, 49.20468173], [-123.04979699, 49.20468026], [-123.04977668, 49.2046801], [-123.04969784, 49.20468011], [-123.04967803, 49.20468026], [-123.04962343, 49.20468229], [-123.04958118, 49.2046848], [-123.04954865, 49.20468571], [-123.04950955, 49.2046874], [-123.04945624, 49.20469167], [-123.04943142, 49.20469419], [-123.04938823, 49.20469413], [-123.04933363, 49.20469616], [-123.04929347, 49.20469916], [-123.04924633, 49.20469494], [-123.04919179, 49.20469227], [-123.04913711, 49.20469195], [-123.04909661, 49.20469322], [-123.04896867, 49.20469923], [-123.04894266, 49.20469712], [-123.04888812, 49.20469446], [-123.04883344, 49.20469413], [-123.0487836, 49.20469589], [-123.04872978, 49.20469559], [-123.04867518, 49.20469762], [-123.04862071, 49.20470201], [-123.04849271, 49.20470617], [-123.0484234, 49.20470566], [-123.04831993, 49.20470565], [-123.0482939, 49.20470467], [-123.04823922, 49.20470435], [-123.04821169, 49.20470508], [-123.04819901, 49.20470467], [-123.04814432, 49.20470435], [-123.04808973, 49.20470637], [-123.04806907, 49.20470776], [-123.04804536, 49.20469758], [-123.04799825, 49.20467935], [-123.04794942, 49.20466318], [-123.04789909, 49.20464914], [-123.04787192, 49.2046426], [-123.0478303, 49.20463311], [-123.04780584, 49.2046278], [-123.04775315, 49.2046182], [-123.04769961, 49.20461088], [-123.04764546, 49.20460587], [-123.04759092, 49.20460321], [-123.04753624, 49.20460288], [-123.04748164, 49.20460491], [-123.04741411, 49.20460968], [-123.04737699, 49.20461292], [-123.04732326, 49.20461961], [-123.04727031, 49.20462859], [-123.04721837, 49.20463983], [-123.04716766, 49.20465327], [-123.04713812, 49.20466197], [-123.04711127, 49.20466141], [-123.04706467, 49.20466128], [-123.04701007, 49.20466331], [-123.04695579, 49.20466767], [-123.04690206, 49.20467436], [-123.04686469, 49.20468045], [-123.04685697, 49.2046798], [-123.04675379, 49.20466685], [-123.04670464, 49.20464948], [-123.04661267, 49.20461736], [-123.04654615, 49.20459485], [-123.0465157, 49.20458508], [-123.04642335, 49.2045582], [-123.04638727, 49.2045484], [-123.04635917, 49.20454165], [-123.04627887, 49.2045234], [-123.04625534, 49.20451831], [-123.04620265, 49.20450871], [-123.04617382, 49.20450447], [-123.04608184, 49.20449205], [-123.04603266, 49.20448598], [-123.04599839, 49.20448094], [-123.04595932, 49.20447583], [-123.04595333, 49.20447516], [-123.04590004, 49.20446932], [-123.04585187, 49.20446499], [-123.04579734, 49.20446232], [-123.04574265, 49.20446199], [-123.04568805, 49.20446402], [-123.04563377, 49.20446838], [-123.04555878, 49.20447651], [-123.04551288, 49.20448237], [-123.04549193, 49.20448564], [-123.0454524, 49.20449215], [-123.04538772, 49.20449985], [-123.04536514, 49.20450275], [-123.04534482, 49.20450556], [-123.0453155, 49.20450853], [-123.04526177, 49.20451521], [-123.04521119, 49.20452266], [-123.04515918, 49.2045315], [-123.04510724, 49.20454273], [-123.04505653, 49.20455617], [-123.04503057, 49.20456406], [-123.04496852, 49.20458378], [-123.04494522, 49.20459148], [-123.04490414, 49.20460606], [-123.04484117, 49.20462406], [-123.04480985, 49.20463341], [-123.04477002, 49.20464622], [-123.04473378, 49.20465924], [-123.0446985, 49.20465429], [-123.04466723, 49.2046503], [-123.04447916, 49.2046294], [-123.04445636, 49.20462708], [-123.04442349, 49.20462404], [-123.04424554, 49.20460567], [-123.04419133, 49.20459624], [-123.04386204, 49.20454148], [-123.04384335, 49.20453852], [-123.04379006, 49.20453049], [-123.04374671, 49.20452474], [-123.04365056, 49.20451406], [-123.04360546, 49.20450928], [-123.04350757, 49.20449845], [-123.04346523, 49.20449407], [-123.04342465, 49.20449054], [-123.04339567, 49.20448883], [-123.04330369, 49.20448445], [-123.04328507, 49.2044837], [-123.04323361, 49.20448202], [-123.04317892, 49.2044817], [-123.04306499, 49.20448442], [-123.04302045, 49.20448588], [-123.04298781, 49.20448737], [-123.04293353, 49.20449174], [-123.04290346, 49.20449518], [-123.04278066, 49.20451089], [-123.04275089, 49.20448108], [-123.042718, 49.2044524], [-123.04268398, 49.20442484], [-123.04265667, 49.20440131], [-123.04262098, 49.2043741], [-123.04258266, 49.20434848], [-123.04256214, 49.20433572], [-123.04252135, 49.20430833], [-123.04248056, 49.20428441], [-123.04245584, 49.20427136], [-123.04240839, 49.20424727], [-123.04239003, 49.2042382], [-123.04229031, 49.20419148], [-123.04225285, 49.20417492], [-123.04222924, 49.20416537], [-123.0421948, 49.20415231], [-123.04209461, 49.20411729], [-123.04206113, 49.20410601], [-123.04203428, 49.20409744], [-123.04198395, 49.2040834], [-123.04193232, 49.20407155], [-123.04186727, 49.20405839], [-123.04181832, 49.20404954], [-123.04177038, 49.20404287], [-123.04170346, 49.20403492], [-123.0416744, 49.20403193], [-123.04161016, 49.2040261], [-123.04158507, 49.20402407], [-123.04149576, 49.20402092], [-123.04143152, 49.20402091], [-123.04141161, 49.20402107], [-123.04135701, 49.20402309], [-123.04130273, 49.20402745], [-123.04120965, 49.20403706], [-123.04115095, 49.20404371], [-123.0411125, 49.20404874], [-123.04105955, 49.20405772], [-123.04099467, 49.20407025], [-123.04094336, 49.20408137], [-123.04089265, 49.2040948], [-123.04087505, 49.20410007], [-123.04081593, 49.20411832], [-123.04078426, 49.20412864], [-123.04073666, 49.20414631], [-123.04069091, 49.20416599], [-123.04067482, 49.2041736], [-123.04062518, 49.20419769], [-123.04059759, 49.20421167], [-123.04055976, 49.20423293], [-123.04051089, 49.20426211], [-123.04047187, 49.20428726], [-123.0404217, 49.20432306], [-123.04039674, 49.20434178], [-123.04037221, 49.20436199], [-123.04028023, 49.20444156], [-123.04024009, 49.2044769], [-123.04021822, 49.20445964], [-123.04019083, 49.20443908], [-123.04017744, 49.20442974], [-123.04012708, 49.20439543], [-123.04010215, 49.20437915], [-123.04006137, 49.20435524], [-123.0400079, 49.20432641], [-123.03997083, 49.20430757], [-123.0399547, 49.20430002], [-123.03991308, 49.20428104], [-123.03988403, 49.20426837], [-123.03983692, 49.20425013], [-123.03978809, 49.20423396], [-123.0397662, 49.20422731], [-123.0397418, 49.20420641], [-123.0397073, 49.20418005], [-123.03968442, 49.20416371], [-123.03965949, 49.20414474], [-123.03964188, 49.20413175], [-123.03960177, 49.20410502], [-123.03949446, 49.20403841], [-123.03945692, 49.20401652], [-123.03941384, 49.2039944], [-123.03935524, 49.20396736], [-123.03932413, 49.20395375], [-123.03927702, 49.20393551], [-123.03926105, 49.20392989], [-123.03925186, 49.20392601], [-123.03920475, 49.20390777], [-123.03915592, 49.2038916], [-123.03910559, 49.20387756], [-123.03905397, 49.20386571], [-123.03901455, 49.20385695], [-123.03896186, 49.20384734], [-123.03893294, 49.20384309], [-123.03890787, 49.20383822], [-123.03882722, 49.20382209], [-123.03878082, 49.20381375], [-123.03870271, 49.20380135], [-123.03864917, 49.20379402], [-123.03856741, 49.2037855], [-123.03851753, 49.20377838], [-123.03850232, 49.20377573], [-123.03848343, 49.20377188], [-123.03843261, 49.20376265], [-123.03837908, 49.20375533], [-123.03832701, 49.20375047], [-123.03829119, 49.20374787], [-123.03827532, 49.2037447], [-123.03822894, 49.20373637], [-123.03817541, 49.20372905], [-123.03812126, 49.20372404], [-123.03805769, 49.20371989], [-123.03801052, 49.20371772], [-123.03797567, 49.20371724], [-123.03792603, 49.20371723], [-123.0379062, 49.20371739], [-123.03785142, 49.20371942], [-123.03784034, 49.2037181], [-123.03781698, 49.20371565], [-123.03780381, 49.20371146], [-123.03774371, 49.20368831], [-123.0377214, 49.20368001], [-123.03767258, 49.20366384], [-123.03764076, 49.2036542], [-123.03759584, 49.20363767], [-123.03754702, 49.2036215], [-123.03751225, 49.20361152], [-123.03748415, 49.20360118], [-123.03745546, 49.20359135], [-123.03743046, 49.20357707], [-123.03740319, 49.20356257], [-123.03737351, 49.20354765], [-123.03732974, 49.20352802], [-123.03725277, 49.20348691], [-123.03722608, 49.20347229], [-123.03718372, 49.20345056], [-123.03713853, 49.20343034], [-123.03710067, 49.20341548], [-123.03707968, 49.20340772], [-123.03700269, 49.20337697], [-123.03691759, 49.20334388], [-123.03687402, 49.20332619], [-123.03683519, 49.20331136], [-123.03678637, 49.20329519], [-123.03676879, 49.20328993], [-123.03674184, 49.20328133], [-123.03670775, 49.20327154], [-123.03667205, 49.2032619], [-123.03663306, 49.2032492], [-123.03658273, 49.20323516], [-123.03657742, 49.20323382], [-123.03653525, 49.20322001], [-123.03648492, 49.20320596], [-123.03644921, 49.2031975], [-123.03639403, 49.20317668], [-123.03637529, 49.20316975], [-123.03628197, 49.20313642], [-123.03623449, 49.20312072], [-123.03620429, 49.20311199], [-123.0361773, 49.2031046], [-123.03615826, 49.20309836], [-123.03613667, 49.20309153], [-123.03608476, 49.20307638], [-123.03607122, 49.20307195], [-123.0360396, 49.20306076], [-123.03593636, 49.2030256], [-123.03588307, 49.20300808], [-123.03586521, 49.20300238], [-123.03579745, 49.20298141], [-123.03575114, 49.20296462], [-123.03570232, 49.20294845], [-123.03566611, 49.20293783], [-123.03563745, 49.20292991], [-123.03554546, 49.20290583], [-123.0355317, 49.20290244], [-123.03552723, 49.20287846], [-123.03551706, 49.20284318], [-123.03550339, 49.20280841], [-123.03548628, 49.20277431], [-123.03546582, 49.20274101], [-123.03544208, 49.20270867], [-123.03541518, 49.20267741], [-123.03538521, 49.20264737], [-123.03535232, 49.20261869], [-123.03531664, 49.20259148], [-123.03527833, 49.20256586], [-123.03523755, 49.20254194], [-123.03519447, 49.20251982], [-123.03514928, 49.2024996], [-123.03510218, 49.20248136], [-123.03506296, 49.20246817], [-123.03463883, 49.20233457], [-123.03462922, 49.2023316], [-123.0345789, 49.20231755], [-123.03452728, 49.2023057], [-123.03447459, 49.20229609], [-123.03442106, 49.20228876], [-123.03436691, 49.20228375], [-123.03431237, 49.20228107], [-123.03425769, 49.20228074], [-123.0342031, 49.20228276], [-123.03414882, 49.20228712], [-123.03412443, 49.20228986], [-123.03410221, 49.20228397], [-123.03405059, 49.20227212], [-123.03399791, 49.20226251], [-123.03394437, 49.20225518], [-123.03389022, 49.20225017], [-123.03379671, 49.20224702], [-123.03301638, 49.20202183], [-123.03298167, 49.20201242], [-123.03293005, 49.20200057], [-123.03287737, 49.20199096], [-123.03282383, 49.20198363], [-123.03276969, 49.20197862], [-123.03271515, 49.20197594], [-123.03266047, 49.20197561], [-123.03260588, 49.20197763], [-123.0325516, 49.20198199], [-123.03249787, 49.20198867], [-123.03244492, 49.20199764], [-123.03239298, 49.20200887], [-123.03234227, 49.2020223], [-123.032293, 49.20203789], [-123.0322454, 49.20205555], [-123.03219965, 49.20207523], [-123.03215596, 49.20209682], [-123.03212743, 49.20211261], [-123.03207658, 49.20210338], [-123.03202304, 49.20209605], [-123.0319689, 49.20209103], [-123.03191436, 49.20208836], [-123.03185968, 49.20208803], [-123.03180508, 49.20209004], [-123.03175081, 49.2020944], [-123.03169708, 49.20210108], [-123.03164413, 49.20211006], [-123.03159219, 49.20212128], [-123.03154925, 49.20213249], [-123.03153175, 49.20213036], [-123.0314776, 49.20212535], [-123.03139371, 49.2021222], [-123.03130536, 49.20212142], [-123.03125095, 49.20211141], [-123.03119742, 49.20210408], [-123.03114327, 49.20209906], [-123.03108415, 49.20209627], [-123.03102895, 49.20208178], [-123.03099011, 49.20207263], [-123.03096053, 49.20206627], [-123.03091616, 49.20205801], [-123.03083021, 49.20204369], [-123.03067138, 49.20201579], [-123.03058383, 49.20200117], [-123.03045048, 49.20197577], [-123.0302985, 49.20194523], [-123.03025231, 49.20193694], [-123.03017697, 49.20192562], [-123.03013527, 49.20192012], [-123.0301119, 49.20191766], [-123.03007582, 49.20190175], [-123.03002872, 49.20188351], [-123.0299799, 49.20186733], [-123.02992957, 49.20185329], [-123.02987796, 49.20184143], [-123.02982527, 49.20183182], [-123.02977174, 49.20182449], [-123.02971759, 49.20181948], [-123.02966306, 49.2018168], [-123.02962802, 49.20181631], [-123.02946131, 49.20181631], [-123.02934012, 49.20179232], [-123.02928974, 49.20178283], [-123.02926535, 49.2017785], [-123.02912376, 49.20174479], [-123.02908884, 49.20173704], [-123.02906007, 49.20173149], [-123.02901073, 49.20172099], [-123.02895804, 49.20171137], [-123.02878355, 49.20168496], [-123.0287075, 49.20167386], [-123.02856272, 49.20165327], [-123.02846396, 49.20163993], [-123.02844502, 49.20163752], [-123.02839876, 49.20163018], [-123.0283159, 49.20161444], [-123.02823651, 49.20159995], [-123.02814909, 49.20158329], [-123.02805574, 49.20156658], [-123.02796186, 49.20154874], [-123.02786988, 49.20153195], [-123.02779589, 49.20151938], [-123.02775869, 49.20151404], [-123.02771074, 49.20150494], [-123.02763581, 49.20149126], [-123.02754882, 49.201474], [-123.02744866, 49.20145456], [-123.02735667, 49.20143777], [-123.02727231, 49.20142306], [-123.02717556, 49.20140472], [-123.02708555, 49.20138871], [-123.02692793, 49.20136119], [-123.0267525, 49.20132777], [-123.02669836, 49.20131776], [-123.02666951, 49.2013128], [-123.02662753, 49.20130637], [-123.02660686, 49.2013034], [-123.02651488, 49.20129099], [-123.02642867, 49.20128041], [-123.02622604, 49.20125318], [-123.02621336, 49.20125127], [-123.02620355, 49.20124769], [-123.02615473, 49.20123151], [-123.02610441, 49.20121747], [-123.0260528, 49.20120561], [-123.02600011, 49.201196], [-123.02594658, 49.20118866], [-123.0259128, 49.20118526], [-123.02587715, 49.20118229], [-123.02581991, 49.20117184], [-123.0257807, 49.20115872], [-123.02576128, 49.20115268], [-123.02571096, 49.20113863], [-123.02565934, 49.20112677], [-123.02560666, 49.20111716], [-123.02555313, 49.20110982], [-123.02551862, 49.20110635], [-123.02548218, 49.20110335], [-123.02543078, 49.20110076], [-123.02539049, 49.20108972], [-123.02533887, 49.20107786], [-123.02526035, 49.20106244], [-123.02524292, 49.20105917], [-123.02516183, 49.20104455], [-123.02513391, 49.20103912], [-123.02512656, 49.20103622], [-123.02509689, 49.20102505], [-123.02504807, 49.20100887], [-123.02499775, 49.20099482], [-123.02494613, 49.20098297], [-123.02490007, 49.20097374], [-123.0248067, 49.20095377], [-123.02473946, 49.2009403], [-123.02467846, 49.20092674], [-123.02465217, 49.2009161], [-123.02462133, 49.2009042], [-123.02457846, 49.20088677], [-123.02453918, 49.20087175], [-123.02449036, 49.20085557], [-123.02446735, 49.20084883], [-123.02444186, 49.20083869], [-123.02440778, 49.20082576], [-123.02435896, 49.20080958], [-123.02430864, 49.20079553], [-123.0242531, 49.2007819], [-123.02419179, 49.2007673], [-123.02415623, 49.20075919], [-123.02413439, 49.20075448], [-123.0240817, 49.20074486], [-123.02402817, 49.20073753], [-123.02397403, 49.20073251], [-123.02392385, 49.20072943], [-123.02387829, 49.20072752], [-123.02386345, 49.20072131], [-123.02383193, 49.20070878], [-123.02380226, 49.20069582], [-123.02375516, 49.20067758], [-123.02370634, 49.2006614], [-123.02365602, 49.20064735], [-123.0236381, 49.20064295], [-123.02360054, 49.20063274], [-123.02357993, 49.20062771], [-123.02342368, 49.20059846], [-123.02345908, 49.19946613], [-123.02335254, 49.19943735], [-123.02324573, 49.19940901], [-123.02313864, 49.19938112], [-123.02303128, 49.19935368], [-123.02292366, 49.1993267], [-123.02281578, 49.19930017], [-123.02270764, 49.19927409], [-123.02259924, 49.19924848], [-123.02090929, 49.19882179], [-123.0168799, 49.19740305], [-123.01310225, 49.1963591], [-123.01217047, 49.19607996], [-123.00800676, 49.19475972], [-123.00618313, 49.19413591], [-123.00392888, 49.19321444], [-123.00136621, 49.19152819], [-122.99859076, 49.18911984], [-122.99680053, 49.18782382], [-122.99485898, 49.18659045], [-122.9934651, 49.18577723], [-122.98999098, 49.18405251], [-122.98523702, 49.18182932], [-122.98353187, 49.1811756], [-122.9809472, 49.1804108], [-122.97880665, 49.18007896], [-122.97796597, 49.18002912], [-122.97612945, 49.18011546], [-122.97421762, 49.18035668], [-122.97230362, 49.18079819], [-122.97157212, 49.18101324], [-122.97073438, 49.18133767], [-122.97011996, 49.18170114], [-122.96966621, 49.18212811], [-122.9679626, 49.18385454], [-122.96645769, 49.18539981], [-122.96441768, 49.1870761], [-122.96296568, 49.18800611], [-122.95926725, 49.19019797], [-122.95835887, 49.19068203], [-122.95726187, 49.19124676], [-122.95725058, 49.18998528], [-122.95724837, 49.18934747], [-122.95729353, 49.18758652], [-122.95729281, 49.18708553], [-122.95711041, 49.18705717], [-122.95710411, 49.1850167], [-122.95710275, 49.1847973], [-122.9571025, 49.18440144], [-122.95703582, 49.1844568], [-122.95703489, 49.18415594], [-122.95710729, 49.18284344], [-122.95711572, 49.1825237], [-122.95697794, 49.18252887], [-122.95697811, 49.18213835], [-122.95710391, 49.18175883], [-122.95710742, 49.17972421], [-122.95710942, 49.17913834], [-122.95711319, 49.17844869], [-122.95711393, 49.17680291], [-122.95711024, 49.17644573], [-122.95711412, 49.17632743], [-122.95711449, 49.17612292], [-122.95723452, 49.1750281], [-122.95724284, 49.17502311], [-122.95828205, 49.17439954], [-122.95842638, 49.1743161], [-122.95904218, 49.17396768], [-122.95942947, 49.17376402], [-122.95982334, 49.17353757], [-122.95998795, 49.17345212], [-122.96017603, 49.17334103], [-122.96028619, 49.17325557], [-122.96039556, 49.17314876], [-122.96082807, 49.17277562], [-122.96123827, 49.17237684], [-122.96141751, 49.17217887], [-122.96172383, 49.17186982], [-122.96189192, 49.17166473], [-122.96197832, 49.17145395], [-122.96217092, 49.17124032], [-122.96231012, 49.17105518], [-122.96266695, 49.17066209], [-122.96291514, 49.17043137], [-122.9635444, 49.1697919], [-122.96360608, 49.16971499], [-122.96373218, 49.16954124], [-122.96391575, 49.16919943], [-122.96393921, 49.16917379], [-122.9640314, 49.16908549], [-122.9643283, 49.16886474], [-122.96455656, 49.16866108], [-122.96469723, 49.16856423], [-122.96546067, 49.1681156], [-122.96568583, 49.16797034], [-122.96583654, 49.16788631], [-122.9661224, 49.16775671], [-122.96644766, 49.16765701], [-122.9668903, 49.1675502], [-122.96741686, 49.1674035], [-122.96794616, 49.16724826], [-122.96848221, 49.16712293], [-122.96892895, 49.1669976], [-122.96919453, 49.16693351], [-122.96981463, 49.16684378], [-122.97012022, 49.16678967], [-122.97064728, 49.16666861], [-122.97097005, 49.16658458], [-122.97120699, 49.16654755], [-122.97146897, 49.16651621], [-122.97168876, 49.16647492], [-122.97288012, 49.16619862], [-122.97314158, 49.16615304], [-122.97363728, 49.16604481], [-122.97436133, 49.16581977], [-122.97506964, 49.16556911], [-122.97567411, 49.165374], [-122.97709025, 49.16497949], [-122.97780312, 49.16475875], [-122.97838899, 49.16461489], [-122.97852901, 49.16456078], [-122.97882266, 49.16446678], [-122.97969667, 49.16425742], [-122.97996578, 49.16418336], [-122.98038927, 49.16410219], [-122.98085228, 49.16399394], [-122.98130497, 49.16386576], [-122.98223063, 49.16359755], [-122.98313155, 49.16320439], [-122.98374007, 49.16282048], [-122.98485069, 49.16168815], [-122.98497324, 49.16149019], [-122.98522228, 49.16102304], [-122.98538673, 49.16085071], [-122.98551405, 49.16073535], [-122.98574316, 49.16047329], [-122.98589012, 49.16033515], [-122.98601115, 49.1602383], [-122.98627196, 49.16006882], [-122.9867934, 49.15966577], [-122.98720777, 49.15931256], [-122.98739757, 49.15911887], [-122.98864085, 49.1557378], [-122.99548024, 49.15449304], [-122.99955666, 49.15352742], [-123.00407335, 49.15243075], [-123.01376787, 49.15088806], [-123.01698531, 49.15031517], [-123.02542232, 49.14861105], [-123.02987428, 49.14770956], [-123.03439227, 49.14668417], [-123.03877127, 49.14534114], [-123.04173013, 49.14399092], [-123.04395821, 49.14248838], [-123.04583856, 49.14113253], [-123.05004535, 49.1371362], [-123.05099503, 49.13599826], [-123.05260262, 49.1344524], [-123.05422891, 49.13327252], [-123.05634557, 49.13204773], [-123.06193178, 49.12922684], [-123.06450338, 49.12781025], [-123.06721278, 49.12608861], [-123.0707719, 49.12396512], [-123.07501459, 49.1219698], [-123.07843788, 49.12074925], [-123.08527093, 49.11822979], [-123.08400391, 49.1152931], [-123.08398768, 49.11523043], [-123.08403961, 49.11469023], [-123.08432427, 49.11386712], [-123.08538671, 49.11222082], [-123.08646122, 49.11038063], [-123.08712549, 49.10801949], [-123.08726463, 49.10729055], [-123.08762831, 49.10461017], [-123.08862369, 49.1025734], [-123.09271307, 49.09896195], [-123.09883316, 49.09517731], [-123.09969134, 49.0947653], [-123.10297869, 49.09348401], [-123.10846142, 49.09158286], [-123.10954091, 49.09113851], [-123.11474364, 49.08888826], [-123.1162415, 49.0884737], [-123.11668842, 49.08837287], [-123.11838586, 49.08824111], [-123.11906922, 49.08827555], [-123.11989327, 49.08841045], [-123.12407398, 49.089382], [-123.12738629, 49.09172813], [-123.13046795, 49.0940447], [-123.1351282, 49.09822917], [-123.13606411, 49.10102286], [-123.13975421, 49.10092237], [-123.14366931, 49.10115212], [-123.14631616, 49.10146403], [-123.14974181, 49.10227298], [-123.15125094, 49.10285833], [-123.15371117, 49.10451327], [-123.1546207, 49.10522956], [-123.1549318, 49.10558712], [-123.15588669, 49.10700596], [-123.15688776, 49.11079728], [-123.18768567, 49.11824791], [-123.20210846, 49.12174203], [-123.21811175, 49.12534998], [-123.21970845, 49.1257098], [-123.22311124, 49.12647655], [-123.22357933, 49.12657899], [-123.22405062, 49.12667489], [-123.22452489, 49.12676419], [-123.22500194, 49.12684686], [-123.22548155, 49.12692286], [-123.2259635, 49.12699214], [-123.22644758, 49.1270547], [-123.22693357, 49.12711048], [-123.22742124, 49.12715947], [-123.22791039, 49.12720166], [-123.22840078, 49.12723701], [-123.22889221, 49.12726551], [-123.22938444, 49.12728715], [-123.22987726, 49.12730192], [-123.23037045, 49.12730982], [-123.23086378, 49.12731083], [-123.23135704, 49.12730497], [-123.23184999, 49.12729222], [-123.23234242, 49.12727261], [-123.23283411, 49.12724613], [-123.23332483, 49.1272128], [-123.23381437, 49.12717263], [-123.2343025, 49.12712564], [-123.23478901, 49.12707186], [-123.23527367, 49.1270113], [-123.23575627, 49.12694399], [-123.23623659, 49.12686997], [-123.23671442, 49.12678927], [-123.23718953, 49.12670192], [-123.23766172, 49.12660797], [-123.23813078, 49.12650745], [-123.23859649, 49.12640041], [-123.23905865, 49.1262869], [-123.23951703, 49.12616697], [-123.23997145, 49.12604067], [-123.24042169, 49.12590806], [-123.24086756, 49.12576921], [-123.24130884, 49.12562416], [-123.24174536, 49.125473], [-123.24217689, 49.12531578], [-123.24260326, 49.12515257], [-123.24302428, 49.12498346], [-123.24343974, 49.12480851], [-123.24404632, 49.12454799], [-123.30799904, 49.09653378], [-123.30801433, 49.09652707], [-123.30802316, 49.09652708], [-123.30940619, 49.09652789], [-123.31350268, 49.09653021], [-123.31349894, 49.25889638], [-123.29711811, 49.25890444], [-123.29031971, 49.2589023], [-123.28692805, 49.26173319]]]}}]}