{"type": "FeatureCollection", "features": [{"type": "Feature", "properties": {"district_id": "St. Albert"}, "geometry": {"type": "Polygon", "coordinates": [[[-113.565637622427, 53.6503888939955], [-113.565637646936, 53.6503716457939], [-113.56564018611, 53.6493693302037], [-113.565644172295, 53.6482177947479], [-113.565645116505, 53.6479482799392], [-113.565661478716, 53.6429023605308], [-113.565676825821, 53.6360711012732], [-113.565680779013, 53.6338181478921], [-113.565984472763, 53.6337073161664], [-113.566289008737, 53.6335961704202], [-113.567963516734, 53.6329844921602], [-113.571676063219, 53.6318117097791], [-113.571697723717, 53.6318049131022], [-113.571719439515, 53.6317981786215], [-113.571741209093, 53.6317915072303], [-113.571763032468, 53.6317848971313], [-113.571784909614, 53.6317783510202], [-113.571806840548, 53.6317718670999], [-113.571828822238, 53.6317654462581], [-113.571850857708, 53.6317590885056], [-113.571872942422, 53.631752793826], [-113.571895079405, 53.6317465622303], [-113.571917267126, 53.63174039551], [-113.5719395041, 53.6317342909641], [-113.571961790302, 53.6317282512883], [-113.571984124227, 53.6317222755784], [-113.572006507388, 53.63171636384], [-113.572028938274, 53.6317105160675], [-113.572051416874, 53.6317047331595], [-113.572073941688, 53.6316990142121], [-113.572096512705, 53.6316933601237], [-113.572119128413, 53.6316877708889], [-113.572141790326, 53.6316822465131], [-113.572164496922, 53.6316767878894], [-113.572187246707, 53.6316713932153], [-113.572210039655, 53.6316660651864], [-113.572232877295, 53.631660802011], [-113.572255756604, 53.6316556036782], [-113.572278677564, 53.6316504719852], [-113.572301640184, 53.6316454060334], [-113.572324642952, 53.6316404058173], [-113.572347687381, 53.6316354713423], [-113.572370770437, 53.6316306034962], [-113.572393893643, 53.6316258013858], [-113.572417055476, 53.6316210659041], [-113.572440254425, 53.6316163970459], [-113.572463492003, 53.6316117948163], [-113.572486766697, 53.6316072592102], [-113.572510076996, 53.6316027902219], [-113.572533424412, 53.631598387857], [-113.572556807424, 53.6315940530084], [-113.57258022452, 53.6315897856709], [-113.57260367571, 53.6315855849459], [-113.572627160984, 53.6315814517318], [-113.572650680343, 53.6315773860286], [-113.572674232274, 53.631573387831], [-113.572697815268, 53.6315694571335], [-113.572721430834, 53.6315655939415], [-113.572745077462, 53.6315617982496], [-113.572768755142, 53.6315580709563], [-113.572792460861, 53.6315544111523], [-113.572816197633, 53.6315508197469], [-113.572839962434, 53.6315472967292], [-113.572863756785, 53.6315438412061], [-113.572887577646, 53.631540454964], [-113.572911426545, 53.631537136211], [-113.572935301953, 53.6315338867389], [-113.572959203888, 53.6315307047505], [-113.572983130821, 53.6315275920376], [-113.573007082761, 53.6315245477016], [-113.573031058195, 53.631521571737], [-113.573055058628, 53.6315186650478], [-113.573079082547, 53.6315158276287], [-113.573103128449, 53.6315130585756], [-113.573127196326, 53.631510358787], [-113.57315128769, 53.6315077282685], [-113.573175398014, 53.6315051661051], [-113.573199530304, 53.6315026741049], [-113.573223681555, 53.6315002504598], [-113.573247853269, 53.6314978960738], [-113.573272042415, 53.6314956118348], [-113.573296091779, 53.6314933962837], [-113.573320157082, 53.631491249077], [-113.573344241345, 53.6314891702255], [-113.573368340035, 53.6314871597131], [-113.573392456165, 53.631485218449], [-113.573416586713, 53.6314833464225], [-113.573440733199, 53.6314815427404], [-113.573464894112, 53.6314798073972], [-113.573489067931, 53.6314781412863], [-113.573513254656, 53.6314765444074], [-113.573537454296, 53.6314750158622], [-113.57356166533, 53.6314735565437], [-113.573585889272, 53.6314721664574], [-113.573610123096, 53.6314708455924], [-113.573634368324, 53.6314695930555], [-113.573658621915, 53.6314684106332], [-113.573682885398, 53.6314672965336], [-113.573707157254, 53.63146625165], [-113.573731438992, 53.6314652759878], [-113.57375572608, 53.6314643695306], [-113.573780021539, 53.6314635322895], [-113.573804322339, 53.631462765152], [-113.573828630008, 53.6314620663265], [-113.573852943026, 53.6314614367062], [-113.573877261384, 53.6314608771895], [-113.573901582077, 53.6314603859687], [-113.57392590811, 53.6314599648516], [-113.57395023647, 53.6314596129289], [-113.573974568667, 53.631459330206], [-113.573998901679, 53.631459116672], [-113.574023235505, 53.6314589723271], [-113.574047571649, 53.631458898075], [-113.574071359655, 53.6314589099292], [-113.574095148494, 53.6314589891753], [-113.574118935162, 53.6314591340058], [-113.574142721168, 53.6314593444259], [-113.574166504985, 53.6314596222274], [-113.57419028663, 53.6314599656131], [-113.574214066094, 53.6314603754816], [-113.574237840354, 53.6314608518222], [-113.574261610922, 53.6314613946402], [-113.574285377807, 53.6314620030371], [-113.574309139488, 53.6314626779061], [-113.574332895974, 53.6314634183486], [-113.574356645745, 53.6314642252578], [-113.574380388801, 53.6314650986336], [-113.574404125141, 53.6314660384762], [-113.574427853264, 53.6314670438816], [-113.574451573161, 53.6314681157483], [-113.57447528484, 53.6314692531778], [-113.57449898678, 53.6314704570633], [-113.574522678992, 53.6314717265063], [-113.574546361466, 53.6314730624052], [-113.574570032699, 53.6314744638561], [-113.574593692683, 53.6314759317578], [-113.574617341427, 53.6314774652114], [-113.574640977419, 53.6314790642119], [-113.574664599138, 53.6314807296522], [-113.574688209617, 53.6314824606446], [-113.574711805833, 53.6314842571784], [-113.574735386273, 53.6314861192482], [-113.574758952442, 53.631488047758], [-113.574782504357, 53.6314900409106], [-113.574806038976, 53.6314921004924], [-113.574829557821, 53.6314942256103], [-113.57485139203, 53.6314962494906], [-113.574873212067, 53.6314983299275], [-113.574895014899, 53.6315004678087], [-113.574916803568, 53.6315026613479], [-113.574938576552, 53.6315049114383], [-113.574960330838, 53.6315072171707], [-113.574982069431, 53.6315095803528], [-113.575003790837, 53.6315119991822], [-113.575025493546, 53.6315144736535], [-113.575047177538, 53.6315170055639], [-113.57506884284, 53.6315195922178], [-113.576091328119, 53.6316433086883], [-113.576101144063, 53.6316445349707], [-113.576110935116, 53.6316458312537], [-113.576120698274, 53.6316471957297], [-113.57613043503, 53.6316486302009], [-113.576140140868, 53.6316501328544], [-113.576149815778, 53.6316517045886], [-113.576159459769, 53.631653344505], [-113.576169069818, 53.631655052593], [-113.576178644405, 53.6316568297456], [-113.576188183555, 53.6316586732673], [-113.576197684228, 53.6316605849445], [-113.576207146434, 53.6316625638786], [-113.576216567156, 53.6316646091604], [-113.576225947899, 53.6316667216937], [-113.576235284135, 53.6316689005641], [-113.576244575875, 53.631671144873], [-113.576253823108, 53.6316734555189], [-113.57626302283, 53.6316758306939], [-113.576272175023, 53.6316782721954], [-113.576281276689, 53.6316807773168], [-113.576290326309, 53.6316833469514], [-113.576299325394, 53.6316859811046], [-113.576308270939, 53.6316886779685], [-113.576317161423, 53.6316914384365], [-113.576325995343, 53.6316942616045], [-113.5763347727, 53.6316971474726], [-113.576343491989, 53.631700095137], [-113.576352150189, 53.6317031045869], [-113.57636074882, 53.6317061749291], [-113.576369284858, 53.631709306153], [-113.576377756792, 53.6317124982531], [-113.57638616464, 53.6317157494325], [-113.576394505378, 53.6317190596805], [-113.576402780508, 53.6317224299009], [-113.576410987035, 53.6317258573874], [-113.57641912495, 53.6317293430386], [-113.576427191229, 53.6317328868437], [-113.576435185889, 53.6317364870058], [-113.576443108932, 53.6317401435248], [-113.576450957333, 53.63174385639], [-113.576458731111, 53.6317476238044], [-113.576466427232, 53.6317514466558], [-113.576474047228, 53.6317553231524], [-113.576481589576, 53.6317592541875], [-113.576489051272, 53.6317632379533], [-113.576496433828, 53.6317672744552], [-113.576503734228, 53.631771362784], [-113.576510952473, 53.6317755029395], [-113.576518085548, 53.6317796940127], [-113.576525136486, 53.6317839351156], [-113.576532099249, 53.6317882253284], [-113.576538976852, 53.6317925655603], [-113.576545767799, 53.6317969540088], [-113.576552469078, 53.6318013897648], [-113.576559080688, 53.6318058728282], [-113.576565602628, 53.631810403199], [-113.576572031904, 53.631814978171], [-113.576578370007, 53.6318195995466], [-113.576584615454, 53.6318242646247], [-113.576590766723, 53.6318289742987], [-113.576596822322, 53.631833726766], [-113.576602782249, 53.6318385220268], [-113.576608645002, 53.631843359177], [-113.576614412094, 53.6318482382221], [-113.576620079015, 53.6318531564504], [-113.576625647259, 53.6318581156644], [-113.576631116853, 53.6318631131683], [-113.576636484765, 53.6318681498501], [-113.576641751013, 53.6318732239127], [-113.576646915605, 53.6318783344576], [-113.576651978542, 53.6318834814847], [-113.576656935298, 53.6318886640794], [-113.576661788904, 53.6318938813541], [-113.576666537849, 53.6318991333032], [-113.57667118064, 53.6319044181243], [-113.576675717285, 53.631909734919], [-113.576680147784, 53.6319150836872], [-113.576684469113, 53.6319204644182], [-113.576688682812, 53.6319258744219], [-113.576692788872, 53.6319313145965], [-113.576696784286, 53.6319367831346], [-113.576700669063, 53.6319422791374], [-113.576704444716, 53.6319478026103], [-113.57670810823, 53.6319533526442], [-113.576711661126, 53.6319589283458], [-113.576715100388, 53.6319645288058], [-113.57671842906, 53.6319701522379], [-113.576721642586, 53.6319758004231], [-113.576764419325, 53.6320525506325], [-113.576827497764, 53.6321657832489], [-113.577592762166, 53.6321644486123], [-113.578167798254, 53.6321634399456], [-113.578529094731, 53.6321628569331], [-113.578574095414, 53.6321627260146], [-113.578807142098, 53.6321623366946], [-113.579027070553, 53.6321619618945], [-113.579049026528, 53.631952985155], [-113.579050701263, 53.631937680058], [-113.579052490846, 53.6319223798577], [-113.579054396797, 53.6319070836608], [-113.579056417587, 53.6318917932593], [-113.579058553216, 53.6318765086529], [-113.579060803682, 53.6318612298418], [-113.579063168987, 53.631845956826], [-113.579065650633, 53.6318306905092], [-113.579068247117, 53.6318154299877], [-113.579070958413, 53.631800177957], [-113.579073783025, 53.6317849326147], [-113.579076723968, 53.6317696948701], [-113.579079779723, 53.6317544656163], [-113.579082950297, 53.6317392439548], [-113.579086235681, 53.6317240307841], [-113.579089634355, 53.6317088269975], [-113.57909314783, 53.6316936326003], [-113.579096776107, 53.6316784475924], [-113.579100519184, 53.6316632719738], [-113.579104377053, 53.6316481066431], [-113.579108348194, 53.6316329524935], [-113.579112432623, 53.6316178077279], [-113.579116633338, 53.6316026750526], [-113.579120945812, 53.631587553553], [-113.579125373068, 53.6315724432399], [-113.579129915098, 53.6315573450116], [-113.579134568878, 53.6315422588576], [-113.579139337421, 53.631527185687], [-113.579144219217, 53.6315121254946], [-113.579149214274, 53.6314970773817], [-113.579154324077, 53.6314820440493], [-113.579159545621, 53.6314670236897], [-113.579164880407, 53.6314520172066], [-113.579170328427, 53.6314370254988], [-113.579175889681, 53.631422048566], [-113.579181562656, 53.6314070864031], [-113.579187348866, 53.6313921390153], [-113.57919324829, 53.6313772081996], [-113.579199259437, 53.6313622921537], [-113.579205383798, 53.63134739268], [-113.579211618351, 53.6313325097678], [-113.57921796612, 53.6313176434277], [-113.579224427094, 53.6313027945583], [-113.579230998251, 53.6312879631488], [-113.579237681111, 53.6312731483062], [-113.579244475647, 53.6312583527259], [-113.579251381876, 53.6312435746109], [-113.579258399791, 53.6312288148597], [-113.579265529381, 53.6312140743708], [-113.579272767624, 53.6311993531336], [-113.579280119054, 53.631184651164], [-113.579287579135, 53.6311699684461], [-113.579295150883, 53.631155305889], [-113.579302952945, 53.6311404383649], [-113.579310868166, 53.6311255928039], [-113.579318896556, 53.6311107683075], [-113.579327038114, 53.6310959648756], [-113.579335292814, 53.631081185204], [-113.579343660683, 53.6310664265969], [-113.579352140181, 53.6310516917447], [-113.57936073435, 53.6310369788608], [-113.57936944014, 53.6310222906302], [-113.579378257568, 53.6310076252559], [-113.579387188137, 53.6309929836416], [-113.579396230327, 53.6309783666806], [-113.579405384137, 53.6309637743729], [-113.579414648046, 53.6309492076116], [-113.579424025096, 53.6309346646103], [-113.579433513748, 53.6309201480593], [-113.579443110987, 53.6309056570493], [-113.57945282134, 53.6308911924949], [-113.579462641791, 53.6308767534869], [-113.579472570812, 53.6308623418169], [-113.579482611426, 53.6308479574957], [-113.57949276213, 53.6308335996192], [-113.579503022905, 53.6308192699847], [-113.579513392249, 53.6308049676881], [-113.579523871664, 53.6307906936334], [-113.579534459631, 53.6307764487137], [-113.579545156157, 53.6307622320305], [-113.579555961234, 53.6307480444823], [-113.579566874862, 53.630733886069], [-113.579577897031, 53.6307197576893], [-113.57958902775, 53.6307056584444], [-113.57960026549, 53.6306915901262], [-113.579611610251, 53.6306775527346], [-113.579623063553, 53.6306635453764], [-113.579634622364, 53.6306495689395], [-113.579646289698, 53.630635624333], [-113.579658062532, 53.6306217115462], [-113.579669940866, 53.6306078305792], [-113.579681926211, 53.6305939814372], [-113.579694017037, 53.6305801659119], [-113.579706214874, 53.6305663822116], [-113.579718516682, 53.6305526321227], [-113.579730923979, 53.630538914752], [-113.579743435237, 53.6305252318911], [-113.579756051977, 53.6305115826468], [-113.579768772677, 53.6304979679123], [-113.579781597346, 53.6304843867891], [-113.579794525967, 53.6304708410742], [-113.579807557028, 53.6304573307623], [-113.57982069204, 53.6304438558586], [-113.579833931012, 53.6304304154646], [-113.579847270894, 53.6304170122653], [-113.579860714727, 53.6304036444741], [-113.57987425947, 53.6303903138775], [-113.579887906643, 53.6303770195822], [-113.579901654727, 53.6303637624815], [-113.57991550524, 53.6303505416819], [-113.579929456645, 53.6303373598741], [-113.579943507448, 53.6303242152553], [-113.579957659151, 53.6303111087294], [-113.579971911755, 53.6302980402965], [-113.579986263739, 53.6302850108497], [-113.580000715103, 53.630272020389], [-113.580015265837, 53.6302590698129], [-113.580029914448, 53.630246157319], [-113.580044662421, 53.6302332856082], [-113.580059509765, 53.6302204537818], [-113.580074453456, 53.6302076618294], [-113.580089496517, 53.6301949097613], [-113.580104635908, 53.6301821993642], [-113.580119871637, 53.6301695297393], [-113.580135205206, 53.6301569017906], [-113.580150635105, 53.6301443155127], [-113.580166161342, 53.6301317700069], [-113.580181782378, 53.6301192679637], [-113.580197499743, 53.6301068075911], [-113.580213311917, 53.6300943897824], [-113.580229220411, 53.6300820145429], [-113.580245220681, 53.6300696827552], [-113.580261317261, 53.630057394435], [-113.58027750713, 53.6300451495719], [-113.580293790277, 53.6300329490643], [-113.580310166711, 53.6300207920136], [-113.580326634904, 53.6300086802115], [-113.580343196384, 53.6299966118663], [-113.580359851125, 53.6299845896736], [-113.580376596121, 53.6299726118256], [-113.580393432875, 53.6299606792261], [-113.580410361378, 53.6299487927737], [-113.580427380127, 53.6299369515644], [-113.580444489104, 53.6299251573953], [-113.580461688328, 53.6299134084693], [-113.580478977771, 53.6299017074821], [-113.580496355939, 53.6298900526311], [-113.580513822824, 53.6298784448148], [-113.580531378425, 53.6298668840333], [-113.580549022735, 53.6298553711851], [-113.58056675424, 53.6298439062647], [-113.580584574452, 53.6298324892776], [-113.580602480349, 53.6298211202129], [-113.580620474945, 53.6298097999799], [-113.580638553704, 53.6297985285627], [-113.58065671965, 53.6297873059717], [-113.580674971271, 53.6297761322017], [-113.58069330855, 53.6297650090496], [-113.580711729993, 53.6297539347131], [-113.58073023559, 53.6297429100908], [-113.580748826845, 53.6297319360863], [-113.580767500742, 53.6297210117905], [-113.580786257265, 53.6297101390005], [-113.580805097934, 53.629699316823], [-113.580824021236, 53.6296885452526], [-113.580843025653, 53.6296778251826], [-113.580862112694, 53.6296671566182], [-113.580881282361, 53.6296565395594], [-113.580900531629, 53.6296459739955], [-113.580919860482, 53.6296354617237], [-113.58093927196, 53.6296250009574], [-113.580958761519, 53.6296145925792], [-113.580978330663, 53.6296042374929], [-113.58099797939, 53.6295939356984], [-113.581017706199, 53.629583686292], [-113.581037511072, 53.6295734910706], [-113.581057394017, 53.6295633491356], [-113.581077355034, 53.6295532604872], [-113.581097392595, 53.6295432269169], [-113.581117506716, 53.6295332466277], [-113.581137695869, 53.6295233214113], [-113.581157961566, 53.629513451273], [-113.581178302302, 53.629503635309], [-113.58119871807, 53.6294938744176], [-113.58121920887, 53.629484168599], [-113.58123977318, 53.6294745187463], [-113.581260411002, 53.6294649248595], [-113.581281122344, 53.6294553860399], [-113.581301905676, 53.6294459040795], [-113.58132276252, 53.6294364780848], [-113.581343689851, 53.6294271080452], [-113.581364689164, 53.6294177957632], [-113.581385760476, 53.6294085394416], [-113.581406900756, 53.6293993399682], [-113.581428113018, 53.6293901982523], [-113.581449394239, 53.6293811142831], [-113.581470744426, 53.6293720871622], [-113.581492163564, 53.6293631186865], [-113.581513650158, 53.6293542070537], [-113.581535205692, 53.6293453549647], [-113.581556828683, 53.6293365597184], [-113.581578517591, 53.6293278240052], [-113.58160027545, 53.6293191469372], [-113.581622097723, 53.6293105284983], [-113.581643985915, 53.6293019695924], [-113.581665940033, 53.629293469321], [-113.582833595056, 53.6288439060336], [-113.583256436475, 53.6288442178653], [-113.583440610419, 53.6288443565875], [-113.583509975957, 53.6288444038517], [-113.583691395016, 53.6287745633767], [-113.583876997033, 53.6287031161201], [-113.583977706757, 53.6286643435635], [-113.584062707686, 53.6286316258212], [-113.584248569486, 53.6285600737569], [-113.584434430658, 53.6284885214021], [-113.584620292714, 53.6284169687618], [-113.58480615263, 53.6283454158257], [-113.585084106775, 53.6282384046775], [-113.585336450199, 53.6281412604948], [-113.585356915495, 53.6281333753119], [-113.585377376301, 53.6281254847185], [-113.585397831106, 53.6281175887093], [-113.585464957569, 53.6280916292224], [-113.585532022511, 53.6280656146711], [-113.585599028954, 53.6280395450661], [-113.585665973867, 53.6280134212954], [-113.585732857265, 53.6279872415623], [-113.585799680645, 53.6279610076689], [-113.585866442502, 53.6279347187118], [-113.585933142836, 53.6279083746909], [-113.58599978315, 53.6278819765102], [-113.586066361941, 53.6278555232659], [-113.586132877689, 53.6278290158516], [-113.586199333425, 53.6278024533792], [-113.586265726117, 53.6277758367369], [-113.586332058789, 53.6277491659353], [-113.586398328416, 53.627722440964], [-113.586464535008, 53.6276956609245], [-113.586530680068, 53.6276688267208], [-113.586596763594, 53.627641938353], [-113.586662784067, 53.6276149967144], [-113.586728741505, 53.6275880000082], [-113.586794635897, 53.6275609491328], [-113.586860467244, 53.6275338440885], [-113.586926237049, 53.6275066857791], [-113.586991942297, 53.6274794732958], [-113.5870575845, 53.6274522066438], [-113.587123163648, 53.6274248867217], [-113.587188679751, 53.6273975126313], [-113.587254131288, 53.6273700852659], [-113.587319519778, 53.6273426037322], [-113.587384843703, 53.6273150689237], [-113.587450104572, 53.6272874808457], [-113.587515300883, 53.6272598385946], [-113.587580432628, 53.6272321430691], [-113.587584611297, 53.6272303881514], [-113.587588788455, 53.6272286332285], [-113.587592965612, 53.6272268783053], [-113.58760375673, 53.6272222796811], [-113.587614544831, 53.627217680147], [-113.587625331436, 53.6272130788096], [-113.587648280204, 53.6272032590493], [-113.587671219945, 53.627193433862], [-113.587694152178, 53.6271836023543], [-113.587708797419, 53.6271773537143], [-113.587723439658, 53.6271711023664], [-113.587738077385, 53.6271648483054], [-113.587792257616, 53.6271415872059], [-113.587846391279, 53.6271182899782], [-113.587900479902, 53.6270949548304], [-113.587954523477, 53.627071582661], [-113.588008522004, 53.6270481734703], [-113.58806247397, 53.627024727253], [-113.588112827075, 53.6270027917302], [-113.588163141133, 53.6269808246014], [-113.588213414641, 53.626958824963], [-113.588263649092, 53.6269367946171], [-113.58845811021, 53.6268510382975], [-113.58850663728, 53.6268295249563], [-113.588555125306, 53.6268079800108], [-113.588603572766, 53.6267864043544], [-113.588651982685, 53.6267647979974], [-113.588700350528, 53.6267431609245], [-113.588748680819, 53.6267214940496], [-113.588796975055, 53.6266997991752], [-113.58884523174, 53.626678074499], [-113.588891918875, 53.6266570165548], [-113.588938566951, 53.6266359288049], [-113.588985175968, 53.6266148112495], [-113.589031747446, 53.626593662995], [-113.589078291923, 53.6265724885709], [-113.589124798842, 53.6265512852449], [-113.58917127122, 53.6265300539262], [-113.589217706032, 53.6265087946045], [-113.589265601863, 53.6264868259025], [-113.589313457128, 53.6264648264903], [-113.589361271828, 53.6264427963679], [-113.589409045962, 53.6264207355353], [-113.589456779539, 53.6263986430941], [-113.589504475557, 53.6263765217503], [-113.589552134023, 53.6263543706055], [-113.589599751906, 53.6263321905478], [-113.589645819792, 53.6263106898797], [-113.589691850113, 53.6262891612089], [-113.58973784286, 53.6262676054341], [-113.589783799561, 53.6262460207633], [-113.58982971867, 53.6262244107857], [-113.589875601725, 53.6262027728108], [-113.589921445702, 53.6261811068283], [-113.589967255128, 53.6261594137524], [-113.590014503092, 53.6261369887459], [-113.590061713496, 53.6261145348375], [-113.590108886339, 53.626092052027], [-113.590156020101, 53.6260695412081], [-113.590203107225, 53.6260470023547], [-113.590250155286, 53.6260244336958], [-113.590297164266, 53.6260018370285], [-113.590344134166, 53.6259792123529], [-113.590350394213, 53.6259761938621], [-113.590356651254, 53.6259731735635], [-113.590362908303, 53.625970152366], [-113.590405146759, 53.6259497201975], [-113.59044735365, 53.6259292654415], [-113.590489531989, 53.6259087890069], [-113.590531678754, 53.6258882908834], [-113.590565631784, 53.6258717840915], [-113.590599542752, 53.6258552474928], [-113.590633411674, 53.6258386792903], [-113.59066723703, 53.6258220803773], [-113.590680058065, 53.6258158637749], [-113.590692873094, 53.6258096426577], [-113.590705682107, 53.6258034179243], [-113.590718486616, 53.6257971895797], [-113.590925905808, 53.6256949809203], [-113.591132525393, 53.6255921967714], [-113.591345730855, 53.6254850927849], [-113.591625869186, 53.6253427855623], [-113.591713116576, 53.6252980829245], [-113.591998182815, 53.6251507973008], [-113.592025906642, 53.6251363661606], [-113.592353943739, 53.6249642167077], [-113.592439916059, 53.6249186537442], [-113.59281639881, 53.6247170712526], [-113.592996779626, 53.6246192545602], [-113.593023941232, 53.6246044294938], [-113.593382443258, 53.6244070775269], [-113.593684473293, 53.6242382776594], [-113.593901317501, 53.6241155640535], [-113.59411712232, 53.6239921896639], [-113.594364777692, 53.6238490092691], [-113.594740353515, 53.6236285886852], [-113.594812030185, 53.6235860757357], [-113.594838125489, 53.6235705547368], [-113.594994588436, 53.6234770760098], [-113.595349716998, 53.6232622499073], [-113.595723924906, 53.6230317295929], [-113.595750105685, 53.6230154179282], [-113.595796141533, 53.6229867548536], [-113.595842117188, 53.6229580574118], [-113.595888031138, 53.6229293255977], [-113.595933883382, 53.6229005594115], [-113.595979675432, 53.6228717588581], [-113.596025407297, 53.6228429230393], [-113.596071075936, 53.6228140537419], [-113.596116684382, 53.6227851500777], [-113.596162231114, 53.6227562129402], [-113.596212090962, 53.6227244876466], [-113.596261884584, 53.6226927252668], [-113.59631161198, 53.6226609258008], [-113.596361270136, 53.6226290883401], [-113.596410862056, 53.6225972146919], [-113.596460386247, 53.6225653030542], [-113.596509841181, 53.6225333552191], [-113.596559229888, 53.6225013702983], [-113.596591516765, 53.6224804207614], [-113.596623772024, 53.6224594549347], [-113.596655994179, 53.6224384701174], [-113.596688183213, 53.6224174681067], [-113.596736937208, 53.6223856022828], [-113.59678562497, 53.6223537002725], [-113.596834244986, 53.6223217620707], [-113.596882797258, 53.6222897876775], [-113.596931281785, 53.6222577770931], [-113.59697970007, 53.622225731221], [-113.59702805061, 53.6221936491578], [-113.597076333406, 53.6221615309036], [-113.597125614768, 53.6221286647731], [-113.597174826881, 53.6220957615472], [-113.597223966719, 53.6220628212159], [-113.597273035804, 53.6220298428856], [-113.597322034118, 53.6219968283537], [-113.59735082498, 53.6219773881559], [-113.597379591744, 53.6219579361885], [-113.597408332907, 53.6219384715479], [-113.59743704999, 53.6219189933406], [-113.597491504486, 53.621881997484], [-113.597660614595, 53.6217671256249], [-113.597889036583, 53.6216119499397], [-113.598197369926, 53.6214024754725], [-113.598291509166, 53.6213807266699], [-113.598458602048, 53.6213421170697], [-113.599214261922, 53.6211675365971], [-113.599758333171, 53.6210418432767], [-113.600077406724, 53.6209681294578], [-113.600377440599, 53.6208988145], [-113.600656744616, 53.6208342828935], [-113.600949018357, 53.6207667458727], [-113.601218016073, 53.6207045930976], [-113.601514068722, 53.6206361821811], [-113.601992432471, 53.6205256554181], [-113.60216879708, 53.6202337197135], [-113.602243825142, 53.6201095050437], [-113.602629360526, 53.6194713222503], [-113.602846188578, 53.6191126012439], [-113.60284339883, 53.6185664125726], [-113.602842792832, 53.6184464502285], [-113.603151267234, 53.618607776628], [-113.603299514066, 53.6186859732728], [-113.603974171336, 53.6190389470203], [-113.604042283797, 53.6190745982094], [-113.604303765221, 53.6192113991911], [-113.604431367473, 53.6191246042157], [-113.604626073629, 53.6189921525785], [-113.604758595065, 53.6189020065006], [-113.605398869156, 53.6184664259184], [-113.605382950337, 53.6184404941622], [-113.605375249886, 53.6184275542974], [-113.605367663011, 53.6184145905448], [-113.605360188194, 53.6184016037978], [-113.605352826937, 53.6183885949601], [-113.605345579249, 53.6183755631332], [-113.605338445121, 53.6183625092156], [-113.605331424552, 53.6183494332073], [-113.605324517535, 53.6183363360069], [-113.605317725581, 53.6183232176194], [-113.60531104717, 53.6183100789385], [-113.605304483821, 53.6182969190705], [-113.605298034006, 53.6182837398076], [-113.605291699237, 53.6182705411548], [-113.605285481025, 53.6182573231171], [-113.605279376346, 53.6182440856846], [-113.605273386705, 53.6182308297608], [-113.605267513611, 53.6182175553507], [-113.605261755545, 53.6182042633478], [-113.60525611402, 53.6181909537574], [-113.605250587522, 53.6181776265743], [-113.605245177546, 53.6181642836005], [-113.605239882598, 53.6181509230343], [-113.605234705684, 53.6181375466824], [-113.605229645283, 53.6181241554387], [-113.605224699902, 53.6181107475009], [-113.605219872537, 53.6180973255747], [-113.605215161685, 53.6180838887566], [-113.605210567347, 53.6180704370467], [-113.605206091025, 53.6180569713484], [-113.605201731199, 53.6180434925554], [-113.605197489381, 53.6180300006726], [-113.60519336557, 53.6180164957001], [-113.605189358246, 53.6180029785315], [-113.60518546893, 53.6179894482732], [-113.605181697604, 53.6179759067223], [-113.605178044269, 53.6179623538788], [-113.605174508915, 53.6179487906413], [-113.605171091559, 53.6179352152127], [-113.605167792176, 53.6179216302887], [-113.605164610766, 53.6179080358693], [-113.605161548849, 53.6178944310609], [-113.605158604896, 53.6178808176557], [-113.605155778916, 53.617867194755], [-113.605153072411, 53.6178535632626], [-113.605150483862, 53.6178399240719], [-113.60514801478, 53.6178262771879], [-113.605145663653, 53.6178126226057], [-113.605143431984, 53.6177989612288], [-113.605141319773, 53.6177852930573], [-113.605139325509, 53.617771618086], [-113.605137450686, 53.6177579381173], [-113.60513569532, 53.6177442513538], [-113.605134057876, 53.6177305604864], [-113.605132539873, 53.6177168646214], [-113.605131142821, 53.6177031637639], [-113.60512986369, 53.6176894588025], [-113.605128703983, 53.6176757506406], [-113.605127663708, 53.6176620383798], [-113.605126742847, 53.6176483238171], [-113.60512594141, 53.6176346060541], [-113.605125259388, 53.6176208859892], [-113.60512469526, 53.617607164516], [-113.605124252058, 53.6175934407459], [-113.605123928254, 53.6175797164712], [-113.605123723856, 53.6175659907932], [-113.605123638847, 53.617552265509], [-113.605123673235, 53.6175385397201], [-113.605123828523, 53.61752481433], [-113.605124101689, 53.6175110893288], [-113.605124494234, 53.61749736562], [-113.60512500616, 53.6174836432036], [-113.605125638977, 53.6174699220846], [-113.605126389654, 53.6174562031515], [-113.605127259694, 53.6174424873079], [-113.605128250608, 53.6174287745588], [-113.605129359382, 53.6174150639957], [-113.60513058751, 53.6174013574206], [-113.605131934984, 53.6173876557322], [-113.60513340182, 53.6173739571332], [-113.605134989513, 53.6173602634259], [-113.60513669352, 53.6173465754937], [-113.605138518384, 53.617332892453], [-113.605140462584, 53.6173192151976], [-113.605142524601, 53.6173055446208], [-113.605144705955, 53.6172918798292], [-113.605147006629, 53.6172782226198], [-113.60514942663, 53.6172645720941], [-113.605151964431, 53.6172509300442], [-113.60515462156, 53.6172372946779], [-113.60515739648, 53.617223668686], [-113.605160290711, 53.6172100511749], [-113.605163302732, 53.6171964430381], [-113.605166434064, 53.617182843382], [-113.605169683179, 53.6171692539988], [-113.605173050075, 53.6171556748885], [-113.605176536257, 53.6171421069545], [-113.605180138709, 53.6171285492884], [-113.605183860446, 53.6171150027987], [-113.605187699948, 53.6171014683789], [-113.605191657223, 53.6170879451304], [-113.605195732254, 53.6170744348505], [-113.605199925042, 53.617060937539], [-113.605204234075, 53.6170474531909], [-113.605208660864, 53.6170339818112], [-113.6052132054, 53.6170205242986], [-113.605217866164, 53.6170070815465], [-113.605222644676, 53.6169936526613], [-113.605227539407, 53.6169802394352], [-113.605232551876, 53.6169668409745], [-113.605237679054, 53.616953458168], [-113.605242923962, 53.6169400910254], [-113.60524828508, 53.6169267404404], [-113.605253762408, 53.6169134064129], [-113.605259354435, 53.616900088938], [-113.605265064168, 53.6168867898227], [-113.60527088859, 53.6168735081585], [-113.605276827694, 53.6168602448439], [-113.605282883, 53.6168469989853], [-113.60528905298, 53.6168337723749], [-113.605295339135, 53.6168205659161], [-113.605301739972, 53.6168073778069], [-113.605308253962, 53.6167942098393], [-113.605314884128, 53.6167810620234], [-113.605321628951, 53.6167679352526], [-113.605328486926, 53.6167548286234], [-113.605335458038, 53.6167417439329], [-113.605342543797, 53.6167286811861], [-113.605349744212, 53.6167156394844], [-113.605357056244, 53.6167026206149], [-113.605364482914, 53.6166896245875], [-113.6053720212, 53.6166766513923], [-113.605379674125, 53.6166637010393], [-113.605387437138, 53.6166507753105], [-113.605395314781, 53.6166378733223], [-113.605403304032, 53.6166249950648], [-113.605411404873, 53.616612142335], [-113.605419617314, 53.6165993142344], [-113.605427941336, 53.6165865125601], [-113.605436376957, 53.6165737355148], [-113.60544492416, 53.6165609848958], [-113.605453581426, 53.6165482615965], [-113.60546234877, 53.6165355638199], [-113.605471227679, 53.6165228942665], [-113.605480216659, 53.6165102511342], [-113.605489315692, 53.6164976362201], [-113.605498523259, 53.6164850504179], [-113.605507840888, 53.6164724919352], [-113.605517268562, 53.6164599625693], [-113.605526803258, 53.61644746231], [-113.605536447991, 53.616434992066], [-113.605546201249, 53.6164225518322], [-113.605556061529, 53.616410140705], [-113.605566030325, 53.6163977604865], [-113.605576106119, 53.6163854120703], [-113.605586290437, 53.6163730936642], [-113.605596581752, 53.6163608070603], [-113.605606978553, 53.6163485522536], [-113.605617482342, 53.6163363301476], [-113.605627888457, 53.6163243719032], [-113.605638395524, 53.616312445441], [-113.605649005053, 53.616300550766], [-113.605659715526, 53.6162886887717], [-113.605670526951, 53.6162768585596], [-113.60568143932, 53.6162650610281], [-113.605692451112, 53.6162532970708], [-113.60570356535, 53.6162415666977], [-113.6057147775, 53.6162298698938], [-113.605726090585, 53.616218206669], [-113.605737503085, 53.6162065779168], [-113.605749014992, 53.6161949845359], [-113.605760624811, 53.616183424724], [-113.605772334028, 53.6161719011818], [-113.605784141148, 53.6161604121072], [-113.605796046147, 53.6161489601959], [-113.605808049042, 53.6161375436506], [-113.605820149823, 53.6161261633699], [-113.60583234698, 53.6161148193488], [-113.605844640495, 53.6161035133844], [-113.605857030386, 53.6160922436795], [-113.605869516636, 53.6160810120313], [-113.605882097741, 53.6160698175361], [-113.605894775197, 53.6160586619961], [-113.605907547499, 53.6160475445076], [-113.605920414641, 53.6160364659692], [-113.605933376622, 53.6160254263809], [-113.60594643193, 53.6160144257377], [-113.605959582069, 53.6160034649429], [-113.605972824016, 53.6159925439868], [-113.605986160793, 53.6159816628792], [-113.60599958937, 53.6159708225086], [-113.606013109746, 53.6159600228751], [-113.606026723433, 53.6159492639835], [-113.606040427408, 53.615938545824], [-113.606054223166, 53.6159278701985], [-113.606068110724, 53.61591723531], [-113.606082088552, 53.6159066429505], [-113.606096156653, 53.61589609312], [-113.606110313513, 53.6158855858135], [-113.606124560645, 53.6158751210359], [-113.60613889804, 53.6158646996858], [-113.606153322676, 53.6158543217532], [-113.606789513682, 53.6154003144207], [-113.608647631857, 53.6140689357899], [-113.608786189538, 53.6140681541019], [-113.60908674894, 53.6140664583451], [-113.609130464769, 53.6140662300006], [-113.609399824312, 53.6140645492783], [-113.609758998883, 53.6140625443926], [-113.610044492202, 53.6140609687373], [-113.610329985586, 53.6140593834155], [-113.610615494063, 53.6140577974617], [-113.610900989005, 53.6140562017971], [-113.611186497446, 53.6140546144811], [-113.611471990675, 53.6140530354207], [-113.611757468858, 53.6140514466446], [-113.612042977245, 53.6140498572855], [-113.612328472096, 53.6140482582156], [-113.612618579122, 53.6140466482322], [-113.612908671092, 53.6140450294096], [-113.613198778155, 53.6140434099327], [-113.613488870096, 53.6140417888052], [-113.613778992232, 53.6140401679707], [-113.614069099239, 53.6140385463841], [-113.614717109314, 53.6140349253939], [-113.614737997809, 53.6140348075243], [-113.614765890914, 53.6140346537885], [-113.614904023556, 53.6140338879121], [-113.614954682163, 53.6140336016015], [-113.614963107454, 53.614033546036], [-113.615258614052, 53.6140318940073], [-113.615296609256, 53.6140317492576], [-113.615566823222, 53.6140367644511], [-113.615564302524, 53.6137070560548], [-113.615563707945, 53.6136249530076], [-113.615557527552, 53.6128131223461], [-113.616035515259, 53.6123925960432], [-113.616235613945, 53.6122166080501], [-113.616292385575, 53.612166679494], [-113.616411502527, 53.6120618601971], [-113.616478595076, 53.6120028691365], [-113.616545581428, 53.6119439037568], [-113.616612566, 53.6118849473194], [-113.616679567007, 53.6118259908969], [-113.616830290666, 53.6116933353466], [-113.616986463099, 53.6115559210543], [-113.617159822333, 53.6114033826085], [-113.617309514502, 53.6112716666662], [-113.617424234774, 53.6111707429438], [-113.617538939462, 53.6110698109734], [-113.61765364361, 53.6109688779918], [-113.61776836224, 53.6108679539315], [-113.617941747975, 53.6107153686004], [-113.618163304334, 53.6105204443391], [-113.618224912025, 53.6104662449274], [-113.618529794022, 53.6101979914967], [-113.618753632918, 53.6100010237323], [-113.618774646723, 53.6099877772073], [-113.619068485257, 53.6098028032863], [-113.619201107781, 53.6097193063067], [-113.619476572285, 53.6095458646883], [-113.619732658301, 53.6093845996172], [-113.619982225763, 53.6092275034095], [-113.620214625153, 53.6090811631008], [-113.620409337759, 53.6089585324414], [-113.620723404321, 53.6087607759969], [-113.621056691008, 53.608550820162], [-113.62117136621, 53.6084785980426], [-113.62129879051, 53.6083984474859], [-113.621629941043, 53.6081898410556], [-113.621935119506, 53.6079976443305], [-113.622082134019, 53.6079050743456], [-113.622158225672, 53.6078571638133], [-113.622490060013, 53.6076481860388], [-113.622664631842, 53.60753813578], [-113.622804321118, 53.6074503177999], [-113.622971391989, 53.6073449107124], [-113.623218174745, 53.6071890174492], [-113.623366372108, 53.6070956678354], [-113.623603644365, 53.6069940796091], [-113.623778749726, 53.6069190787889], [-113.623901581026, 53.6068663907075], [-113.624079445618, 53.6067902155776], [-113.624359667242, 53.6066701635927], [-113.624693540784, 53.6065271298116], [-113.625108344736, 53.6063494762701], [-113.625352863473, 53.6062446948253], [-113.625502582214, 53.6061806763117], [-113.625652167149, 53.60611653139], [-113.625801866536, 53.6060525483849], [-113.625951312063, 53.6059885176725], [-113.626100952021, 53.605924489178], [-113.626250884451, 53.6058603104472], [-113.626400100342, 53.6057962946317], [-113.626474022492, 53.6057646794427], [-113.626623632805, 53.6057005774165], [-113.626773229061, 53.6056364760579], [-113.626930198502, 53.6055692209912], [-113.627056118104, 53.6055152875665], [-113.627086002548, 53.6055024823691], [-113.627124659152, 53.6054858935874], [-113.627235674852, 53.60543833574], [-113.6273852524, 53.6053742605155], [-113.627542189524, 53.605307022517], [-113.627699156287, 53.6052397933907], [-113.627712388432, 53.6052341177416], [-113.627727573513, 53.605227651119], [-113.627742820074, 53.6052212368038], [-113.627758128116, 53.605214874796], [-113.627773497639, 53.6052085650955], [-113.627788927131, 53.6052023076976], [-113.627804418096, 53.6051961035055], [-113.627819967512, 53.6051899525098], [-113.627835576891, 53.6051838547153], [-113.62785124472, 53.6051778101171], [-113.627866971001, 53.6051718187152], [-113.627882754206, 53.6051658823021], [-113.627897644023, 53.6051603429806], [-113.627912584778, 53.6051548523392], [-113.627927574967, 53.6051494094748], [-113.627942613071, 53.6051440152811], [-113.627957702113, 53.6051386697677], [-113.627972837568, 53.6051333720218], [-113.627988022441, 53.6051281238498], [-113.628003253728, 53.6051229234454], [-113.628018532922, 53.6051177726101], [-113.628033857003, 53.6051126713348], [-113.628049229, 53.6051076187301], [-113.628064645875, 53.6051026165838], [-113.628080899946, 53.6050974211452], [-113.6280972049, 53.6050922806764], [-113.628113557714, 53.6050871951679], [-113.628129958388, 53.6050821646198], [-113.628146406907, 53.605077190829], [-113.628162901784, 53.6050722710952], [-113.628179444506, 53.6050674081188], [-113.62819603357, 53.6050626009965], [-113.628212667465, 53.6050578497236], [-113.628229347694, 53.6050531552033], [-113.628246071244, 53.6050485165277], [-113.628262839617, 53.6050439345999], [-113.628279628594, 53.6050394147363], [-113.628296459381, 53.6050349507126], [-113.62831333348, 53.6050305434321], [-113.628330249382, 53.60502619289], [-113.628347205567, 53.6050218999802], [-113.628364203547, 53.6050176647074], [-113.628381241818, 53.6050134861683], [-113.628398318861, 53.6050093652567], [-113.628415434678, 53.6050053019727], [-113.62843258926, 53.6050012972147], [-113.628449781112, 53.604997349181], [-113.628467011721, 53.6049934605719], [-113.628484288745, 53.6049896197295], [-113.628501601504, 53.6049858383024], [-113.628518951517, 53.6049821153965], [-113.628536335772, 53.604978450104], [-113.628553755755, 53.6049748451252], [-113.628571208468, 53.604971297755], [-113.628588695406, 53.6049678097953], [-113.628606216577, 53.6049643803474], [-113.628623768945, 53.6049610111991], [-113.628641352524, 53.6049577005532], [-113.628658968818, 53.6049544493131], [-113.628676614798, 53.6049512583678], [-113.628694278321, 53.6049481339698], [-113.62871197153, 53.6049450698666], [-113.628729692921, 53.604942065155], [-113.628747443998, 53.6049391207382], [-113.628765221747, 53.6049362357082], [-113.628783026161, 53.6049334109637], [-113.628800858749, 53.6049306465093], [-113.628818716499, 53.604927941437], [-113.628836599394, 53.604925297544], [-113.628854508954, 53.6049227139363], [-113.628872440646, 53.6049201906], [-113.628890397492, 53.6049177275443], [-113.628907512721, 53.604915445188], [-113.628924647109, 53.6049132177025], [-113.628941802165, 53.6049110450925], [-113.62895897638, 53.6049089273532], [-113.628976169745, 53.6049068653833], [-113.628993382269, 53.6049048582841], [-113.629010612433, 53.6049029069494], [-113.629027858733, 53.6049010104762], [-113.629045124185, 53.6048991697723], [-113.629062404262, 53.604897383925], [-113.629079700469, 53.6048956538376], [-113.629097012806, 53.6048939795102], [-113.629115216806, 53.6048922746958], [-113.629133436881, 53.6048906319309], [-113.629151671527, 53.6048890503124], [-113.629169920745, 53.6048875298402], [-113.629188184526, 53.6048860714129], [-113.62920646136, 53.6048846750257], [-113.629224752766, 53.6048833397849], [-113.629243055722, 53.6048820656809], [-113.62926137022, 53.6048808536124], [-113.629279696261, 53.6048797035794], [-113.629298032334, 53.6048786155772], [-113.629316378438, 53.6048775896058], [-113.629334748007, 53.6048766445771], [-113.629353124593, 53.6048757606712], [-113.629371511204, 53.6048749396947], [-113.629389903315, 53.6048741807349], [-113.629408303947, 53.6048734838011], [-113.629426710078, 53.6048728488841], [-113.62944512171, 53.6048722759838], [-113.629463538842, 53.6048717651002], [-113.629481961466, 53.6048713171319], [-113.629500386577, 53.6048709302724], [-113.629518815669, 53.6048706063235], [-113.62953724724, 53.604870344382], [-113.629550246443, 53.6048701833371], [-113.62956324537, 53.6048700537406], [-113.629576245533, 53.604869955597], [-113.629589245436, 53.6048698871046], [-113.629606162711, 53.6048698469095], [-113.629623079522, 53.6048698597273], [-113.629639995886, 53.6048699237607], [-113.629656911785, 53.6048700408069], [-113.629673825718, 53.6048702099628], [-113.629690737676, 53.6048704321267], [-113.629707649179, 53.604870706405], [-113.629724557204, 53.6048710327881], [-113.629741461753, 53.6048714112762], [-113.629758362824, 53.6048718418691], [-113.629776890221, 53.6048723700453], [-113.629795411026, 53.6048729610993], [-113.629813926749, 53.6048736150358], [-113.629832435879, 53.6048743318502], [-113.629850938425, 53.6048751106439], [-113.629869431348, 53.6048759532046], [-113.629887917687, 53.6048768577446], [-113.629906394405, 53.6048778260517], [-113.629924861516, 53.6048788563288], [-113.629943319014, 53.6048799494744], [-113.629961765395, 53.6048811045853], [-113.629980199133, 53.6048823234539], [-113.629997667429, 53.6048835438278], [-113.630015123153, 53.6048848198727], [-113.630032567808, 53.6048861524919], [-113.630049998371, 53.6048875416759], [-113.630067417874, 53.6048889865355], [-113.630084823285, 53.6048904879602], [-113.630102214622, 53.6048920441525], [-113.630119591861, 53.6048936578084], [-113.630136953513, 53.6048953262274], [-113.630154301076, 53.6048970512113], [-113.630171631534, 53.6048988318522], [-113.630189622651, 53.6049007376386], [-113.630207595114, 53.6049027035699], [-113.630225548915, 53.6049047305449], [-113.63024348407, 53.6049068167662], [-113.63026139755, 53.6049089631233], [-113.630279290874, 53.6049111687222], [-113.630297164033, 53.6049134344614], [-113.630315015517, 53.6049157603364], [-113.630332843815, 53.6049181463424], [-113.630350648943, 53.6049205906823], [-113.630368432396, 53.604923095158], [-113.63038618965, 53.6049256588569], [-113.630403923719, 53.6049282826869], [-113.630421633106, 53.6049309648462], [-113.630439909163, 53.6049338087013], [-113.630458155968, 53.6049367153644], [-113.630476375024, 53.6049396857386], [-113.630494563317, 53.6049427189163], [-113.630512723878, 53.604945814008], [-113.630530852157, 53.604948972797], [-113.630548949682, 53.6049521934909], [-113.630567014926, 53.604955477882], [-113.630585049423, 53.6049588232794], [-113.630603050137, 53.6049622314709], [-113.630621017067, 53.6049657024566], [-113.630638948718, 53.6049692344346], [-113.630656846586, 53.6049728292067], [-113.630674709168, 53.6049764858698], [-113.63069253496, 53.6049802035206], [-113.630710325465, 53.6049839830624], [-113.630728077671, 53.6049878235872], [-113.630745791569, 53.6049917259938], [-113.630763468678, 53.6049956893881], [-113.630781105969, 53.6049997146595], [-113.630798703456, 53.6050038000109], [-113.630816261142, 53.6050079454422], [-113.63083362677, 53.6050121118445], [-113.630850952611, 53.6050163365298], [-113.630868235635, 53.6050206203873], [-113.630885478857, 53.6050249643248], [-113.630902679271, 53.605029366536], [-113.630919835358, 53.6050338279148], [-113.63093695014, 53.6050383484704], [-113.6309540191, 53.6050429263919], [-113.630971043733, 53.605047563481], [-113.630988024047, 53.6050522588392], [-113.631004958531, 53.6050570124618], [-113.631021845675, 53.6050618243442], [-113.631038685487, 53.6050666935879], [-113.631055479477, 53.6050716201976], [-113.631072224624, 53.6050766041638], [-113.63108892092, 53.6050816463853], [-113.63110556838, 53.605086745065], [-113.631122167006, 53.6050919002027], [-113.631138715277, 53.6050971126925], [-113.631155211684, 53.6051023825298], [-113.631171913949, 53.6051077823958], [-113.631188562823, 53.6051132414016], [-113.631205156811, 53.6051187577455], [-113.631221697425, 53.6051243314323], [-113.631238183152, 53.6051299624571], [-113.631254613993, 53.6051356508202], [-113.631270986935, 53.6051413956136], [-113.631287303481, 53.6051471977406], [-113.631303563637, 53.6051530563026], [-113.631319765887, 53.6051589721936], [-113.631335908742, 53.6051649427132], [-113.63135199369, 53.6051709705619], [-113.631368019243, 53.6051770530392], [-113.631383983875, 53.6051831919377], [-113.63139897964, 53.6051890313163], [-113.631413919086, 53.6051949190432], [-113.631428805228, 53.6052008560263], [-113.631443635044, 53.6052068422564], [-113.631458408541, 53.605212876835], [-113.631473125719, 53.605218959762], [-113.631809761534, 53.6053589345441], [-113.632032634521, 53.6054516092682], [-113.632196038059, 53.6055195478298], [-113.632345595013, 53.6055817438927], [-113.632356964068, 53.6055864685441], [-113.632517874933, 53.6056534518952], [-113.632678786931, 53.6057203631449], [-113.632839715893, 53.6057872930993], [-113.633000577268, 53.6058544095345], [-113.633161473085, 53.6059214458835], [-113.633322496983, 53.6059882317013], [-113.633483393819, 53.6060552676176], [-113.633644306274, 53.606122303364], [-113.633718563245, 53.6061532326732], [-113.633954209294, 53.6062514179766], [-113.634294106939, 53.6063929610382], [-113.634461497116, 53.6064626860725], [-113.634705219266, 53.6065642094408], [-113.635092056017, 53.6067254754873], [-113.635422830772, 53.6068631613225], [-113.635630182988, 53.6069494919128], [-113.635949450982, 53.6069517287239], [-113.636285461918, 53.6069528608835], [-113.636537725337, 53.6069547379177], [-113.636790102142, 53.6069567854957], [-113.637042393779, 53.6069587244528], [-113.637272024695, 53.6069604854703], [-113.637294700628, 53.6069606539382], [-113.637317361382, 53.606960830443], [-113.637546990812, 53.6069625909285], [-113.637799267494, 53.6069645192587], [-113.638189036748, 53.6069674540691], [-113.638610341943, 53.6069705664101], [-113.638759419994, 53.6069719564018], [-113.638763084753, 53.6068373034707], [-113.638765617468, 53.606743060157], [-113.63878348794, 53.6060929434685], [-113.638808465219, 53.6051842546184], [-113.638818475601, 53.6048200524999], [-113.638824568342, 53.6045983930741], [-113.638826092964, 53.6045429413785], [-113.63886469255, 53.6031385266737], [-113.63889065437, 53.6022723138609], [-113.638899556677, 53.6022814119621], [-113.638908431711, 53.6022905198648], [-113.638917279487, 53.6022996357719], [-113.638926101508, 53.6023087605865], [-113.638940186922, 53.6018076950509], [-113.638930851976, 53.6017993828091], [-113.638921494297, 53.6017910794838], [-113.638912115395, 53.6017827850796], [-113.638902715278, 53.6017744986979], [-113.638958941596, 53.5997562573486], [-113.63896016734, 53.5997115410313], [-113.638997658251, 53.5997116163934], [-113.639304870887, 53.5997128177195], [-113.639489907744, 53.59971220623], [-113.643900388421, 53.599697163681], [-113.643945695917, 53.5996970064521], [-113.644398675487, 53.5996954571974], [-113.644443975457, 53.5996952961631], [-113.648309735185, 53.5996819615422], [-113.650120267136, 53.599676043543], [-113.651544232287, 53.5996717138609], [-113.651601932469, 53.5996714559282], [-113.651848067015, 53.5996707129462], [-113.65754190503, 53.5996517739806], [-113.657730712026, 53.599651140583], [-113.657827414805, 53.5996508159694], [-113.658257046631, 53.5996493730432], [-113.663864321928, 53.5996304117086], [-113.664168156202, 53.5996293795131], [-113.667522596547, 53.5996178988939], [-113.667614253519, 53.5996175793108], [-113.672036445677, 53.5996022898492], [-113.672024534342, 53.5996104586068], [-113.67193019762, 53.5996827114879], [-113.671839135986, 53.5997570696782], [-113.671736479396, 53.5998400403986], [-113.671635714947, 53.5999214940161], [-113.671571495847, 53.5999632629205], [-113.671504776822, 53.6000038172273], [-113.671390034929, 53.6001167879394], [-113.671289508437, 53.6002359151662], [-113.671036704268, 53.6004268486156], [-113.67077173781, 53.6006141492289], [-113.670628175864, 53.6008022668948], [-113.670479570241, 53.6009882066997], [-113.669740880758, 53.6015656365854], [-113.669515395932, 53.6017489395026], [-113.669439914501, 53.601852560912], [-113.669381251967, 53.6019617649305], [-113.669248452593, 53.6021438586651], [-113.669097299312, 53.6023205594036], [-113.668874782712, 53.6024727153134], [-113.668624900208, 53.6026132724608], [-113.668369201335, 53.6027848519406], [-113.668359769799, 53.6027938925416], [-113.668169262089, 53.6029766015063], [-113.66802035335, 53.6032682003485], [-113.667880090449, 53.6035617118162], [-113.667803347725, 53.6036936458215], [-113.667720885652, 53.6038242923959], [-113.667627684124, 53.6039516813635], [-113.66752514443, 53.604076475256], [-113.667424141473, 53.6041846225261], [-113.667299800948, 53.6042828868801], [-113.667165200062, 53.6043626736951], [-113.667026103994, 53.6044397664702], [-113.666343798364, 53.6048188739019], [-113.666110208054, 53.6049637880005], [-113.665865485866, 53.6051010244928], [-113.6658271255, 53.6051188073378], [-113.665788073587, 53.6051369153246], [-113.665086349665, 53.60540613974], [-113.664804979444, 53.6055196009416], [-113.664534946902, 53.605642199534], [-113.66410727241, 53.6058528039056], [-113.664103297694, 53.6058546573161], [-113.664101004816, 53.6058568623012], [-113.66410664084, 53.6059183099576], [-113.664128575408, 53.6059874844691], [-113.66412477361, 53.6060576138337], [-113.664104646715, 53.6061281170195], [-113.664043437079, 53.6061832073537], [-113.664018755642, 53.6062054230004], [-113.663955927998, 53.6062619878197], [-113.663897553214, 53.6063202122193], [-113.663797415558, 53.6064201017296], [-113.663761000727, 53.6064542364532], [-113.663724665037, 53.6064882914138], [-113.663427648332, 53.6068325467537], [-113.663378470538, 53.6068791735512], [-113.663093752333, 53.6070986283854], [-113.662798399128, 53.6073138633666], [-113.662697365569, 53.6073998473995], [-113.662595149528, 53.6074868443134], [-113.662393791463, 53.6076573636298], [-113.662193084432, 53.6078273237246], [-113.662088627392, 53.6079157965436], [-113.661986664078, 53.6080052683525], [-113.661834645, 53.6081804567262], [-113.661696414565, 53.6083604580667], [-113.661375600305, 53.6087122843436], [-113.661197556675, 53.6089169572352], [-113.661028845468, 53.6091243682209], [-113.660890956686, 53.6093148497833], [-113.660762429586, 53.6095076922436], [-113.660631114401, 53.6097211509923], [-113.660494997671, 53.6099334412881], [-113.660290252289, 53.6102222650706], [-113.660083853027, 53.6105115914961], [-113.660038531089, 53.6105794650233], [-113.659920355197, 53.6107756068015], [-113.65980863557, 53.6109731775884], [-113.659685758808, 53.611154382955], [-113.659561078529, 53.6113351813936], [-113.659512864347, 53.611456566233], [-113.659457341592, 53.6115761600428], [-113.659373203695, 53.6116509911315], [-113.659289987499, 53.6117267314568], [-113.659195553672, 53.6118520767373], [-113.659106293032, 53.6119787656836], [-113.659035810299, 53.6120840732039], [-113.658978817002, 53.6121917985712], [-113.658882604354, 53.6124485440426], [-113.658793216523, 53.6127075077216], [-113.658723376336, 53.6128788655867], [-113.658662618992, 53.6130513500773], [-113.658656924376, 53.6131432375319], [-113.658658471511, 53.6132356389613], [-113.658625468398, 53.6135606475352], [-113.658612539517, 53.613687966223], [-113.65860213616, 53.6138157908253], [-113.658590979686, 53.6140866015153], [-113.658590844121, 53.6140899187044], [-113.658979761612, 53.6142229738701], [-113.660529848091, 53.6147512167175], [-113.660758565459, 53.6147167889387], [-113.660986786412, 53.6146974986746], [-113.661215213153, 53.6146789040627], [-113.661571322997, 53.6146427792894], [-113.661669367028, 53.6146328323753], [-113.661825779792, 53.6146370008414], [-113.661983118438, 53.6146463412763], [-113.66209883764, 53.6146321846338], [-113.662179815082, 53.6146334771418], [-113.662254398766, 53.6146489599762], [-113.662535881673, 53.614758967943], [-113.662647064527, 53.6148022337231], [-113.662851770119, 53.6148651687118], [-113.663065830413, 53.6149178849184], [-113.663281158481, 53.6149663153627], [-113.663498122351, 53.6150128216546], [-113.663705670178, 53.6150730440511], [-113.663885957199, 53.6151253628629], [-113.663913322576, 53.6151333032219], [-113.664143768371, 53.6151599587198], [-113.664190520868, 53.6151650761466], [-113.664375136337, 53.6151852747725], [-113.664574387631, 53.6152587220245], [-113.664778255489, 53.6153235060379], [-113.664942520835, 53.6153386839069], [-113.665099408913, 53.6153652718036], [-113.665120982528, 53.6153722126283], [-113.665142322971, 53.6153794017047], [-113.665200645302, 53.615400807399], [-113.665258501595, 53.6154226763297], [-113.665494642226, 53.615462566923], [-113.665718084215, 53.6155124417014], [-113.665821712312, 53.615580116834], [-113.665913375291, 53.6156540521652], [-113.665961611975, 53.6156965775226], [-113.666012781206, 53.6157376786994], [-113.66614436716, 53.6158079673649], [-113.666264450915, 53.6158833169905], [-113.666302899208, 53.615920184384], [-113.666334357861, 53.6159503728701], [-113.666370338419, 53.6159811068127], [-113.666407619675, 53.616011333075], [-113.666468005953, 53.61607861574], [-113.666517817739, 53.6161494138272], [-113.666549386094, 53.6162102155367], [-113.666574649194, 53.6162724122475], [-113.666691435026, 53.6163996850383], [-113.666809743953, 53.6165266950718], [-113.666724873684, 53.6166766850258], [-113.666568073095, 53.6168285089544], [-113.666507861335, 53.6169734491018], [-113.666531239185, 53.6171103821102], [-113.666646902295, 53.6171740275333], [-113.666754581431, 53.6172400022102], [-113.666790289429, 53.6172976577436], [-113.666814483877, 53.6173573156113], [-113.666850583119, 53.6174946784369], [-113.666848431103, 53.6176321091121], [-113.666769169937, 53.6179193473647], [-113.666828778994, 53.6180517830991], [-113.666951904222, 53.6181076510708], [-113.667069788877, 53.6181642429746], [-113.667103972451, 53.6182995965321], [-113.667135332225, 53.6184352513366], [-113.667162688701, 53.6185126874153], [-113.667183782595, 53.6185897035076], [-113.667130494054, 53.6185936061421], [-113.66705104265, 53.6185911926175], [-113.667046761698, 53.6186425833139], [-113.667094920688, 53.6187001700378], [-113.667297943135, 53.6187876114321], [-113.667488897037, 53.6188779123948], [-113.667545454985, 53.6190184606729], [-113.667622147584, 53.6192309605384], [-113.667669971961, 53.6192943886873], [-113.667797189469, 53.6193103017133], [-113.66792906401, 53.6193228847917], [-113.667975361605, 53.6193498296667], [-113.668020347205, 53.619377569726], [-113.668208905635, 53.6195013584965], [-113.668394824084, 53.6195816562783], [-113.668607466861, 53.619640010659], [-113.668824468868, 53.6196891159162], [-113.669040303122, 53.6197397622159], [-113.669249306538, 53.6197979409489], [-113.669457159911, 53.6198561781421], [-113.669758688296, 53.6199412481757], [-113.66987481223, 53.6199728176543], [-113.670072603864, 53.6200437382891], [-113.670330202225, 53.6201574638263], [-113.670401198897, 53.6201888015622], [-113.670428926408, 53.6202103953966], [-113.670453015598, 53.6202341789405], [-113.670801192345, 53.6202568234457], [-113.671087529484, 53.6202979174783], [-113.671133005095, 53.6204339262611], [-113.671164910164, 53.620571483743], [-113.671188132043, 53.6206715527114], [-113.67119882778, 53.6207278217484], [-113.671209538506, 53.6207841105939], [-113.671161484356, 53.6208693323527], [-113.671096113135, 53.6209544337236], [-113.671084899676, 53.6210961976095], [-113.671146250953, 53.621229054628], [-113.67118113633, 53.6212549011752], [-113.671228885357, 53.6212694869507], [-113.671458614109, 53.6212907959226], [-113.671693683168, 53.6213015616423], [-113.671808487474, 53.6213121886148], [-113.671923414185, 53.6213228256971], [-113.672130308514, 53.6211637726949], [-113.672337480131, 53.6209823750136], [-113.672575855255, 53.6209797852167], [-113.672814299962, 53.6209908652873], [-113.673050344719, 53.6209974391195], [-113.673279538626, 53.6210194314524], [-113.673714864349, 53.6211090853471], [-113.674049497597, 53.62117560803], [-113.674153069588, 53.6211961980095], [-113.674218761381, 53.6212092553188], [-113.674283048564, 53.6212241490688], [-113.674577473305, 53.6213111420085], [-113.674656111053, 53.6213343873671], [-113.674696142571, 53.6213495519334], [-113.674713557014, 53.6213556799736], [-113.674728679107, 53.6213558468693], [-113.674792069364, 53.6213346966231], [-113.675210072418, 53.6211952418867], [-113.675438419933, 53.6211351610545], [-113.675682817328, 53.6211102758606], [-113.675915556358, 53.6211036070368], [-113.676143504119, 53.6211190515169], [-113.676182232503, 53.6211275823117], [-113.676220794938, 53.6211360749045], [-113.676459567544, 53.6211647949799], [-113.676473610839, 53.6211664881284], [-113.676512540274, 53.621173447737], [-113.67655140783, 53.6211803972813], [-113.676779727472, 53.6211690098519], [-113.676999487276, 53.6211169074361], [-113.677686667106, 53.6209332337557], [-113.677866100725, 53.6214076889895], [-113.678016517354, 53.6218054382703], [-113.678024466343, 53.6218264523559], [-113.678072560336, 53.6218088086334], [-113.678117040902, 53.6217924922667], [-113.678293011281, 53.6217133481609], [-113.678373989916, 53.6216767606995], [-113.678485378715, 53.621626434658], [-113.678602456303, 53.6215808835835], [-113.678676449545, 53.6215654594662], [-113.678753494301, 53.6215536216517], [-113.678857753023, 53.6215261756257], [-113.678961951093, 53.6214987374335], [-113.679080473075, 53.621476655371], [-113.679201519917, 53.6214594394966], [-113.679354113133, 53.6214492262029], [-113.679503136806, 53.6214297639234], [-113.679608241381, 53.6214018863916], [-113.679711849527, 53.6213744046332], [-113.67981326196, 53.6213518456413], [-113.67983239135, 53.6213471558841], [-113.680265567976, 53.621241061541], [-113.680508083583, 53.6211784569141], [-113.680695475252, 53.621130091081], [-113.680915675208, 53.6210758727814], [-113.681132996373, 53.6210179083014], [-113.681321337972, 53.6209176813817], [-113.681476422021, 53.6207925018671], [-113.681685632132, 53.6206399326067], [-113.681896232768, 53.6204863530719], [-113.682046662768, 53.6203823175918], [-113.682182621795, 53.6202722679197], [-113.682268777558, 53.6201707796966], [-113.682355010587, 53.6200692116413], [-113.682423482479, 53.6199944892071], [-113.682661233948, 53.6197421244824], [-113.682919281126, 53.6194999203119], [-113.683177062022, 53.6192579637816], [-113.683302019311, 53.6191230890872], [-113.683426977313, 53.6189882142622], [-113.683515121774, 53.6188930779813], [-113.683597690172, 53.6187963696494], [-113.683603857084, 53.6186968417538], [-113.68358004207, 53.6185930822461], [-113.683594983369, 53.6185421136414], [-113.683599688507, 53.6184915358181], [-113.683560764882, 53.6184275912465], [-113.683505612967, 53.6183670570091], [-113.683427923905, 53.6182997183713], [-113.683354660693, 53.6182311064157], [-113.683326208643, 53.6181588065781], [-113.683333223316, 53.6181088387203], [-113.683515665235, 53.6180974464705], [-113.683682536407, 53.6181276450777], [-113.683742884488, 53.61813151929], [-113.684060790189, 53.6181413644457], [-113.684229877168, 53.6181270549962], [-113.684613904739, 53.6181457902633], [-113.684896480482, 53.6181414592954], [-113.685122736962, 53.6181637384396], [-113.685519118667, 53.618186959377], [-113.685907265574, 53.6181841272207], [-113.686076491686, 53.618163835454], [-113.686312781531, 53.6181664749558], [-113.686411073188, 53.6181705299261], [-113.686502854136, 53.6181884526779], [-113.686691502611, 53.6182533831609], [-113.68701032353, 53.6183293181943], [-113.687088622681, 53.618355195447], [-113.687196516372, 53.6184651379055], [-113.687324946793, 53.6185503051506], [-113.687671825337, 53.6187632998675], [-113.687768965061, 53.618847476509], [-113.687942018709, 53.6189447331022], [-113.688158560537, 53.6190356500218], [-113.68822313901, 53.6191197297717], [-113.688311361654, 53.6191988443812], [-113.688531606066, 53.6193650167386], [-113.688666156391, 53.6194500429952], [-113.688954354284, 53.6196150254475], [-113.689258113489, 53.6197889282973], [-113.68962005695, 53.6199752388318], [-113.689951131535, 53.6201923427296], [-113.690057647157, 53.6202411708376], [-113.690137898581, 53.6202779572408], [-113.690437087632, 53.6204688293582], [-113.690608750907, 53.6205547904566], [-113.690840177215, 53.6206304246057], [-113.691413478974, 53.6206175131686], [-113.691653148178, 53.6205851779659], [-113.692560310697, 53.6203581687386], [-113.693145248687, 53.6202911132037], [-113.693401729815, 53.6202853527602], [-113.6936297558, 53.6203071584577], [-113.693988168807, 53.620478740492], [-113.69420338516, 53.6205367719709], [-113.694405237967, 53.620622049927], [-113.695206816624, 53.6214113827239], [-113.695243473375, 53.6214474741899], [-113.695358222408, 53.6215885993941], [-113.695726171294, 53.622146177714], [-113.695934669878, 53.6225726034223], [-113.696269148172, 53.6235530784469], [-113.696407245905, 53.623844967602], [-113.696489898109, 53.6240197169723], [-113.696489674093, 53.6241678701958], [-113.696118544966, 53.6245085561891], [-113.695543023253, 53.6249616354042], [-113.69556521415, 53.6250072553623], [-113.695597477311, 53.6250735773104], [-113.695895778156, 53.6250435105384], [-113.696134693005, 53.6250745935776], [-113.69618204607, 53.6252113495111], [-113.696083862861, 53.6253303421509], [-113.695894012072, 53.6254334260952], [-113.695888093989, 53.6255772821759], [-113.695972115731, 53.6257101308448], [-113.696287633211, 53.6259186031324], [-113.696878381434, 53.6259412324672], [-113.697093058908, 53.6259902867499], [-113.697192177986, 53.6261227953455], [-113.697110815405, 53.6262683476183], [-113.697165242451, 53.6264108458962], [-113.697263792067, 53.6265343824358], [-113.697406463003, 53.6266389562272], [-113.697635095995, 53.6266697361932], [-113.698147750437, 53.626415646687], [-113.698996181622, 53.6264504214056], [-113.699167885057, 53.626536369297], [-113.698878715624, 53.6267405099618], [-113.698811862946, 53.6268767609063], [-113.69891098955, 53.6270092581849], [-113.69956199038, 53.6270905603163], [-113.699642147818, 53.6271005676932], [-113.699957868984, 53.6270754811979], [-113.700465168, 53.6269742018921], [-113.700692662191, 53.6269870401618], [-113.700890565179, 53.6270496376218], [-113.701113668769, 53.627120215083], [-113.701274520904, 53.6271710881454], [-113.701345248459, 53.6271887078965], [-113.701411538668, 53.627188230779], [-113.701448628738, 53.6272115022092], [-113.701488515842, 53.6272387783937], [-113.701540910233, 53.6272553539855], [-113.701560620978, 53.6272662148653], [-113.701885494563, 53.6274451969782], [-113.702082611594, 53.6276922702526], [-113.702154383345, 53.6277478958425], [-113.702247713366, 53.6278202293285], [-113.702262268228, 53.6278581569281], [-113.702375362216, 53.6279317741198], [-113.702452050663, 53.6280342512258], [-113.702909148668, 53.6283293566444], [-113.703111628137, 53.6284235918411], [-113.703312377402, 53.6284909197677], [-113.704012980364, 53.628632535417], [-113.70403192527, 53.6286363652868], [-113.704203649263, 53.628722315837], [-113.704259126902, 53.6287592830729], [-113.704503563831, 53.6289221435867], [-113.704719983726, 53.628998091973], [-113.704949192056, 53.6290378289969], [-113.705149945595, 53.6291051628248], [-113.705765007858, 53.6293250332838], [-113.705835769824, 53.6293745725612], [-113.705962587505, 53.629533339983], [-113.706155971627, 53.6295559486865], [-113.70637163242, 53.6295156669883], [-113.706536467592, 53.6295398323786], [-113.706867344453, 53.6298839990994], [-113.706754338806, 53.6300567585518], [-113.706798337446, 53.6301231340036], [-113.707061550914, 53.6302642212639], [-113.707080437803, 53.6304536003593], [-113.706987978409, 53.6305184798943], [-113.706813998615, 53.6305772551546], [-113.70678433806, 53.6306930231142], [-113.706816118844, 53.6307219561942], [-113.70698915328, 53.6307744103974], [-113.707019696434, 53.6308626593355], [-113.706767322615, 53.6310550620515], [-113.706752169524, 53.6312925837426], [-113.706519449188, 53.631553691958], [-113.706525473722, 53.6316488943258], [-113.70672060817, 53.6318933975142], [-113.706957697907, 53.631932561391], [-113.707195086546, 53.631897607866], [-113.707457474521, 53.6319421342549], [-113.707621500572, 53.632178390033], [-113.707560394424, 53.6322385220839], [-113.707418684664, 53.63227668811], [-113.707190752544, 53.6322812158922], [-113.70703748593, 53.6323785283536], [-113.706750265176, 53.6324755547922], [-113.706710818781, 53.6325496477007], [-113.706763110075, 53.6325934540236], [-113.707060282985, 53.632658954887], [-113.707341858095, 53.6327661254139], [-113.707371218567, 53.632838142069], [-113.707366482485, 53.6328636313202], [-113.707340512229, 53.6329140770684], [-113.70726212043, 53.6329461462539], [-113.707167535573, 53.6329643978382], [-113.70708166297, 53.6329824927463], [-113.707042645942, 53.6330029118747], [-113.707003182742, 53.633078123565], [-113.706968100713, 53.633163158469], [-113.706891265256, 53.6332345090898], [-113.706720974497, 53.6332798639418], [-113.706606451406, 53.6333012247478], [-113.706500749579, 53.6333539989943], [-113.706449620107, 53.6334256477783], [-113.706440977304, 53.6335364341849], [-113.70645300573, 53.633637927834], [-113.706449514319, 53.6337564861139], [-113.706459969456, 53.6338324247556], [-113.706460171208, 53.6338843847864], [-113.706413098286, 53.633961785427], [-113.706354235749, 53.6340171634674], [-113.70635132636, 53.6340690592551], [-113.706408986845, 53.6341112695316], [-113.706499413816, 53.6341222194168], [-113.706611285242, 53.6341109675387], [-113.706728505587, 53.6340763988075], [-113.706844601306, 53.6340914971575], [-113.706885032285, 53.6341617106154], [-113.706865765694, 53.6342156726364], [-113.706770951063, 53.6342746946477], [-113.70672401712, 53.6343667372199], [-113.706655908517, 53.6344594809001], [-113.706642642938, 53.6344969946903], [-113.70667489436, 53.6345075161226], [-113.706703769914, 53.6345084189549], [-113.706747903145, 53.6344786402762], [-113.706867221995, 53.6344551093245], [-113.706939735146, 53.6344879035381], [-113.706999902921, 53.6345347823986], [-113.707090188089, 53.6346163428565], [-113.707128501783, 53.6347007477204], [-113.707143924999, 53.6347801777466], [-113.706998271796, 53.6348616281357], [-113.706882971802, 53.634905043864], [-113.706859344336, 53.6350033051092], [-113.706854361297, 53.6351541960416], [-113.706822234895, 53.6352847602049], [-113.706595872234, 53.6353880393274], [-113.706408724316, 53.6354160727098], [-113.706226630943, 53.6354527535624], [-113.706165102141, 53.6355220439686], [-113.706189211366, 53.6356156292006], [-113.706237792385, 53.6356361749511], [-113.706320440576, 53.6356310203871], [-113.706366694631, 53.6356043417669], [-113.70648871447, 53.6355822923885], [-113.706619852323, 53.6356119416988], [-113.706694135387, 53.6356703616165], [-113.706728605894, 53.6357264231369], [-113.706722184124, 53.6357731542591], [-113.706691443062, 53.6358396664582], [-113.706560771755, 53.6359361539129], [-113.706516299612, 53.6360219321202], [-113.706506736216, 53.6360620563523], [-113.706512496231, 53.6360677971264], [-113.706567265282, 53.6361024431593], [-113.7066746621, 53.6362293666493], [-113.70672858688, 53.6363526572945], [-113.706733807903, 53.6364341623417], [-113.706708281044, 53.6365063591505], [-113.706550361968, 53.6365714678974], [-113.706513075417, 53.6365906061166], [-113.706469809723, 53.636652762679], [-113.706529770329, 53.6366976167464], [-113.706519387884, 53.6367596589368], [-113.706504127982, 53.6367820222373], [-113.706410011741, 53.6369812736115], [-113.706274605248, 53.6372268586454], [-113.706020742758, 53.6375110639219], [-113.705697341264, 53.6376531148604], [-113.705562660753, 53.637674113305], [-113.704777671537, 53.6379254045516], [-113.704440295318, 53.6380857360877], [-113.704295110999, 53.6381788398028], [-113.704198093707, 53.6383157746917], [-113.704158389924, 53.6386400370664], [-113.704091535286, 53.6387762906846], [-113.70396257449, 53.6388869887477], [-113.7036402848, 53.6390469779155], [-113.703189632433, 53.6393266273601], [-113.703060682715, 53.6394373244735], [-113.7029154892, 53.6395304264804], [-113.702361206016, 53.6398073400096], [-113.702346898277, 53.639814477803], [-113.702286670032, 53.6398445715565], [-113.702222925523, 53.639887198015], [-113.701920386442, 53.6401003467266], [-113.701939357197, 53.6401059301085], [-113.713159102078, 53.6434075365689], [-113.713220916198, 53.6434257101445], [-113.713386750454, 53.6434730139779], [-113.713691700076, 53.6435634577448], [-113.71368629369, 53.6447028763389], [-113.713686202706, 53.6447187656937], [-113.71368605431, 53.6447504995545], [-113.713687942778, 53.6449077392169], [-113.713687256071, 53.6450745470757], [-113.713676013035, 53.6506577174094], [-113.713664242543, 53.6578063374228], [-113.713664282817, 53.6578961565818], [-113.713662491271, 53.6580768103042], [-113.71366202768, 53.6581233420044], [-113.713652097306, 53.6600354529126], [-113.713651754132, 53.6601258165573], [-113.713634887063, 53.6637167714798], [-113.713633709792, 53.6638513789621], [-113.71363143826, 53.6642168091481], [-113.713626178892, 53.6653126288429], [-113.713626079283, 53.6653576724168], [-113.713626127331, 53.6654028070997], [-113.71362225976, 53.6662109392017], [-113.713600188944, 53.6706885129022], [-113.713595511061, 53.6715866975327], [-113.713595176815, 53.6716495933851], [-113.713590411457, 53.6725479151437], [-113.713589068378, 53.672980664643], [-113.715119110441, 53.6729842230662], [-113.715112091416, 53.6734497354411], [-113.715098101623, 53.6753023381244], [-113.715091584538, 53.6761867874954], [-113.715070852364, 53.6792509626451], [-113.715068960165, 53.6795569000368], [-113.71476486565, 53.6795561825371], [-113.7122812528, 53.6795544386097], [-113.705033212791, 53.679539708103], [-113.70117385414, 53.6795316386316], [-113.70112481407, 53.6795315351421], [-113.700897944034, 53.6795309930801], [-113.689080704704, 53.6795027359659], [-113.688776303165, 53.6795022778685], [-113.687182132236, 53.679499864607], [-113.686955138407, 53.6794995195565], [-113.684903615723, 53.6794963793657], [-113.684901363221, 53.679759651258], [-113.68459689516, 53.6797599497485], [-113.681588086994, 53.6797626181415], [-113.681261449025, 53.6797628878534], [-113.676518664259, 53.6797669338771], [-113.674778215443, 53.6797680363213], [-113.674424109196, 53.6810336906812], [-113.674440375603, 53.6827937895846], [-113.673754355838, 53.6837278482408], [-113.672415577298, 53.6855514490861], [-113.671490614118, 53.6855863621819], [-113.669839064485, 53.6862602716055], [-113.669631243829, 53.6870244298291], [-113.669533250201, 53.6872052634596], [-113.667868426406, 53.6872082051505], [-113.664190860182, 53.6872170186498], [-113.66388610311, 53.6872177283147], [-113.651798328155, 53.6872642518255], [-113.641860882623, 53.6873071260931], [-113.641861372351, 53.6873439637188], [-113.641576501164, 53.6873791759467], [-113.641349770419, 53.6874072013671], [-113.641123060589, 53.6874352237256], [-113.64047072926, 53.6875158510512], [-113.640471570933, 53.687313617707], [-113.639711082953, 53.6873165202011], [-113.639405475682, 53.6873157650468], [-113.638888662566, 53.6873151714182], [-113.638584330827, 53.6873148412428], [-113.627245377968, 53.687302144582], [-113.624356666098, 53.6872985577481], [-113.624129732656, 53.6872982888718], [-113.618790851477, 53.6872914039115], [-113.618619864483, 53.6872911759308], [-113.615357120793, 53.687286565196], [-113.615223097217, 53.6872863827629], [-113.615084695887, 53.6872861852139], [-113.614780237219, 53.6872855146944], [-113.614780338272, 53.6871047701915], [-113.614780222237, 53.6869952460663], [-113.614775733218, 53.6829222740057], [-113.614775556563, 53.6827619998355], [-113.612196930526, 53.6813350122356], [-113.612070777298, 53.6812573594094], [-113.612005779633, 53.6812173518345], [-113.611447457774, 53.6815651483335], [-113.61124213276, 53.6816930908176], [-113.611108493089, 53.6815054530066], [-113.609953203163, 53.6798303487716], [-113.604947505449, 53.6725707301222], [-113.604654209682, 53.6721438867285], [-113.604579949691, 53.6720359524024], [-113.604443468599, 53.6718385082717], [-113.604373478593, 53.6717370271229], [-113.604303443199, 53.6716355808255], [-113.602629888598, 53.6692099466945], [-113.600408671305, 53.6659901704021], [-113.599937805554, 53.665307547334], [-113.597182365876, 53.6613124673938], [-113.597110358388, 53.661208053699], [-113.597042826093, 53.6611207900355], [-113.596890412351, 53.6611497477906], [-113.596610548484, 53.661184632646], [-113.596576668014, 53.6611854233816], [-113.596148303842, 53.6612135490771], [-113.595958433722, 53.6612165649207], [-113.59576816885, 53.6612168788984], [-113.595490087022, 53.6612568450269], [-113.595231783388, 53.6613349124507], [-113.594855919921, 53.6614992703334], [-113.594476202169, 53.66165964316], [-113.594343927871, 53.6616880539426], [-113.594219599832, 53.6617233117264], [-113.594059787557, 53.6618057431509], [-113.593899959531, 53.6618881743085], [-113.59379467194, 53.6619454359436], [-113.593689400705, 53.6620026975414], [-113.593567265874, 53.6621207239813], [-113.593531776858, 53.6622603075175], [-113.593582403596, 53.6624541403493], [-113.59369880292, 53.6626388708675], [-113.593798300967, 53.6627660114767], [-113.593933908382, 53.6629392790285], [-113.594009118671, 53.6630839600379], [-113.594043260498, 53.66323513959], [-113.594075713086, 53.6634994742192], [-113.594117759366, 53.6639819283789], [-113.594168142519, 53.6640564080581], [-113.594197935806, 53.6641299535119], [-113.594161137572, 53.6642212808332], [-113.594167427106, 53.664251661552], [-113.594186489122, 53.6643009431407], [-113.594217022996, 53.6643382073586], [-113.594226098952, 53.6643730535705], [-113.594227447296, 53.6643898768497], [-113.594241795439, 53.664461007588], [-113.594243307692, 53.6644774639031], [-113.594246371893, 53.6645087646163], [-113.59428685239, 53.664639747501], [-113.594310036104, 53.6647805552483], [-113.594326513418, 53.6649217787763], [-113.594335927062, 53.6650818647105], [-113.594438291078, 53.665304787705], [-113.594462280629, 53.6653570224842], [-113.594577069475, 53.6656740417064], [-113.594661051827, 53.665893449014], [-113.594706408601, 53.6660945805305], [-113.594732896669, 53.6661925766556], [-113.590507720447, 53.664586152969], [-113.590203984188, 53.6644706610102], [-113.58758067982, 53.6634731252196], [-113.587200453709, 53.6633250770741], [-113.578040273784, 53.6598354620343], [-113.578045183984, 53.6605333295852], [-113.57803568852, 53.6605190302618], [-113.578026085403, 53.6605047557185], [-113.578016373111, 53.6604905068486], [-113.578006554663, 53.6604762845611], [-113.577996627032, 53.6604620888454], [-113.57798659173, 53.6604479197068], [-113.57797644875, 53.6604337780439], [-113.577966199612, 53.6604196629633], [-113.577955842796, 53.6604055753583], [-113.577945379805, 53.6603915161327], [-113.577934810648, 53.660377484388], [-113.577924135307, 53.6603634819212], [-113.577913352279, 53.6603495078284], [-113.57790246458, 53.6603355630188], [-113.577891470707, 53.6603216465885], [-113.577880372154, 53.6603077603398], [-113.577869167409, 53.6602939042675], [-113.577857857994, 53.6602800774783], [-113.57784644389, 53.6602662817692], [-113.577834925108, 53.6602525162417], [-113.577823303149, 53.6602387817996], [-113.577811576503, 53.6602250784375], [-113.57779974516, 53.6602114070541], [-113.577787810633, 53.6601977676545], [-113.577775772921, 53.6601841602388], [-113.577763632026, 53.6601705848069], [-113.577751389459, 53.6601570413641], [-113.577739043691, 53.6601435317021], [-113.57772659473, 53.6601300549225], [-113.577714044081, 53.6601166119289], [-113.577701391742, 53.6601032027215], [-113.577688637715, 53.6600898273001], [-113.577675781999, 53.6600764856648], [-113.577662826089, 53.6600631796179], [-113.57764976849, 53.6600499073569], [-113.577635098094, 53.6600351359651], [-113.577620330558, 53.6600203974762], [-113.577605468891, 53.660005693698], [-113.577590511589, 53.6599910237267], [-113.577575458651, 53.6599763875622], [-113.577560311573, 53.6599617870069], [-113.57754506886, 53.6599472202582], [-113.57752973352, 53.659932689124], [-113.577514302536, 53.659918192695], [-113.577498778925, 53.6599037318803], [-113.577483161164, 53.6598893075732], [-113.577467449273, 53.6598749179766], [-113.577451644745, 53.6598605648927], [-113.577435747591, 53.659846247423], [-113.577419757791, 53.6598319673647], [-113.577403673843, 53.6598177238137], [-113.577387498772, 53.6598035167807], [-113.576513126595, 53.659038704482], [-113.576324372513, 53.6591148420979], [-113.575556566134, 53.6584439068954], [-113.575615671515, 53.6584200865301], [-113.575166701698, 53.6580276019257], [-113.575080227767, 53.6580275260385], [-113.574873320558, 53.6578466270523], [-113.574170486755, 53.6572318968006], [-113.574085522338, 53.6571575659154], [-113.571294949593, 53.6547164129869], [-113.571072701685, 53.6545218262635], [-113.570987765247, 53.6544474482998], [-113.570378436584, 53.6539139376401], [-113.570200381064, 53.6537579078044], [-113.567195232613, 53.6511292341736], [-113.567176215741, 53.6511125650236], [-113.567157285453, 53.6510958611386], [-113.567138443269, 53.6510791216259], [-113.567119690703, 53.6510623464908], [-113.567101026222, 53.651045537525], [-113.567082449846, 53.6510286929316], [-113.567063963069, 53.6510118145129], [-113.5670455659, 53.6509949013707], [-113.567027258329, 53.6509779544035], [-113.567009040365, 53.6509609727127], [-113.566990912, 53.6509439571969], [-113.566972873224, 53.6509269087548], [-113.566954924046, 53.6509098264878], [-113.566937065979, 53.6508927104014], [-113.566919299013, 53.6508755613943], [-113.566901621636, 53.6508583794609], [-113.566885853805, 53.6508430411345], [-113.566870157337, 53.6508276770052], [-113.566854535265, 53.6508122861855], [-113.566838984557, 53.6507968695629], [-113.566823506724, 53.6507814271431], [-113.56680675545, 53.650764355477], [-113.56679009072, 53.6507472526713], [-113.566773517062, 53.6507301196409], [-113.566757031452, 53.650712956375], [-113.56674063389, 53.6506957628734], [-113.566724325887, 53.6506785391419], [-113.566708107435, 53.6506612860789], [-113.566190370301, 53.650660859927], [-113.565939741004, 53.6506598357058], [-113.565636902927, 53.6506597780506], [-113.565636991682, 53.6505693198759], [-113.565637423578, 53.6504790273853], [-113.565637622427, 53.6503888939955]]]}}]}