{"type": "FeatureCollection", "features": [{"type": "Feature", "properties": {"district_id": "Surrey"}, "geometry": {"type": "Polygon", "coordinates": [[[-122.91170246, 49.19573706], [-122.89945201, 49.20320142], [-122.89562078, 49.20595173], [-122.88411863, 49.21763289], [-122.87720914, 49.2197846], [-122.87636613, 49.21989243], [-122.86677561, 49.22083033], [-122.85573477, 49.22062667], [-122.84299841, 49.21987875], [-122.80503639, 49.2203831], [-122.80368627, 49.22040079], [-122.79554282, 49.21694534], [-122.7788546, 49.21423036], [-122.77132286, 49.21346586], [-122.75092971, 49.21522837], [-122.73977799, 49.21345526], [-122.73112161, 49.2115679], [-122.72951927, 49.20738546], [-122.7264248, 49.20176895], [-122.72542301, 49.19525225], [-122.72272326, 49.1885422], [-122.72045442, 49.18662958], [-122.7142741, 49.18424623], [-122.70759117, 49.18293277], [-122.70129973, 49.18321997], [-122.69561155, 49.18383092], [-122.69171188, 49.18478863], [-122.68554852, 49.18527285], [-122.67947672, 49.18718805], [-122.6794716, 49.18718967], [-122.67947184, 49.18706198], [-122.67949073, 49.17710523], [-122.67948868, 49.17689294], [-122.67946885, 49.17612873], [-122.67946539, 49.17589559], [-122.6794549, 49.17559132], [-122.67944929, 49.17537387], [-122.67943825, 49.17537656], [-122.67940493, 49.1737794], [-122.67939921, 49.17357543], [-122.67930954, 49.17023784], [-122.67922522, 49.16724238], [-122.67920135, 49.16633666], [-122.6791118, 49.16298336], [-122.67911062, 49.16289613], [-122.67943933, 49.1482257], [-122.67944508, 49.14813145], [-122.67948327, 49.14451955], [-122.67949025, 49.14269458], [-122.67950107, 49.14097551], [-122.67956041, 49.13351771], [-122.67970294, 49.12633149], [-122.67984344, 49.11783234], [-122.67988308, 49.11409807], [-122.67987991, 49.11378333], [-122.67990644, 49.11175953], [-122.67993119, 49.1081166], [-122.679932, 49.1079122], [-122.6799538, 49.10440136], [-122.67980967, 49.09776954], [-122.6798019, 49.09749793], [-122.67973513, 49.09533116], [-122.67973266, 49.09507207], [-122.6796786, 49.09334058], [-122.67966983, 49.09305863], [-122.67961945, 49.08958929], [-122.67985083, 49.08587139], [-122.67997213, 49.08399051], [-122.68002285, 49.08319616], [-122.6800904, 49.08215294], [-122.68053639, 49.07480816], [-122.68054193, 49.07462744], [-122.6805452, 49.06751087], [-122.6805396, 49.06013593], [-122.68039541, 49.04566466], [-122.68027001, 49.03101449], [-122.68006499, 49.02384709], [-122.6800479, 49.0232649], [-122.68002972, 49.02265638], [-122.67986278, 49.01676748], [-122.67986309, 49.01640661], [-122.67997161, 49.01133009], [-122.67999122, 49.0104135], [-122.68001553, 49.00927901], [-122.68013816, 49.00212124], [-122.69113063, 49.00211494], [-122.71399782, 49.00210066], [-122.73050652, 49.00209205], [-122.73516496, 49.00208919], [-122.73582331, 49.00208918], [-122.755898, 49.00209045], [-122.75608766, 49.00208328], [-122.75695156, 49.00208327], [-122.75714323, 49.00208327], [-122.75726657, 49.00208327], [-122.790236, 49.00212067], [-122.79023013, 49.01657911], [-122.77930188, 49.01658585], [-122.77919761, 49.03105942], [-122.80116796, 49.03112647], [-122.82328927, 49.03118034], [-122.84542413, 49.03123015], [-122.84545135, 49.02707926], [-122.84545764, 49.02519465], [-122.84545904, 49.00216064], [-122.95694216, 49.00215474], [-122.95694215, 49.00937985], [-122.89037896, 49.0625098], [-122.89037896, 49.09148601], [-122.8903809, 49.09242822], [-122.89038652, 49.09828165], [-122.89039269, 49.10479485], [-122.89038059, 49.11934926], [-122.89035849, 49.13408214], [-122.89035241, 49.1485825], [-122.89036714, 49.1632097], [-122.89015018, 49.17714853], [-122.89046266, 49.17727613], [-122.89084316, 49.17727348], [-122.89105235, 49.17727232], [-122.89105233, 49.17723403], [-122.89279674, 49.1772311], [-122.89293446, 49.17728844], [-122.89293456, 49.17723102], [-122.89411834, 49.177229], [-122.89453648, 49.17722844], [-122.89537316, 49.17722698], [-122.89579155, 49.17722642], [-122.89719878, 49.17722412], [-122.89719865, 49.17724335], [-122.89761693, 49.17724261], [-122.89761692, 49.17722346], [-122.89970764, 49.17721998], [-122.89970778, 49.17723913], [-122.90103594, 49.1772373], [-122.90131084, 49.17721743], [-122.90159037, 49.177217], [-122.90242597, 49.17721614], [-122.90284385, 49.17721554], [-122.90451508, 49.17721362], [-122.90514183, 49.17721275], [-122.90728287, 49.17721039], [-122.90745645, 49.17721015], [-122.90754048, 49.17720084], [-122.90778238, 49.17720801], [-122.90783142, 49.1772087], [-122.90790758, 49.17720899], [-122.91273862, 49.17720229], [-122.91303363, 49.17720177], [-122.91357411, 49.17710986], [-122.91407792, 49.17711016], [-122.92284882, 49.17707924], [-122.91442144, 49.19195764], [-122.91170246, 49.19573706]]]}}]}