{"type": "FeatureCollection", "features": [{"type": "Feature", "properties": {"district_id": "Red Deer"}, "geometry": {"type": "Polygon", "coordinates": [[[-113.85610224273807, 52.288242330162404], [-113.85607246224771, 52.288245486350185], [-113.85604266438393, 52.288248575100575], [-113.8560128491439, 52.28825159731235], [-113.85598301506211, 52.2882545529837], [-113.85595316506712, 52.28825744301696], [-113.85592329623063, 52.28826026650977], [-113.85589341148409, 52.28826302346572], [-113.8558635108305, 52.28826571298598], [-113.8558335942642, 52.28826833686811], [-113.85580366325681, 52.28827089331634], [-113.85577371633404, 52.28827338502519], [-113.85574375497335, 52.28827580840132], [-113.85571377916902, 52.288278165242275], [-113.85568379038688, 52.28828045554989], [-113.85565378716132, 52.288282679322265], [-113.85562377242384, 52.28828483656307], [-113.85559374324622, 52.28828692636988], [-113.85556370402546, 52.28828894874807], [-113.85553365182459, 52.288290905491614], [-113.85550358811524, 52.28829279480472], [-113.8554735143603, 52.288294617587965], [-113.85544342910003, 52.28829637204196], [-113.85541333378858, 52.28829806176369], [-113.85538322990631, 52.28829968226095], [-113.85535311597604, 52.288301237127094], [-113.85532299200372, 52.28830272456458], [-113.85529285945518, 52.28830414457517], [-113.85526271979032, 52.288305498958195], [-113.85523257155239, 52.28830678501556], [-113.85520241766993, 52.28830800364961], [-113.85517225374322, 52.28830915575371], [-113.8551420841722, 52.288310240434484], [-113.85511190895414, 52.28831125859071], [-113.85508172809207, 52.2883122093236], [-113.85505154158615, 52.28831309263317], [-113.8550213508992, 52.28831390941994], [-113.8549911545716, 52.28831465788461], [-113.85496095553182, 52.288315338929515], [-113.85493075084582, 52.288315953449846], [-113.85490054344203, 52.288316502347996], [-113.85487033186676, 52.288316982026984], [-113.85486147970073, 52.28843841196729], [-113.85484040778606, 52.28872770689883], [-113.85488171364375, 52.28872710963748], [-113.85581741722457, 52.28871414207364], [-113.85581564709143, 52.28866842423371], [-113.8570146480878, 52.28859218485382], [-113.8582811354081, 52.288575707848096], [-113.8583518683588, 52.288585754809176], [-113.85836894131391, 52.2885882163779], [-113.85838598473718, 52.28859074711505], [-113.85840300449985, 52.28859334433127], [-113.85841999473078, 52.28859601071587], [-113.8584369568986, 52.28859874537189], [-113.8584538866064, 52.28860154829403], [-113.85847078971688, 52.28860441948936], [-113.85848765890755, 52.288607357151534], [-113.85850449856972, 52.2886103630834], [-113.85852130577216, 52.28861343728145], [-113.85853807905787, 52.28861657704762], [-113.85855481841831, 52.28861978507823], [-113.85857152239079, 52.288623060472815], [-113.85858819244388, 52.28862640233433], [-113.85860482710913, 52.28862981155977], [-113.85862142345815, 52.28863328724695], [-113.85863798295952, 52.28863682849882], [-113.85865450414195, 52.288640437111205], [-113.85867098700835, 52.2886441121853], [-113.85868742863033, 52.288647852818904], [-113.8587038319364, 52.28865165991427], [-113.85872019400104, 52.288655531670386], [-113.85873651335294, 52.288659469883065], [-113.85875278999785, 52.28866347275472], [-113.8587690253958, 52.288667542084745], [-113.85878521515846, 52.2886716751715], [-113.85880136221147, 52.28867587381613], [-113.85881746362641, 52.28868013711632], [-113.85883351793773, 52.28868446507037], [-113.8588495266168, 52.28868885588246], [-113.85886548965514, 52.288693312248974], [-113.85888140265868, 52.28869783326589], [-113.85889726709887, 52.28870241713741], [-113.85891308297283, 52.28870706476234], [-113.85892885028358, 52.288711775241914], [-113.85894456609977, 52.28871654857268], [-113.85896022895011, 52.28872138655043], [-113.85897584031171, 52.288726285581845], [-113.85899140017892, 52.288731247464455], [-113.85900690708614, 52.288736272196594], [-113.85902235957062, 52.28874135887772], [-113.8590377561667, 52.288746507506104], [-113.85905309834013, 52.28875171808354], [-113.85906838609664, 52.28875698881246], [-113.85908361503071, 52.288762322383995], [-113.85909878807946, 52.28876771700411], [-113.85911390231729, 52.28877317087177], [-113.85912895920133, 52.28877868668505], [-113.85914395580603, 52.28878426264297], [-113.85915889359991, 52.28878989784846], [-113.85917376964885, 52.28879559319688], [-113.85918858688709, 52.288801347792976], [-113.85920334091479, 52.28880716253026], [-113.85921803173767, 52.28881303561123], [-113.85923266081862, 52.2888189679364], [-113.85924722522915, 52.288824958603556], [-113.859261726435, 52.288831007614455], [-113.85927616150768, 52.288837114066865], [-113.85929053337291, 52.28884327976183], [-113.85930483764508, 52.28884950109905], [-113.85931907577846, 52.28885578167537], [-113.85933324631887, 52.288862117894], [-113.85934734779492, 52.288868511550774], [-113.8593613816752, 52.28887496174861], [-113.85937534649685, 52.28888146758712], [-113.85938924079143, 52.28888802996324], [-113.8594030660303, 52.28889464708129], [-113.85941681927646, 52.28890132073531], [-113.85943050200414, 52.28890804823074], [-113.85944411274482, 52.288914830464634], [-113.85945765003007, 52.28892166833405], [-113.85947111533119, 52.28892856004322], [-113.85948450572255, 52.28893550379111], [-113.85949782265568, 52.288942504073354], [-113.85951106321627, 52.28894955549385], [-113.85952422886147, 52.28895666075073], [-113.85953731813133, 52.28896381804466], [-113.85955033248582, 52.288971029175], [-113.8595632675365, 52.2889782914402], [-113.85957612474901, 52.28898560484203], [-113.85958890412053, 52.28899297027928], [-113.8596016056539, 52.289000386853246], [-113.85961422642066, 52.289007853661595], [-113.85962676788363, 52.28901537160497], [-113.85963922857994, 52.289022939782825], [-113.85965160851246, 52.28903055729644], [-113.85966390767838, 52.28903822504454], [-113.859676123152, 52.28904594122623], [-113.85968825786182, 52.28905370674371], [-113.85970030741369, 52.28906152069302], [-113.85971227327609, 52.289069382177175], [-113.85972415690902, 52.28907729299546], [-113.85973595539248, 52.28908524954931], [-113.85974766871796, 52.28909325453511], [-113.85975929542826, 52.289101305254796], [-113.85977083698342, 52.28910940350768], [-113.85978229192055, 52.289117548393286], [-113.8597936587825, 52.28912573721354], [-113.85980493756071, 52.28913397266484], [-113.85981612972373, 52.28914225385014], [-113.85982723381433, 52.289150578071386], [-113.85983824689268, 52.28915894802149], [-113.85984908416803, 52.28916729439359], [-113.85985983337089, 52.28917568380174], [-113.85987049450404, 52.28918411534716], [-113.8598810646333, 52.28919258992521], [-113.85989154669281, 52.2892011066406], [-113.85990193628837, 52.289209664589364], [-113.85991223635415, 52.2892182628762], [-113.8599224454216, 52.2892269023982], [-113.85993256202788, 52.28923558225487], [-113.8599425861701, 52.289244303345], [-113.85995251785674, 52.289253062972264], [-113.8599623570821, 52.289261862934254], [-113.85997210385467, 52.28927070053467], [-113.85998175523741, 52.289279577567626], [-113.85999131269874, 52.28928849313606], [-113.86000077624438, 52.28929744544247], [-113.86001014440286, 52.2893064362827], [-113.86001941864272, 52.2893154647597], [-113.86002859457254, 52.28932452907077], [-113.86003767658933, 52.2893336292211], [-113.86004666029316, 52.289342766104284], [-113.86005554862103, 52.289351937926305], [-113.86006433863871, 52.289361145582426], [-113.86007303181749, 52.289370387276904], [-113.860081626686, 52.28937966480554], [-113.86009012178701, 52.28938897547032], [-113.86009852005184, 52.28939831927469], [-113.86010681854908, 52.289407696215235], [-113.86011501727583, 52.28941710719076], [-113.86012311624057, 52.2894265495049], [-113.86013111543761, 52.28943602495531], [-113.8601390148725, 52.28944553174438], [-113.86014681308242, 52.28945506897166], [-113.86015451006443, 52.28946463753592], [-113.86016210435567, 52.28947423653668], [-113.86016959742172, 52.28948386597568], [-113.86017698926821, 52.289493524055395], [-113.8601842784266, 52.2895032116729], [-113.86019146343115, 52.289512928826454], [-113.86019854721881, 52.28952267372201], [-113.860205528321, 52.28953244725661], [-113.86021240381481, 52.289542246730484], [-113.8602191751574, 52.28955207484172], [-113.86022584382002, 52.28956192979447], [-113.86023240833974, 52.28957181068831], [-113.86023886725087, 52.28958171752148], [-113.86024522201899, 52.289591650295705], [-113.86025146971835, 52.28960160721002], [-113.86025761327743, 52.28961158916669], [-113.8602636512333, 52.28962159526518], [-113.86026958212021, 52.28963162550382], [-113.86027540740665, 52.28964167898554], [-113.86028112562397, 52.289651756607434], [-113.86028673824917, 52.2896618547761], [-113.86029224234228, 52.289671976184444], [-113.86029763937462, 52.28968211903665], [-113.8603029308118, 52.28969228333448], [-113.86030811225949, 52.289702468173964], [-113.86031318664901, 52.28971267355856], [-113.86031815251745, 52.28972289858779], [-113.86032301132758, 52.28973314416218], [-113.8603277601536, 52.2897434084807], [-113.860332400464, 52.289753690646364], [-113.86033693079015, 52.28976399155615], [-113.86034135406337, 52.28977431121362], [-113.8603456673607, 52.28978464691893], [-113.86034987067639, 52.289795000469674], [-113.86035396548459, 52.289805369171255], [-113.86035794884813, 52.289815754817766], [-113.86036182369837, 52.289826157412705], [-113.8603655871123, 52.289836574256256], [-113.86036923908982, 52.28984700534846], [-113.8603727825623, 52.28985745069272], [-113.86037621459823, 52.28986791028568], [-113.8603795366661, 52.28987838323026], [-113.86038274730012, 52.28988886952471], [-113.86038584650301, 52.289899368270284], [-113.86038841095277, 52.28990839597566], [-113.86039089183046, 52.289917432570014], [-113.86039329207028, 52.289926477158], [-113.86039560873797, 52.289935530634956], [-113.86039784330484, 52.28994459120509], [-113.8604001896093, 52.289954475191884], [-113.86040243915315, 52.28996436715332], [-113.86040458900492, 52.28997426708589], [-113.86040664209597, 52.289984174993045], [-113.86040859549479, 52.289994090871396], [-113.8604104506699, 52.290004013823854], [-113.86041220909256, 52.290013942054614], [-113.86041386928851, 52.290023878258275], [-113.86041542980048, 52.290033819736784], [-113.86041689062839, 52.29004376649012], [-113.86041825470078, 52.29005371942058], [-113.86041952055467, 52.2900636776276], [-113.86042068672995, 52.29007363931191], [-113.86042175469228, 52.290083604475264], [-113.86042272297024, 52.2900935749135], [-113.8604235945036, 52.2901035479337], [-113.86042436488957, 52.29011352532826], [-113.86042503707081, 52.29012350350553], [-113.86042742313819, 52.29018370047542], [-113.86042915960986, 52.29250401653978], [-113.86042919271479, 52.29254898084401], [-113.86042981324275, 52.29347641485647], [-113.8604298137738, 52.29362501405173], [-113.86043056469202, 52.29576124546187], [-113.86147511687383, 52.295755813390755], [-113.86177018305034, 52.29575434084868], [-113.86404795218213, 52.2957797166036], [-113.86426767545906, 52.29578215424793], [-113.86431164355031, 52.29578264876516], [-113.86470729807685, 52.29578700154852], [-113.86480987083962, 52.29578813192376], [-113.86482452197862, 52.2957882996877], [-113.86620438588494, 52.29580353321446], [-113.86714732619578, 52.29581392245683], [-113.8677757584511, 52.29582081306054], [-113.86795446184378, 52.29582276830053], [-113.8680902376433, 52.29582430413891], [-113.86837264264368, 52.29582742429322], [-113.86848322352674, 52.295828645786756], [-113.86903320807474, 52.29583471430999], [-113.86948402207193, 52.29583966948612], [-113.86997612045727, 52.295845071949564], [-113.87060211060928, 52.29585222884135], [-113.87091904784984, 52.29585545713034], [-113.8717201102128, 52.295864327226084], [-113.8718620050117, 52.29586583571433], [-113.87311779942425, 52.29587966022416], [-113.87355748261054, 52.29588449352232], [-113.87366688960593, 52.29588570800713], [-113.87372599434156, 52.2958863617103], [-113.87524873038716, 52.2959028528896], [-113.8752491765161, 52.295903198492844], [-113.87532246197567, 52.29590401377419], [-113.87539573280674, 52.29590481910801], [-113.87760473822527, 52.295929216427076], [-113.87782450536666, 52.29593169091247], [-113.88255738654725, 52.29598335963858], [-113.8826510286652, 52.29598440721842], [-113.8836877150701, 52.29599710153343], [-113.88527269789982, 52.29601528367486], [-113.8853607799904, 52.296016322806715], [-113.88565609823786, 52.296019767389424], [-113.88568314272592, 52.30062517104738], [-113.88568516060664, 52.300968250998125], [-113.88568622196141, 52.30112143297668], [-113.88568657365607, 52.301271801081704], [-113.88569633641988, 52.30288763955356], [-113.8856985096754, 52.30324731459842], [-113.8858323451886, 52.30324901330162], [-113.88597898942074, 52.30325109811058], [-113.88666264193695, 52.30326036277863], [-113.88688589716762, 52.3032634106369], [-113.88710564844634, 52.30326641787432], [-113.8894892340203, 52.30329896174639], [-113.8930589701618, 52.30334761889428], [-113.89358830830807, 52.30335480184798], [-113.89745908907764, 52.30340781750735], [-113.89746047556154, 52.30356289511075], [-113.89746171050487, 52.30370043288747], [-113.8975284545691, 52.31049127823087], [-113.89752988691411, 52.31063684121255], [-113.8975299550451, 52.31064353357938], [-113.89757426543906, 52.31522008678701], [-113.89759571822316, 52.31743567502508], [-113.89159031192789, 52.317352236237454], [-113.88859965795544, 52.317342366176796], [-113.8883970994007, 52.317342059949155], [-113.88817387839504, 52.31734151181894], [-113.88602909785988, 52.31733593261463], [-113.88588116782309, 52.31733554623797], [-113.88574582708002, 52.31733519252432], [-113.88544982470842, 52.31733500653915], [-113.8800923900581, 52.31733868878102], [-113.87956746872548, 52.317339134487106], [-113.87943344962486, 52.317339248545125], [-113.87931617779819, 52.31733934091336], [-113.87717562819458, 52.317341112787425], [-113.8771745532385, 52.317438564373916], [-113.87717249092431, 52.317625659948675], [-113.8771716509672, 52.31770179365985], [-113.87717048162212, 52.31780790396911], [-113.87716688213384, 52.31813435614747], [-113.87450668851751, 52.318136587105364], [-113.87374750309547, 52.31813721265164], [-113.87115228530996, 52.318139486031576], [-113.87113237852623, 52.318139530827736], [-113.87111247153618, 52.31813964662377], [-113.87109256727562, 52.31813983252414], [-113.87107266574445, 52.318140088528814], [-113.8710527654733, 52.31814041553494], [-113.8710328679313, 52.31814081264539], [-113.87101297605172, 52.31814127986335], [-113.87099308983176, 52.318141818087604], [-113.8709732063407, 52.318142426416195], [-113.87095333144497, 52.31814310485548], [-113.870933460742, 52.31814385429946], [-113.87091359863678, 52.318144672955405], [-113.87089374659321, 52.31814556172371], [-113.87087390020879, 52.31814652149831], [-113.87085406534985, 52.31814755228562], [-113.87083423908827, 52.318148652284904], [-113.87081442435729, 52.31814982149939], [-113.87079461968227, 52.318151062623784], [-113.87077482800427, 52.31815237296497], [-113.87075504932058, 52.318153753421754], [-113.87073528363369, 52.318155203095344], [-113.8707155309383, 52.318156723783304], [-113.87069579417282, 52.31815831369129], [-113.87067607186788, 52.3181599737165], [-113.8706563669593, 52.31816170296336], [-113.87063667797774, 52.31816350232908], [-113.8706170049257, 52.31816537091484], [-113.87059735073379, 52.31816730962269], [-113.87057771540447, 52.3181693175538], [-113.87055810040174, 52.318171395608644], [-113.87053850426402, 52.31817354198801], [-113.8705189284527, 52.31817575849109], [-113.8704993729729, 52.31817804332034], [-113.87047984075254, 52.31818039827652], [-113.87046033033019, 52.3181828215605], [-113.87044084463633, 52.31818531407428], [-113.87042138073768, 52.31818787581466], [-113.87040194157004, 52.31819050588609], [-113.87038252859726, 52.318193205188976], [-113.87036314035532, 52.31819597282292], [-113.87034377831075, 52.31819880878959], [-113.87032444539673, 52.31820171309215], [-113.87030513721326, 52.318204685725824], [-113.87028585962418, 52.31820772759587], [-113.87026660970139, 52.31821083690145], [-113.87024738891144, 52.31821401364427], [-113.87022820018225, 52.31821725962508], [-113.8702090420524, 52.318220573044755], [-113.87018991598839, 52.31822395390486], [-113.87017082052353, 52.318227402203874], [-113.8701517571244, 52.31823091794339], [-113.87013272872152, 52.318234502025405], [-113.87011373531745, 52.31823815355121], [-113.87009477398412, 52.318241870720016], [-113.87007584911609, 52.31824565533421], [-113.87005696071327, 52.318249507393844], [-113.87003810877825, 52.31825342600014], [-113.87001929477755, 52.31825741115473], [-113.87000051724448, 52.318261462856015], [-113.86998177911487, 52.31826558020849], [-113.86996307891673, 52.318269765008075], [-113.86994441958852, 52.318274015460474], [-113.86992580113024, 52.31827833156572], [-113.86990722207244, 52.318282714221006], [-113.86988868535367, 52.31828716163201], [-113.86987019097121, 52.3182916746975], [-113.8698517403916, 52.31829625341916], [-113.86983333068154, 52.318300897793755], [-113.86981496624347, 52.31830560692739], [-113.86979664854663, 52.318310379922906], [-113.86977837318572, 52.31831521857304], [-113.86976014456326, 52.3183201219839], [-113.86953418058418, 52.31838142456243], [-113.86944655197298, 52.31840519480431], [-113.86827810024367, 52.31872201841342], [-113.86826806158928, 52.31872477905102], [-113.86825807260225, 52.318727606252715], [-113.86824813035993, 52.31873049642014], [-113.86823823926227, 52.31873344955823], [-113.86822839930922, 52.318736465667], [-113.86821861049805, 52.31873954564525], [-113.86820887577007, 52.31874268679989], [-113.86819919365058, 52.31874589182567], [-113.86818956854752, 52.31874915803113], [-113.86817999752759, 52.318752485413086], [-113.86817048499066, 52.31875587397641], [-113.86816103093942, 52.31875932282235], [-113.86815163537382, 52.318762831950934], [-113.86814230122447, 52.31876640226422], [-113.8681330270327, 52.31877003106423], [-113.86812381572649, 52.318773720151846], [-113.86811466877778, 52.31877746773117], [-113.8681055861919, 52.31878127200464], [-113.86809656795812, 52.318785136567364], [-113.86808761702049, 52.31878905782756], [-113.86807873191493, 52.318793034884806], [-113.8680699170334, 52.3187970704404], [-113.86806117091726, 52.31880116179631], [-113.86805249356915, 52.31880530805387], [-113.86804388938636, 52.318809510116715], [-113.8680353569049, 52.318813767084514], [-113.86802689612472, 52.318818078957214], [-113.86801850998451, 52.3188224439406], [-113.86801019994554, 52.318826863833884], [-113.86800196455187, 52.31883133504028], [-113.86799380526477, 52.31883585935907], [-113.86798572502292, 52.31884043499597], [-113.86797772235428, 52.31884506374687], [-113.86796980020291, 52.31884974202002], [-113.86796195563277, 52.31885447071089], [-113.86795419450782, 52.318859250724834], [-113.86794651536943, 52.31886407936394], [-113.86793891821493, 52.31886895752696], [-113.86793140304971, 52.318873883416394], [-113.86792397427362, 52.31887885703713], [-113.86791663042283, 52.318883877488815], [-113.8679093744279, 52.3188889456735], [-113.8679022033609, 52.31889405979035], [-113.86789511868848, 52.318899219841065], [-113.86788812334666, 52.31890442493014], [-113.8678812173381, 52.3189096741588], [-113.86787440212947, 52.31891496752874], [-113.86786767625684, 52.31892030413952], [-113.86786104265616, 52.31892568309571], [-113.86785449985815, 52.318931105294425], [-113.86784805080417, 52.318936568042645], [-113.86784169548886, 52.31894207313792], [-113.86783543392295, 52.318947616985184], [-113.86782926756779, 52.31895320138362], [-113.86782319789536, 52.318958824537376], [-113.86781722343639, 52.318964487343536], [-113.86781134419894, 52.31897018710587], [-113.86780556458028, 52.318975924728036], [-113.86779988311919, 52.31898169841087], [-113.86779429834898, 52.31898750815275], [-113.86778881466702, 52.31899335485738], [-113.8677834306174, 52.318999234928036], [-113.86777814619741, 52.31900514926352], [-113.86777296434042, 52.319011097867104], [-113.86776788505452, 52.31901707804249], [-113.86776290539837, 52.319023092482745], [-113.86775803125204, 52.319029136700536], [-113.86775325821019, 52.31903521248854], [-113.86774859067825, 52.31904131805412], [-113.86774402572289, 52.31904745339403], [-113.86773956628016, 52.319053617612774], [-113.86773521381676, 52.319059810712], [-113.86773096540742, 52.319066029992136], [-113.86772682398018, 52.31907227725398], [-113.86772278954308, 52.31907854980127], [-113.86771886062685, 52.319084848531126], [-113.86771504163414, 52.319091172549705], [-113.86771132963977, 52.31909751915741], [-113.86770772610238, 52.31910389105224], [-113.8677042310327, 52.31911028463908], [-113.86770084589749, 52.31911669991959], [-113.86769756923007, 52.31912313689214], [-113.86769440249988, 52.319129594659614], [-113.8676913471763, 52.31913607232488], [-113.867688403262, 52.31914256898915], [-113.86768556929042, 52.319149084650824], [-113.8676828467363, 52.31915561661523], [-113.86768023412763, 52.31916216667824], [-113.86767773586718, 52.31916873394605], [-113.867675347563, 52.31917531571742], [-113.86767307214582, 52.319181912894386], [-113.86767090961834, 52.31918852457821], [-113.86766886144997, 52.31919514987177], [-113.86766692471281, 52.31920178697421], [-113.8676651023402, 52.31920843588879], [-113.86766339139622, 52.3192150975111], [-113.86766179629157, 52.31922176825088], [-113.86766031408769, 52.31922844990246], [-113.86765894478995, 52.319235140668276], [-113.86765769133443, 52.31924183965284], [-113.86765655225717, 52.319248545955716], [-113.86765552755827, 52.31925525957695], [-113.8676546157764, 52.31926197871733], [-113.86765381984503, 52.31926870338014], [-113.86765313976149, 52.319275434464146], [-113.8676525726032, 52.31928216837102], [-113.86765212130359, 52.319288905104], [-113.86765178292936, 52.31929564465982], [-113.86765156334991, 52.31930238614625], [-113.86765145523465, 52.319309128656315], [-113.86764964267803, 52.31953420755064], [-113.86757366018527, 52.31953405499435], [-113.86757165491801, 52.3199449137175], [-113.86756931221647, 52.320355788211636], [-113.8675669826947, 52.32076665280526], [-113.86756462856421, 52.32117739151367], [-113.86756227291657, 52.32158813019163], [-113.86756118312177, 52.32177972944934], [-113.86755766436963, 52.32239872428166], [-113.86755655652217, 52.32259045920805], [-113.86755446805064, 52.322960292936095], [-113.8675523503369, 52.3233300816692], [-113.86754849543232, 52.324009975300285], [-113.86754622227959, 52.32440770856878], [-113.86754419849284, 52.32480542591191], [-113.86752830606828, 52.32797729275906], [-113.86752701999319, 52.3281121976673], [-113.86750790628719, 52.33204798090809], [-113.8674906861822, 52.334944794610095], [-113.86748151366687, 52.336489015123185], [-113.86747982782849, 52.3367722442521], [-113.86746699666908, 52.33931422338211], [-113.86717160271303, 52.339316671596045], [-113.86336322329191, 52.3393482809426], [-113.85531761307718, 52.33941511622063], [-113.85201609300144, 52.33944238575491], [-113.8506587206788, 52.33945357000391], [-113.84915538861401, 52.33946592844025], [-113.84813180654906, 52.33947434113091], [-113.84562536161648, 52.3394949007154], [-113.84347621562547, 52.33951249529505], [-113.84318109922518, 52.339512034786196], [-113.84318274111384, 52.339183526614335], [-113.8431841459667, 52.33890293899869], [-113.83943967986615, 52.33950625505476], [-113.83131907496963, 52.34081420199961], [-113.82118133586086, 52.3424461534997], [-113.8211333986784, 52.34245385984127], [-113.82108548619352, 52.34246162372238], [-113.8210375984133, 52.342469443345514], [-113.8209897353339, 52.34247731960948], [-113.82094189549137, 52.3424852516133], [-113.82089408181679, 52.342493240260204], [-113.82084629284982, 52.3425012837505], [-113.82079853005044, 52.34250938388397], [-113.82075079195108, 52.34251754065842], [-113.82070308002258, 52.342525753177306], [-113.82065539279742, 52.34253402143847], [-113.82060773174284, 52.34254234544416], [-113.82055780453246, 52.34255113155458], [-113.82050790786737, 52.342559979705754], [-113.82045803881978, 52.34256888809577], [-113.8204082003171, 52.3425778585266], [-113.82035839089535, 52.3425868900973], [-113.82030861202178, 52.34259598281017], [-113.82025886076495, 52.34260513576195], [-113.82020914151971, 52.34261435075696], [-113.820159451351, 52.34262362779075], [-113.8201097932008, 52.342632965070315], [-113.82006016559784, 52.34264236349219], [-113.82001056707449, 52.342651823054226], [-113.81996100056544, 52.34266134376087], [-113.81991601874816, 52.34267004276368], [-113.81987106019142, 52.34267879121747], [-113.81982612929009, 52.34268759092644], [-113.81978122458392, 52.34269644009093], [-113.81973634460167, 52.34270533960744], [-113.81969149374916, 52.34271428858396], [-113.81964666761665, 52.34272328881134], [-113.81960186914617, 52.34273233849653], [-113.8195745945625, 52.342737880042485], [-113.81954732870715, 52.342743438672144], [-113.81952007158009, 52.342749014385596], [-113.81949282317764, 52.34275460808156], [-113.81948482134938, 52.340710712506024], [-113.81947999333842, 52.33947338743032], [-113.81918488082758, 52.339473874521175], [-113.81154852019847, 52.33948661082609], [-113.8114589999018, 52.33948675382792], [-113.807333710763, 52.339493427255675], [-113.80712867591043, 52.33949375874907], [-113.80681484121833, 52.33949424999404], [-113.79746433567985, 52.33950878228207], [-113.79718546645775, 52.3395091910391], [-113.79681343334116, 52.339509756238506], [-113.79653428378455, 52.33951017735704], [-113.79615526017957, 52.339510750916034], [-113.79559594857842, 52.33951158942983], [-113.79548165483449, 52.33951176375129], [-113.79518652787092, 52.339512703181875], [-113.79468787282183, 52.339514281550926], [-113.79420747181528, 52.339515792541334], [-113.79388717508512, 52.33951680532298], [-113.78868348415001, 52.33953317481714], [-113.78845415077384, 52.339533890621226], [-113.78339611485954, 52.339549569825074], [-113.78332942591841, 52.33954977291255], [-113.78320561085492, 52.33955015337918], [-113.78297172408065, 52.339550874455156], [-113.78288368344968, 52.33955114502603], [-113.7805145128054, 52.33955840171949], [-113.7802211050596, 52.339559303369796], [-113.77919935560763, 52.33956241275229], [-113.7774044873687, 52.33956785851206], [-113.775230491511, 52.3395744294686], [-113.77500691429665, 52.33957509776713], [-113.77146849293489, 52.33958563102752], [-113.77146862142133, 52.3393637369795], [-113.77163957202576, 52.3391960386279], [-113.77179846636136, 52.33892275370208], [-113.77189305752007, 52.338794710670314], [-113.77214146636304, 52.338546317080414], [-113.77265775827588, 52.33788732590027], [-113.77280143345273, 52.33760540900164], [-113.77303629795335, 52.33737533865797], [-113.77333036414663, 52.33715274599895], [-113.77384633042651, 52.33649369134908], [-113.77409867411242, 52.336074510212924], [-113.77412913437917, 52.33585811162458], [-113.77409419731235, 52.33553550092048], [-113.77403951791766, 52.33536607855394], [-113.77397509726772, 52.3350440072873], [-113.77386686946427, 52.33471433027216], [-113.77385560708365, 52.33453487964516], [-113.7737907864631, 52.33420398956677], [-113.77382857903768, 52.33387067417022], [-113.77387819233694, 52.33372570206689], [-113.77442785066019, 52.333137764507164], [-113.77450669863526, 52.33299211543093], [-113.77466049213949, 52.33287168962761], [-113.77475230545713, 52.332698858232575], [-113.77474790721192, 52.33215990273781], [-113.77468319801775, 52.331973620164774], [-113.77458690843619, 52.33169649722514], [-113.77456214447862, 52.331535381034], [-113.77450860179042, 52.331383932883206], [-113.77434366424033, 52.33109131947733], [-113.77413768886935, 52.33084461062178], [-113.77391859606605, 52.33062521709933], [-113.77361282035471, 52.33042572769454], [-113.77335044361057, 52.33021623646942], [-113.7731831894951, 52.330121315593566], [-113.77266896494626, 52.32987284175652], [-113.77250171344237, 52.32977794777542], [-113.77200066934823, 52.32950230028094], [-113.77147477944638, 52.32926413373986], [-113.77117977910828, 52.32913051853842], [-113.7710951914703, 52.329092211466175], [-113.77070864102448, 52.32876908029319], [-113.77069062551563, 52.3287156273818], [-113.77053750071161, 52.328611405332225], [-113.77042722863017, 52.32848819249798], [-113.77028823448045, 52.328374753648596], [-113.76984554514783, 52.3278551508758], [-113.76955725118323, 52.32746662340357], [-113.769307894158, 52.327229923581626], [-113.76919587969837, 52.327079770687845], [-113.76890865622703, 52.3267091329404], [-113.76857690128611, 52.326248984229835], [-113.76850739632472, 52.32615258444411], [-113.7684918917129, 52.32612465599374], [-113.7682760054649, 52.32573565595656], [-113.76782192650732, 52.325036574734334], [-113.76762020959005, 52.32475030465405], [-113.76743578051112, 52.32448867050378], [-113.76713223764571, 52.32409148665615], [-113.76655189490319, 52.32348524596002], [-113.76632851954722, 52.323193989303434], [-113.76608249977271, 52.32277756930968], [-113.76589060359275, 52.32228791389992], [-113.7657496076597, 52.32143782835447], [-113.76577445807871, 52.32089821486979], [-113.76592162335048, 52.32043661149352], [-113.76627202898311, 52.31970970413059], [-113.76635011601147, 52.319611039636385], [-113.76637931271726, 52.319551836380256], [-113.76640947967769, 52.3194999915415], [-113.76644110592868, 52.319448422808506], [-113.76645348751073, 52.31941223188218], [-113.76646814400084, 52.31937657752863], [-113.7665459820771, 52.31926677563626], [-113.76654850019894, 52.31925537870066], [-113.7665402539614, 52.31925632679496], [-113.76652758929059, 52.319259936429425], [-113.76651762918362, 52.31925657598316], [-113.76651115834962, 52.319250697761845], [-113.76651038444416, 52.31923945610081], [-113.76651640532003, 52.31922827550425], [-113.76653026373312, 52.31921019698768], [-113.76654595840103, 52.319192677543626], [-113.7665561722922, 52.31918320482211], [-113.76656773686288, 52.31917431268356], [-113.76659489853206, 52.31916560235507], [-113.76662143698817, 52.31915658790064], [-113.766649182484, 52.3191305682272], [-113.76667149086846, 52.31910262161157], [-113.76668227511533, 52.319084807537685], [-113.76669895016303, 52.31906686668429], [-113.76671662834703, 52.31904921451988], [-113.76672594926929, 52.31902490117668], [-113.7667322398851, 52.318999781935766], [-113.7667632300946, 52.3189499330189], [-113.7667979540578, 52.31890097855905], [-113.76682802359174, 52.31886526021054], [-113.76685672357226, 52.31882919491897], [-113.76687054409395, 52.3187797605779], [-113.7668951398577, 52.31873875018327], [-113.76692346286195, 52.318698759162274], [-113.76693120169071, 52.31868968327884], [-113.76693991252453, 52.318680959836314], [-113.76697783585512, 52.318649406605765], [-113.76698648758614, 52.318640763034516], [-113.76699358152368, 52.3186315995921], [-113.76701223516847, 52.318586776514955], [-113.7670209356249, 52.31858002227108], [-113.76703064054013, 52.31857358458011], [-113.76705612514932, 52.31854648001784], [-113.76708222005931, 52.31851961572853], [-113.76710343906551, 52.31850183027635], [-113.76711124925878, 52.31849283631044], [-113.76711777671512, 52.31848345154273], [-113.76712060170422, 52.318469997892905], [-113.76712291693995, 52.3184564219029], [-113.76713726767213, 52.3184380611682], [-113.76715538909338, 52.31842082774261], [-113.76718260430346, 52.31839593576279], [-113.76721081897529, 52.31837146817228], [-113.76723053730342, 52.31835539371181], [-113.76725145659888, 52.31833991660599], [-113.76729484342734, 52.3183129712919], [-113.76731618108865, 52.31829517794575], [-113.76736234124068, 52.31826823537274], [-113.767371561327, 52.31825969715049], [-113.76737895189146, 52.31825043720041], [-113.7674051384043, 52.318210226147244], [-113.7674221502691, 52.31819170434253], [-113.76744173585645, 52.31817406301286], [-113.76746153547329, 52.31816035515925], [-113.76748234904562, 52.31814710767538], [-113.76754752165748, 52.318086722921144], [-113.76761201388383, 52.31802599885106], [-113.76767182301154, 52.3179801115717], [-113.7677358233774, 52.317936517199065], [-113.76774734983485, 52.31793003539469], [-113.76775849904996, 52.317923333545416], [-113.76780174940473, 52.31789178243044], [-113.7678886350584, 52.317833279063855], [-113.76790970568658, 52.317817659231885], [-113.76793126769468, 52.3178023055013], [-113.76799167828398, 52.317767487707435], [-113.76805586208901, 52.317735254989884], [-113.76806844546431, 52.31773081725573], [-113.7680806416608, 52.31772609654344], [-113.76809920681852, 52.317715595699696], [-113.76795659900903, 52.31771570933957], [-113.76673540545153, 52.317716547144116], [-113.7666908887976, 52.31771658596342], [-113.76267096707663, 52.31771977822165], [-113.76244639951418, 52.31771995331217], [-113.75933636024553, 52.31772240636544], [-113.75913765366396, 52.317722576616426], [-113.75896492519213, 52.317722786058084], [-113.75878449136844, 52.31772294086675], [-113.75003635295887, 52.31772986377689], [-113.74984687887546, 52.317729999287806], [-113.74836572471631, 52.31773111566306], [-113.74749222674322, 52.31773177741572], [-113.74719729102024, 52.31773208496681], [-113.74273672313971, 52.31773655369132], [-113.74238570877756, 52.31773671990426], [-113.74224774734974, 52.31773703194402], [-113.74221608581705, 52.31773703476202], [-113.74221723102731, 52.31755382010811], [-113.74220774983088, 52.31389299815527], [-113.74220762736385, 52.3138595551705], [-113.74220726734463, 52.31372261710966], [-113.74220465930607, 52.312510105358], [-113.74220437647062, 52.31230838872336], [-113.74220421404436, 52.31220281670278], [-113.74220416796143, 52.312175410085565], [-113.74220099027872, 52.31032085538209], [-113.74218783884294, 52.30445903058949], [-113.74218742450873, 52.30436855741223], [-113.74218711515377, 52.30430544787463], [-113.7421865072191, 52.3041705582727], [-113.74218300383178, 52.30340884556819], [-113.74218229671428, 52.30326402508734], [-113.74218228602582, 52.30324365147455], [-113.74218226473147, 52.30319784141013], [-113.74218223391256, 52.30315644793922], [-113.74199384818424, 52.303155592605], [-113.74161505055704, 52.30315387840055], [-113.73911481859007, 52.3031367731603], [-113.73875665153882, 52.303134522828714], [-113.73840351496919, 52.303135985534006], [-113.73690472909115, 52.30312564081461], [-113.73268218434397, 52.303096379814654], [-113.73241401957762, 52.30309468060384], [-113.73136065240077, 52.303088334989035], [-113.73128745850232, 52.30308755732979], [-113.73106742384887, 52.303085697605596], [-113.73053176741229, 52.30308280148916], [-113.73053188520834, 52.30285810710331], [-113.73053187381778, 52.30146520476989], [-113.73053195454207, 52.300566720837786], [-113.73053240909033, 52.29930375964712], [-113.73053245996454, 52.299131620389964], [-113.73053345891458, 52.29610941709282], [-113.73053350170828, 52.29597507335847], [-113.7305335416875, 52.29587669982105], [-113.73053360101575, 52.29568021154387], [-113.7305336238439, 52.295541910411096], [-113.73053461282672, 52.28890791533469], [-113.73053462275901, 52.288827044537506], [-113.73053465786518, 52.28857800045018], [-113.73053471265028, 52.288396974606414], [-113.73058449628782, 52.28581293585182], [-113.73058683601047, 52.2856910470901], [-113.73067247657947, 52.28116842769076], [-113.73067180609173, 52.27435598912637], [-113.73067178465953, 52.27416734365756], [-113.73067031314503, 52.274086438720445], [-113.72738869546662, 52.274080769061996], [-113.71903712942434, 52.27421655630462], [-113.7189260814088, 52.27428486228426], [-113.71892603444752, 52.27429923557119], [-113.71892464282895, 52.27477056053826], [-113.71888065536857, 52.27504461094672], [-113.71888075040616, 52.27406544859413], [-113.71888075906658, 52.273925814885835], [-113.71858627831071, 52.273926522778126], [-113.71858621883, 52.273804041352406], [-113.71858461257006, 52.27047019061987], [-113.71858314016117, 52.2667064741075], [-113.71858247993406, 52.259528970258145], [-113.71858247289578, 52.25948241386588], [-113.71858245114574, 52.25930165564261], [-113.71858245875907, 52.259255098384685], [-113.71858288945215, 52.25663512046294], [-113.71858292351523, 52.25649968644417], [-113.71858389428418, 52.252076880395855], [-113.71859267938966, 52.24484524251838], [-113.71859175675642, 52.24424302493893], [-113.71859046980225, 52.24358683579699], [-113.71858972974732, 52.238411860775116], [-113.71858971379837, 52.238277119186506], [-113.71858962002305, 52.237687799682654], [-113.71858901389871, 52.237619288684556], [-113.71858941519359, 52.2375509778215], [-113.71858877920936, 52.23727700908607], [-113.7185850721618, 52.23447734191515], [-113.71858475261605, 52.23345333013209], [-113.71858388873657, 52.23181837833139], [-113.71858378117761, 52.23166547535527], [-113.71858408414421, 52.23150436467418], [-113.71858299250238, 52.23125383959639], [-113.71858347078584, 52.231198572132925], [-113.71858290099723, 52.23050670653557], [-113.71887741945429, 52.23050644121602], [-113.72072158287419, 52.230506791311605], [-113.72098504993174, 52.23050689396386], [-113.72123383662392, 52.23050706292347], [-113.72922642086603, 52.230510441175184], [-113.72922647701532, 52.23049255082315], [-113.7306996491586, 52.230465112090265], [-113.73216121629072, 52.23045932461239], [-113.73362170928576, 52.23045366850999], [-113.73507989881601, 52.230447125427574], [-113.73654078446248, 52.23044101525225], [-113.7380020023747, 52.230435079177596], [-113.73946099763944, 52.230428435228774], [-113.74092001431879, 52.23042205371741], [-113.74162890858403, 52.23041872973965], [-113.7423782515036, 52.23041522194943], [-113.74267269840284, 52.23041477396901], [-113.74267230821651, 52.23037010759605], [-113.74267193745581, 52.230323600536856], [-113.74267043878609, 52.230142807732236], [-113.74267006609179, 52.230096382457205], [-113.74266939722362, 52.23000649988779], [-113.75104723386572, 52.23000720597629], [-113.75439725290416, 52.230009284000865], [-113.75667793948803, 52.23001076445808], [-113.75696305546015, 52.23001079008897], [-113.76034486656476, 52.23001103729133], [-113.76456210616263, 52.23001176842575], [-113.76574607500531, 52.23001131074808], [-113.76583578276681, 52.23001131347596], [-113.76596918951601, 52.23001117988194], [-113.76602775524802, 52.23001111712162], [-113.76613057983346, 52.23001133796563], [-113.76642495042448, 52.23001257873934], [-113.76642403917475, 52.22973521847626], [-113.76642382157057, 52.229670139155886], [-113.76640179168979, 52.22293134505596], [-113.76637814316359, 52.21571520262948], [-113.76666967308397, 52.21571609121134], [-113.77200847575223, 52.21573177666346], [-113.77232901482441, 52.215732709996416], [-113.77598257081368, 52.215743345764636], [-113.77813951701995, 52.21574957983495], [-113.77962603022434, 52.215753709369444], [-113.7811219304304, 52.215757853768146], [-113.78262682115533, 52.21576200115836], [-113.78361166643376, 52.21576469979323], [-113.78398161120595, 52.21576570643001], [-113.7841076842969, 52.21576606024509], [-113.78437032943702, 52.21576676058802], [-113.78582146873062, 52.21577069083434], [-113.78829425339313, 52.21577737136527], [-113.78839663373559, 52.21577764843797], [-113.78967918013973, 52.21578108596039], [-113.78997094986981, 52.21578186528316], [-113.7902654721753, 52.21578260922915], [-113.7902787181889, 52.21804212995891], [-113.79027976617603, 52.21822289820993], [-113.79028836790008, 52.2196880916462], [-113.7902914990876, 52.220222275604776], [-113.7902918849962, 52.22028730222994], [-113.79030787525481, 52.22302134681762], [-113.79038101248047, 52.22302099946756], [-113.79719926017196, 52.22300436469224], [-113.80200660698259, 52.22299227769257], [-113.81086654301244, 52.22297324440499], [-113.81329448031565, 52.22296742450007], [-113.81357793750118, 52.22296691082452], [-113.81378461531966, 52.230202149839435], [-113.81401710443, 52.2302019761989], [-113.81468799803667, 52.230202050754876], [-113.81469526347317, 52.23018987993345], [-113.81470262980183, 52.23017773353733], [-113.81471009849383, 52.23016560977119], [-113.81471766808158, 52.230153509531526], [-113.81472534002499, 52.2301414337194], [-113.81473311432406, 52.23012938233478], [-113.81474098951492, 52.23011735537535], [-113.81474896559381, 52.2301053537399], [-113.81475704255314, 52.23009337922596], [-113.8147652189441, 52.23008142823606], [-113.81477349621541, 52.23006950436763], [-113.8147818729107, 52.23005760582078], [-113.81479035194619, 52.230045735296464], [-113.81479892893809, 52.230033890990164], [-113.81480760387889, 52.23002207469942], [-113.8148163811634, 52.23001028553236], [-113.8148252549292, 52.22999852527733], [-113.81483422811492, 52.22998679124253], [-113.81484329923804, 52.229975087919584], [-113.81485246977344, 52.22996341261442], [-113.81486173971736, 52.229951766225774], [-113.81487110467106, 52.22994015054428], [-113.81488056757317, 52.22992856287823], [-113.8148901284124, 52.229917005923895], [-113.81489978718498, 52.229905480580065], [-113.81490954243456, 52.22989398504686], [-113.81491939122625, 52.22988252111719], [-113.81492933941854, 52.229871087901465], [-113.81493938261653, 52.22985968629156], [-113.81494952228009, 52.22984831718852], [-113.81495975694554, 52.229836980590036], [-113.81497008514903, 52.22982567649376], [-113.81497538707906, 52.22981996668924], [-113.81498078546723, 52.22981429208855], [-113.81498628616464, 52.229808653599655], [-113.81499188477267, 52.22980305301322], [-113.81499758129499, 52.229797489430474], [-113.8150033742716, 52.22979196195026], [-113.81500926514754, 52.229786475068856], [-113.81501524953912, 52.22978102698174], [-113.81502133183373, 52.22977561859461], [-113.81502750763644, 52.22977025079932], [-113.81503377694727, 52.22976492359586], [-113.81504013975498, 52.229759639680616], [-113.8150465946033, 52.229754397253664], [-113.81505314148852, 52.22974919721378], [-113.81505978039937, 52.22974404225732], [-113.8150665054885, 52.229738930577554], [-113.81507332406699, 52.22973386398341], [-113.81508022881621, 52.2297288424635], [-113.81508722119995, 52.229723866020066], [-113.81509430120697, 52.22971893734946], [-113.81510146737723, 52.22971405555057], [-113.81510871970707, 52.22970922152218], [-113.81511605526528, 52.22970443615847], [-113.81512347551931, 52.22969969856294], [-113.81513097606685, 52.229695011425065], [-113.81513855983901, 52.22969037385059], [-113.81514622537212, 52.22968578583722], [-113.81515396826755, 52.22968124917567], [-113.81516179291273, 52.229676764771554], [-113.81516969492024, 52.229672331719215], [-113.81517767428637, 52.22966795091738], [-113.81518572953622, 52.229663625060134], [-113.81519386214842, 52.22965935055464], [-113.81520206771692, 52.22965513098908], [-113.81521034624548, 52.22965096546475], [-113.81521869772662, 52.2296468557791], [-113.81522712216412, 52.22964280103338], [-113.81523561516306, 52.22963880211948], [-113.81524417818353, 52.22963485993847], [-113.81525281122545, 52.22963097449034], [-113.81526151135776, 52.22962714666928], [-113.81527027858418, 52.229623375576466], [-113.81527910996608, 52.22961966390369], [-113.81528800843468, 52.2296160107567], [-113.81529696813145, 52.229612417025145], [-113.81530599052377, 52.229608881812474], [-113.815315075608, 52.22960540601747], [-113.81532422044553, 52.22960199233195], [-113.815333426515, 52.22959863716296], [-113.81534268794299, 52.22959534499529], [-113.81535200766805, 52.229592113137194], [-113.81536138421544, 52.229588944282675], [-113.81537081466512, 52.229585836629575], [-113.81538030047342, 52.229582791977755], [-113.81538983871667, 52.22957980942383], [-113.81539942792372, 52.22957689076311], [-113.81540906956205, 52.229574035099], [-113.81541875923313, 52.22957124422229], [-113.81542849693697, 52.22956851813288], [-113.81543828267732, 52.22956585593204], [-113.81544811498684, 52.22956325851622], [-113.81545799093806, 52.229560725880845], [-113.81546791199109, 52.22955825892697], [-113.81547787521474, 52.2295558585488], [-113.81548788061659, 52.229553522948756], [-113.81549792525799, 52.22955125481861], [-113.81550801061019, 52.229549052363055], [-113.81551813227095, 52.229546918271595], [-113.81552829171517, 52.229544849850114], [-113.81553848747173, 52.229542848893935], [-113.81554871807325, 52.22954091629953], [-113.81555897913609, 52.22953905026244], [-113.81556927358027, 52.22953725258481], [-113.81557959994211, 52.22953552326435], [-113.81558995675424, 52.22953386319755], [-113.81560034109302, 52.22953227148104], [-113.81561075149477, 52.229530748112545], [-113.81562118942328, 52.22952929309434], [-113.81563165340737, 52.229527908221684], [-113.81564213906348, 52.22952659169011], [-113.8156526478479, 52.229525345299564], [-113.81566317830067, 52.2295241681489], [-113.81567372895445, 52.22952306113463], [-113.81568429688186, 52.22952202425215], [-113.81569488355036, 52.229521056605], [-113.81570548602889, 52.229520159087365], [-113.81571610431747, 52.22951933169925], [-113.81572673694878, 52.229518575337146], [-113.8157373809991, 52.229517889097686], [-113.81574803793595, 52.22951727208437], [-113.8157587018934, 52.22951672698446], [-113.81576937726632, 52.229516252905924], [-113.8157800611348, 52.2295158480467], [-113.81579074910036, 52.2295155141975], [-113.81580144408669, 52.22951525226161], [-113.81581214317762, 52.2295150595382], [-113.81582284489832, 52.22951493872127], [-113.8158335477926, 52.229514888010975], [-113.81584425038936, 52.22951490920264], [-113.81585495123235, 52.229515000496356], [-113.81586565178908, 52.22951516099567], [-113.81587634765361, 52.229515394288846], [-113.81588704030082, 52.22951569768184], [-113.81589772533597, 52.22951607206656], [-113.81590840569021, 52.2295165165488], [-113.81591907404136, 52.2295170320159], [-113.81592973624429, 52.22951761847705], [-113.81594038498422, 52.229518275022045], [-113.81595102172493, 52.22951900165313], [-113.81596164646645, 52.22951979837034], [-113.81597225627772, 52.229520666067906], [-113.81598284969508, 52.22952160474351], [-113.8159934267297, 52.229522611700865], [-113.8160039844431, 52.229523689631705], [-113.81601452137907, 52.22952483673621], [-113.81602504046131, 52.22952605391773], [-113.81603553730248, 52.229527340270636], [-113.81604600897153, 52.2295286966892], [-113.81605645840703, 52.22953012048157], [-113.81606687973932, 52.22953161523382], [-113.81607727737078, 52.229533178256396], [-113.81608764544657, 52.22953480954021], [-113.81609798396305, 52.22953650998405], [-113.81610829146395, 52.22953827778809], [-113.81611856940563, 52.229540114752155], [-113.81612881340445, 52.22954201907189], [-113.81613902346041, 52.22954399074724], [-113.81614919810617, 52.22954603067477], [-113.81615933442177, 52.22954813705234], [-113.81616943679465, 52.22955031078558], [-113.81617949791001, 52.229552550964314], [-113.81618952069535, 52.229554857593136], [-113.81619950222327, 52.22955723066746], [-113.81620944103383, 52.22955966928628], [-113.81621933712701, 52.22956217344956], [-113.81622918757549, 52.22956474315278], [-113.81623899237931, 52.22956737839591], [-113.81624875154218, 52.22957007828024], [-113.81625846214042, 52.2295728419024], [-113.81626812417412, 52.22957566926239], [-113.81627773617585, 52.22957856125677], [-113.81628729522565, 52.2295815160834], [-113.81629680425097, 52.229584533746824], [-113.81630625739332, 52.22958761513677], [-113.81631565758754, 52.22959075846023], [-113.81632500190624, 52.229593963712645], [-113.81633428742575, 52.22959722999067], [-113.81634351706607, 52.229600559096475], [-113.81635268791467, 52.22960394743038], [-113.81636179850045, 52.22960739678768], [-113.81637084736344, 52.22961090626729], [-113.81637983450362, 52.2296144758693], [-113.81638875992478, 52.229618104694886], [-113.81639761924313, 52.22962179093969], [-113.8164064139151, 52.2296255364035], [-113.81641514248065, 52.22962934018539], [-113.81642380347978, 52.2296332013842], [-113.8164323969125, 52.229637120000014], [-113.8164409198589, 52.229641094230715], [-113.81644937524263, 52.22964512497959], [-113.81645775574886, 52.22964921133659], [-113.81646606723245, 52.22965335331074], [-113.81647430384233, 52.22965754999422], [-113.81648246704214, 52.22966180138931], [-113.81649055537193, 52.22966610659497], [-113.8164985659117, 52.22967046380907], [-113.81650650158514, 52.22967487393501], [-113.81651435800114, 52.22967933696589], [-113.81652213662714, 52.229683852005294], [-113.81652983600684, 52.22968841725338], [-113.81738626766744, 52.23020180149825], [-113.8176860693945, 52.23038178423794], [-113.81902276078098, 52.231183587097526], [-113.81928437838019, 52.23134016646717], [-113.82193750321808, 52.232931499516006], [-113.82224086135467, 52.2331135296847], [-113.82257861526939, 52.23331565471693], [-113.8233751102265, 52.2337934890344], [-113.82341334714152, 52.23381647620562], [-113.82345150338116, 52.23383951447479], [-113.82348958188021, 52.2338626020488], [-113.82352757824356, 52.23388573981994], [-113.82356549394225, 52.2339089259929], [-113.82360333043293, 52.233932162367516], [-113.82364108625178, 52.23395544894168], [-113.82367876140593, 52.23397878391792], [-113.82371635296407, 52.2340021681907], [-113.82375386531426, 52.23402560266543], [-113.82379129700328, 52.23404908464366], [-113.82382864655658, 52.23407261681962], [-113.82386591398487, 52.23409619649708], [-113.823903099281, 52.23411982547364], [-113.82394020244497, 52.23414350374941], [-113.82397722494775, 52.234167229529035], [-113.82401416239058, 52.234191004603666], [-113.82405102063608, 52.234214827184495], [-113.82408779382523, 52.234238698161676], [-113.82412448488566, 52.23426261753964], [-113.82416109382099, 52.234286584419706], [-113.82419761770342, 52.234310598797556], [-113.82423405799686, 52.23433466067545], [-113.824270416158, 52.23435877185324], [-113.82430668927685, 52.23438292783271], [-113.8243428802634, 52.23440713311219], [-113.82437898619698, 52.234431385889884], [-113.82441500854851, 52.234455684370396], [-113.82445094584347, 52.23448003124806], [-113.82448679808894, 52.23450442472535], [-113.8245225667452, 52.234528865703304], [-113.82455825035544, 52.23455335238225], [-113.82459384891611, 52.234577885661054], [-113.82462936096329, 52.23460246553762], [-113.82466479088858, 52.234627092018535], [-113.82470013137255, 52.234651765093005], [-113.82473538827425, 52.23467648387104], [-113.82477055866585, 52.23470124834834], [-113.82480564400417, 52.23472606032474], [-113.8248406428394, 52.23475091620301], [-113.82487555515738, 52.23477581957837], [-113.82491038243609, 52.23480076685787], [-113.82494512027678, 52.23482575983273], [-113.8249797730675, 52.234850799408235], [-113.82501433935143, 52.234875883784795], [-113.82504881766464, 52.23490101296029], [-113.8250832080035, 52.23492618783355], [-113.82511751183898, 52.2349514066093], [-113.82515172916044, 52.234976671983944], [-113.82518585705414, 52.235001980358064], [-113.82521989844078, 52.23502733353369], [-113.82525385185639, 52.23505273150869], [-113.8252877158406, 52.23507817338217], [-113.82532149185019, 52.235103660953975], [-113.82535517989918, 52.23512919062906], [-113.8253887785131, 52.235154765101655], [-113.82542228769536, 52.23518038347306], [-113.82545570890983, 52.23520604574551], [-113.82548904215648, 52.23523175191908], [-113.82552228451097, 52.23525750109073], [-113.82555543889747, 52.23528329416367], [-113.82558850239171, 52.23530913023481], [-113.82562147645748, 52.23533500930646], [-113.82565436109125, 52.235360932277445], [-113.82568715483606, 52.235386897348086], [-113.8257198606126, 52.23541290632036], [-113.8257524740362, 52.23543895739031], [-113.82578499657063, 52.235465050560144], [-113.82581742967973, 52.23549118583214], [-113.82584977189255, 52.23551736500173], [-113.82588202321952, 52.23554358537266], [-113.82591418365709, 52.23556984784377], [-113.82594625320517, 52.23559615241517], [-113.82597823039627, 52.23562249998351], [-113.82600961043308, 52.23564845119486], [-113.82604090251733, 52.235674441814915], [-113.82607210517801, 52.23570047363917], [-113.82610321988251, 52.23572654577108], [-113.82613424663418, 52.2357526573119], [-113.8261651810378, 52.23577880915404], [-113.82619602749205, 52.235804999506485], [-113.82622678598621, 52.2358312310656], [-113.82625745213556, 52.235857502027464], [-113.82628803179922, 52.235883811501964], [-113.8263185191179, 52.23591016037936], [-113.82634891701936, 52.235936548663986], [-113.8263792240396, 52.23596297635383], [-113.82640944164947, 52.23598944165344], [-113.82643956837447, 52.236015947257194], [-113.82646960715284, 52.236042490473025], [-113.82649955211832, 52.23606907398878], [-113.82652940767662, 52.23609569421586], [-113.82655917235316, 52.236122353848536], [-113.82658884615495, 52.23614905108926], [-113.8266184276179, 52.236175785936005], [-113.82750897557231, 52.23698310107248], [-113.82811155795285, 52.237529152357325], [-113.83236835909277, 52.24138579256977], [-113.83433273943362, 52.2431651191807], [-113.83446015339902, 52.24328053804426], [-113.83450562514214, 52.24332171423946], [-113.83463311151435, 52.24343719592952], [-113.83583474090958, 52.24452538927484], [-113.837992790768, 52.246479331287155], [-113.83799277036368, 52.24668594762729], [-113.83844493930592, 52.24731220631058], [-113.83930072756675, 52.24875262400153], [-113.83908611302098, 52.24912532906551], [-113.83970088384018, 52.2499500203336], [-113.84032330514435, 52.24996519407178], [-113.84225969433824, 52.25084454653157], [-113.84367984086212, 52.25177879630305], [-113.84399020058727, 52.25204487517787], [-113.84679396265177, 52.25444839015947], [-113.84681037261889, 52.254463312457524], [-113.84682669313688, 52.254478270588734], [-113.84684292713166, 52.25449326545571], [-113.8468590716741, 52.254508297054684], [-113.84687512677036, 52.25452336358812], [-113.84689109242038, 52.254538465056086], [-113.84690697008246, 52.25455360325806], [-113.84692275829818, 52.2545687763946], [-113.84693845560608, 52.25458398356506], [-113.84695406346134, 52.25459922746777], [-113.84696958187627, 52.25461450450761], [-113.84698500791553, 52.25462981647834], [-113.84700034451132, 52.254645162485055], [-113.84701559019587, 52.254660543424684], [-113.84703074497841, 52.25467595660087], [-113.84704580884963, 52.25469140471003], [-113.84706078181566, 52.254706885954604], [-113.84707566387638, 52.25472240033464], [-113.84709045210266, 52.25473794784641], [-113.84710514795906, 52.254753528491776], [-113.84711975291614, 52.254769140475176], [-113.84713426550317, 52.254784785592264], [-113.84714868572317, 52.25480046294434], [-113.84716301211147, 52.254816172529445], [-113.84717724760026, 52.254831913452705], [-113.84719003684691, 52.254846165907274], [-113.84720274985295, 52.254860445225376], [-113.84721538662446, 52.25487474960948], [-113.84722794862591, 52.25488907906149], [-113.84724043146059, 52.254903434474535], [-113.84725283952821, 52.2549178140568], [-113.84726516843202, 52.25493221870136], [-113.84727742110101, 52.25494664841202], [-113.84728959607064, 52.25496110318697], [-113.8474876173317, 52.2552145530719], [-113.84976231759362, 52.25727280445889], [-113.8519874546001, 52.2592853940467], [-113.85213957486395, 52.25928538061795], [-113.85233842174783, 52.25946663890117], [-113.85362037732025, 52.260626815663954], [-113.85417617029738, 52.26112981111245], [-113.85557015537088, 52.262391414067395], [-113.85990780534442, 52.26631553090613], [-113.8600340726884, 52.26659108574467], [-113.86016243548173, 52.266707239637164], [-113.8614658729234, 52.267886685214876], [-113.86176247380332, 52.26815232110578], [-113.86176406004047, 52.26839547864364], [-113.8617728789501, 52.2697409026438], [-113.86186836378194, 52.26967178183295], [-113.86200968169227, 52.26952817823277], [-113.86230585013563, 52.269344520995936], [-113.86247632732227, 52.269191762544274], [-113.86273104184488, 52.26904370987074], [-113.86286797713423, 52.268993291615935], [-113.8639085343762, 52.26993380806624], [-113.86392737810617, 52.26995092917444], [-113.8639461264992, 52.269968090615066], [-113.86396477809288, 52.26998529148772], [-113.86398333288997, 52.270002530893635], [-113.86400179088761, 52.27001980973164], [-113.86402015208573, 52.2700371280018], [-113.86403841502472, 52.27005448390491], [-113.86405658262913, 52.27007187924194], [-113.86407465197432, 52.27008931221197], [-113.86409262305737, 52.270106783713885], [-113.86411049734613, 52.27012429285062], [-113.8641282719131, 52.27014183872], [-113.86414594821781, 52.270159423121385], [-113.86416352626841, 52.27017704335845], [-113.86418100459426, 52.27019470122714], [-113.86419838612541, 52.270212396730834], [-113.86421566500708, 52.2702301280653], [-113.86423284709663, 52.270247896136084], [-113.86424992946667, 52.27026570004109], [-113.86426691065478, 52.27028353887988], [-113.86428379211767, 52.27030141535054], [-113.86430057386632, 52.270319325857976], [-113.86431725443003, 52.27033727219814], [-113.8643338338115, 52.27035525347223], [-113.86435031347568, 52.27037326968203], [-113.86436669048966, 52.27039132172297], [-113.86438296779168, 52.27040940690213], [-113.86439914391386, 52.270427526116634], [-113.86441521738828, 52.27044568026363], [-113.86443118968819, 52.270463866648484], [-113.86444705934018, 52.27048208796592], [-113.86446282635241, 52.270500341519586], [-113.86447849364666, 52.270518630009306], [-113.86449405537084, 52.270536950731994], [-113.86450951592002, 52.27055530369278], [-113.86452487236124, 52.27057368978709], [-113.86454012763008, 52.270592107220736], [-113.86455527732568, 52.27061055778632], [-113.86457032438359, 52.27062903968968], [-113.86458526733868, 52.27064755292916], [-113.86460010765586, 52.27066609750647], [-113.86461484240496, 52.270684673418316], [-113.86462947304813, 52.27070328156517], [-113.86464399959357, 52.270721919250754], [-113.86465842203839, 52.27074058737385], [-113.86467274038247, 52.270759285934524], [-113.86468695316071, 52.27077801493115], [-113.86470106184075, 52.270796773466614], [-113.86471506349238, 52.27081556153763], [-113.86472896104559, 52.27083437914759], [-113.86474275157019, 52.27085322629316], [-113.86475643799619, 52.27087210297778], [-113.86477001739878, 52.27089100740051], [-113.86478349124025, 52.27090994046182], [-113.86479685952317, 52.270928901263055], [-113.8648101207769, 52.27094789160007], [-113.8648232750068, 52.270966909675366], [-113.86483632368059, 52.27098595459187], [-113.86484926533305, 52.27100502634794], [-113.86486209849352, 52.271024126739455], [-113.86487482610026, 52.27104325307354], [-113.86488744668263, 52.271062407146054], [-113.8648999587836, 52.27108158625903], [-113.86491236239486, 52.27110079310883], [-113.86492466191973, 52.27112002500419], [-113.86493685002722, 52.27113928373434], [-113.86494893111794, 52.27115856750672], [-113.86496090372943, 52.27117787542096], [-113.86497277078345, 52.271197210176766], [-113.86498452496275, 52.27121656906947], [-113.8649961735899, 52.27123595300624], [-113.86500771226945, 52.2712553619821], [-113.86501914247462, 52.27127479330237], [-113.86503046419433, 52.27129425056225], [-113.86504167597157, 52.27131373106374], [-113.86505277927131, 52.271333234808566], [-113.86506377409611, 52.27135276089795], [-113.86507465604247, 52.2713723120232], [-113.86508543098147, 52.271391884596014], [-113.86509609597462, 52.27141148130936], [-113.86510664956764, 52.271431098566474], [-113.86511709468239, 52.27145073906706], [-113.86512742985907, 52.27147040101196], [-113.86513765509761, 52.27149008440115], [-113.86514776746493, 52.27150979013013], [-113.86515777136164, 52.27152951640636], [-113.86516766385738, 52.27154926322655], [-113.86517744494662, 52.27156903238827], [-113.86518711757031, 52.27158882029973], [-113.86519667732486, 52.27160862965234], [-113.86520612568063, 52.271628458650234], [-113.8652154640999, 52.27164830819388], [-113.8652246911256, 52.271668175585276], [-113.86523380528159, 52.2716880644179], [-113.86524280804373, 52.27170797109834], [-113.86525170087428, 52.27172789652707], [-113.86526048084013, 52.271747841599534], [-113.86526915087958, 52.27176780362278], [-113.8652777051266, 52.27178778438772], [-113.86528615090653, 52.27180778390267], [-113.86529448382942, 52.271827800365145], [-113.86530270242999, 52.27184783377347], [-113.86531081110071, 52.27186788503149], [-113.86531880544884, 52.27188795323538], [-113.86532668840442, 52.27190803838853], [-113.86533445850223, 52.271928140489315], [-113.86534211574487, 52.27194825863897], [-113.86534966013488, 52.27196839193871], [-113.86535709166668, 52.27198854218611], [-113.8653644103483, 52.27200870668487], [-113.86537161617412, 52.27202888723257], [-113.86537870767893, 52.27204908382758], [-113.86538568780094, 52.27206929377688], [-113.86539255360435, 52.272089518874736], [-113.86539930509171, 52.27210975822238], [-113.86540594373075, 52.2721300109227], [-113.8654124695131, 52.27215027967211], [-113.86541888098712, 52.27217055997498], [-113.86542517814456, 52.27219085452773], [-113.86543136392085, 52.272211161536134], [-113.86543743391512, 52.27223148279277], [-113.86544338960047, 52.27225181560297], [-113.8654492324364, 52.27227216176599], [-113.86545495949804, 52.27229251948093], [-113.86546057371264, 52.27231288964995], [-113.86546607361775, 52.2723332713726], [-113.8654714592159, 52.272353663750124], [-113.8654767319666, 52.27237406858177], [-113.86548188747979, 52.27239448406497], [-113.86548693015342, 52.27241490930597], [-113.86549185851402, 52.27243534699946], [-113.86549667110722, 52.27245579354869], [-113.86550136939526, 52.272476249854066], [-113.86550595337798, 52.27249671591563], [-113.8655104230525, 52.27251719263216], [-113.86551477695626, 52.27253767910326], [-113.86551901802481, 52.27255817353469], [-113.86552314186262, 52.272578675921444], [-113.8655271513943, 52.272599188064454], [-113.86553104515734, 52.27261970906328], [-113.8655348246221, 52.27264023712203], [-113.86553848978576, 52.27266077313951], [-113.865542039183, 52.272681317114035], [-113.8655454742815, 52.27270186814854], [-113.86554879214816, 52.27272242713843], [-113.8655519957185, 52.27274299228952], [-113.86555508499235, 52.27276356360185], [-113.8655580570366, 52.2727841419708], [-113.865560914784, 52.27280472650101], [-113.86556365676935, 52.27282531719076], [-113.8655662829952, 52.27284591314129], [-113.86556879492645, 52.272866514354284], [-113.86557119109516, 52.27288712172689], [-113.86557347150925, 52.27290773256272], [-113.86557563616323, 52.2729283486594], [-113.8655776865247, 52.27294896911974], [-113.86557961966055, 52.27296959483928], [-113.86558143704391, 52.272990223123266], [-113.86558313866918, 52.27301085576935], [-113.86558472600406, 52.27303149188037], [-113.86558619758594, 52.27305213055588], [-113.86558755194685, 52.273072772693034], [-113.86558879201688, 52.27309341829515], [-113.86558991633616, 52.27311406556299], [-113.8655909234367, 52.273134715393674], [-113.86559181625131, 52.27315536689178], [-113.8655925918468, 52.27317602095274], [-113.86559325316152, 52.27319667488355], [-113.86559379872197, 52.273217331378866], [-113.86559422706554, 52.27323798953827], [-113.86559453966542, 52.27325864666708], [-113.86559473797843, 52.273279305463305], [-113.86559481907953, 52.27329996412607], [-113.8655947858961, 52.27332062355745], [-113.86559463550049, 52.273341282855334], [-113.8655943708282, 52.27336194022552], [-113.86559398747548, 52.27338259835936], [-113.86559349131096, 52.27340325456714], [-113.86559287793357, 52.27342391064145], [-113.86559214881642, 52.27344456388756], [-113.86559130395395, 52.27346521610308], [-113.86559034481115, 52.273485867289665], [-113.86558926699782, 52.27350651564474], [-113.86558807637172, 52.273527162073755], [-113.86558676707749, 52.27354780477248], [-113.86558534497013, 52.27356844554512], [-113.8655838056595, 52.27358908258914], [-113.86558214914265, 52.2736097168033], [-113.86558037981773, 52.273630347293796], [-113.86557849329168, 52.27365097315688], [-113.86557649248931, 52.27367159619341], [-113.86557437448556, 52.273692214602505], [-113.86557214221331, 52.2737128274887], [-113.86556979273934, 52.273733435747424], [-113.86556732899383, 52.273754039382034], [-113.86556474951145, 52.27377463839081], [-113.86556205429751, 52.27379523097624], [-113.86555924334908, 52.27381581803707], [-113.86555631813394, 52.27383639867615], [-113.86555327718398, 52.273856973790636], [-113.86555012050725, 52.27387754068415], [-113.86554684956057, 52.27389810205467], [-113.86554346288138, 52.273918657001786], [-113.86553996047492, 52.27393920372789], [-113.86553635019452, 52.273959567877654], [-113.86553262711693, 52.27397992380976], [-113.865528791242, 52.27400027152417], [-113.86552484110167, 52.27402061191798], [-113.86552077816368, 52.27404094409408], [-113.8655166024306, 52.27406126715365], [-113.86551231389957, 52.2740815819955], [-113.86550791257586, 52.27410188682204], [-113.86550339991908, 52.274122183432446], [-113.86549877153897, 52.274142470024195], [-113.86549403183362, 52.27416274570349], [-113.86548917932954, 52.27418301316495], [-113.86548421403478, 52.27420326971226], [-113.86547913741433, 52.27422351534704], [-113.8654739465377, 52.274243750065985], [-113.86546864433235, 52.27426397477115], [-113.86546322933845, 52.274284187663326], [-113.8654577015558, 52.27430438874248], [-113.86545206098154, 52.274324578907375], [-113.86544630908615, 52.27434475636211], [-113.86544044586678, 52.274364922005425], [-113.86543446839288, 52.274385075834005], [-113.86542838106533, 52.274405216055236], [-113.86542218094814, 52.274425344463374], [-113.86541586951184, 52.274445459262466], [-113.86540944529104, 52.27446556045085], [-113.86540291121601, 52.27448564803181], [-113.86539626288828, 52.274505722899164], [-113.8653895047115, 52.2745257823615], [-113.8653826352148, 52.274545828214706], [-113.86537565293297, 52.27456586045712], [-113.86536856080701, 52.27458587549692], [-113.86536135589286, 52.27460587782462], [-113.86535404112892, 52.27462586474723], [-113.86534661358736, 52.2746458353626], [-113.86533907619572, 52.27466579057284], [-113.86533142895387, 52.274685730377904], [-113.86532366893397, 52.27470565387571], [-113.86531580053149, 52.27472556107118], [-113.8653078208186, 52.274745451062174], [-113.86529972832457, 52.27476532564458], [-113.86529152745568, 52.274785181228296], [-113.86528321673848, 52.27480502050792], [-113.86527479324242, 52.274824843480104], [-113.86526626283627, 52.27484464745517], [-113.86525761965646, 52.2748644333252], [-113.8652488680984, 52.274884201095155], [-113.86524000523157, 52.274903950761676], [-113.86523103398895, 52.27492368142933], [-113.86522195290253, 52.27494339399516], [-113.86521276344277, 52.27496308666328], [-113.86520346267645, 52.274982760329095], [-113.8651940520713, 52.27500241409547], [-113.86518453308972, 52.27502204886282], [-113.86517490573704, 52.275041662833566], [-113.86516516854786, 52.275061256006005], [-113.86515532298189, 52.275080830179334], [-113.86514536904438, 52.275100383556016], [-113.86513530527552, 52.27511991433675], [-113.86512513313484, 52.27513942432071], [-113.86511485408477, 52.275158914408365], [-113.86510446520292, 52.275178381900005], [-113.86509396795165, 52.27519782769602], [-113.86508336379602, 52.27521725179809], [-113.86507265127621, 52.2752366524069], [-113.86506183038387, 52.27525603221885], [-113.86505090259497, 52.2752753876404], [-113.86503986643606, 52.27529472136616], [-113.86502872338036, 52.275314030701495], [-113.86501747342234, 52.275333317443895], [-113.86500611656727, 52.27535257979579], [-113.86499465280963, 52.27537181955473], [-113.86498308068953, 52.275391034921384], [-113.86497140167478, 52.275410224998666], [-113.86495961722504, 52.275429391585774], [-113.86494772588043, 52.275448532883395], [-113.86493572910602, 52.27546764889326], [-113.86492362396855, 52.27548674051066], [-113.86491141487177, 52.27550580504433], [-113.86489909887692, 52.27552484518722], [-113.86488667745456, 52.27554385914337], [-113.86487415060188, 52.27556284781157], [-113.86486151832418, 52.27558180939418], [-113.86484877915345, 52.27560074478831], [-113.86483593601994, 52.27561965399723], [-113.86482298746661, 52.27563853432296], [-113.86480993348509, 52.275657388461745], [-113.86479677554323, 52.27567621551649], [-113.86478351364096, 52.27569501548716], [-113.8647701463184, 52.275713786574414], [-113.86475667503794, 52.275732529678756], [-113.86474309979945, 52.2757512448001], [-113.8647294206056, 52.27576993103963], [-113.86471563598826, 52.27578858929445], [-113.86470175034856, 52.275807217771984], [-113.86468776075316, 52.275825817367604], [-113.86467366573673, 52.275844388079584], [-113.86465946969761, 52.275862929014174], [-113.86211029332796, 52.27917338139757], [-113.86177196863157, 52.279642119655264], [-113.86147569420443, 52.280111478767026], [-113.86136350512864, 52.28030667621813], [-113.86056843161616, 52.281660659372186], [-113.86060507994951, 52.28169495887531], [-113.86060938708808, 52.28169908847727], [-113.86061359739357, 52.28170325481489], [-113.86061771086882, 52.281707456989444], [-113.8606217275138, 52.281711695000894], [-113.86062564733135, 52.28171596795051], [-113.86062946593071, 52.281720274035536], [-113.86063318477737, 52.28172461325771], [-113.86063680240869, 52.28172898471649], [-113.86064031883309, 52.28173338571563], [-113.86064373404491, 52.28173781805265], [-113.86064704511892, 52.28174227992656], [-113.86065025352615, 52.28174676954149], [-113.86065335780111, 52.281751286895776], [-113.86065635648407, 52.28175583019008], [-113.86065924957212, 52.28176040032327], [-113.86066203707371, 52.28176499459895], [-113.86066471752619, 52.281769612116626], [-113.86066729092954, 52.28177425287631], [-113.86066975728654, 52.281778915979245], [-113.86067211513456, 52.28178360052492], [-113.86067436594746, 52.281788303818686], [-113.8606765067915, 52.28179302675594], [-113.86067853767233, 52.28179776753911], [-113.86068045858985, 52.281802526168164], [-113.86068226954976, 52.28180730084559], [-113.86068396908931, 52.281812090670854], [-113.86068555867678, 52.281816894746925], [-113.86068703684953, 52.281821712173304], [-113.86068840361028, 52.28182654205119], [-113.86068965749647, 52.281831383480096], [-113.86069079997908, 52.2818362346642], [-113.8606918295926, 52.28184109560177], [-113.86069274780252, 52.281845966294505], [-113.86069355169198, 52.28185084224512], [-113.86069424418335, 52.28185572615333], [-113.86069482235419, 52.28186061531942], [-113.8606952876699, 52.28186550974508], [-113.86069564014171, 52.281870405835186], [-113.8606958782957, 52.28187530628434], [-113.86069600507399, 52.281880207500905], [-113.8606960160802, 52.281885109479724], [-113.86069591424798, 52.281890011325395], [-113.86069570104843, 52.281894911242134], [-113.86069537061971, 52.28189980922303], [-113.86069493029461, 52.281904703479164], [-113.86069437714222, 52.28190959400704], [-113.86069370823728, 52.2819144790057], [-113.86069292797605, 52.28191935848028], [-113.86069203490435, 52.28192422883395], [-113.86069102901648, 52.281929091864235], [-113.86068991031806, 52.28193394577364], [-113.86068868027728, 52.28193878966504], [-113.86067040225234, 52.282006405162996], [-113.86066320922473, 52.28203323794962], [-113.86065612606534, 52.282060080751975], [-113.86064915569679, 52.282086936269806], [-113.86064229959321, 52.2821138018086], [-113.86063555482107, 52.28214067826363], [-113.86062891991513, 52.28216756563321], [-113.86062240074017, 52.28219446302552], [-113.8606159929001, 52.282221370435394], [-113.86060969786334, 52.28224828696576], [-113.860603514159, 52.28227521441247], [-113.86059744325561, 52.282302151878504], [-113.86059148662439, 52.28232909756806], [-113.86058564279448, 52.28235605327699], [-113.86057991030347, 52.28238301810479], [-113.86057429061977, 52.28240999115438], [-113.86056878373805, 52.28243697422342], [-113.86056339112947, 52.282463965516044], [-113.86055810986343, 52.282490965028835], [-113.86055294287385, 52.28251797186644], [-113.86054788869261, 52.28254498692598], [-113.8605429458545, 52.28257201020571], [-113.8605381172906, 52.282599041709105], [-113.86053340007022, 52.28262608143272], [-113.86052879859842, 52.28265312668544], [-113.86052430847054, 52.282680180158394], [-113.86051993262336, 52.28270724005751], [-113.86051566812333, 52.282734307278126], [-113.86051151790723, 52.28276138002613], [-113.86050748196678, 52.28278846099793], [-113.86050355884802, 52.28281554659665], [-113.86049974854554, 52.28284263861983], [-113.86049605105951, 52.28286973706753], [-113.86049246639297, 52.28289684104097], [-113.86048899601158, 52.28292395054188], [-113.86048563845011, 52.282951065568554], [-113.86048239517703, 52.28297818522394], [-113.86047926472429, 52.283005310405095], [-113.86047624856035, 52.28303244021497], [-113.86047334521996, 52.28305957465188], [-113.86047055616595, 52.2830867146163], [-113.86046787994158, 52.28311385741022], [-113.86046531654138, 52.28314100483116], [-113.86046286743384, 52.28316815598208], [-113.86043664452635, 52.283742683051706], [-113.86043417664538, 52.28474084005322], [-113.86043400339972, 52.28482303087291], [-113.8604327264926, 52.285403860763665], [-113.86043247555034, 52.285412362056185], [-113.86043211029788, 52.28542086231485], [-113.86043163074082, 52.28542935974204], [-113.86043103541067, 52.28543785523484], [-113.86043032431587, 52.285446346096926], [-113.86042949891625, 52.28545483412752], [-113.8604285592174, 52.28546331752914], [-113.86042750228816, 52.28547179629827], [-113.86042633106516, 52.285480268640825], [-113.86042504701395, 52.28548873455852], [-113.86042364720333, 52.28549719404789], [-113.86042213310446, 52.285505645313144], [-113.86042050324887, 52.28551408925125], [-113.86041876057043, 52.28552252496696], [-113.86041690214365, 52.28553095065925], [-113.86041492943116, 52.28553936722853], [-113.86041284390413, 52.28554777287905], [-113.86041064409407, 52.28555616850783], [-113.86040833000945, 52.28556455141854], [-113.86040590457561, 52.285572923412175], [-113.86040336340152, 52.28558128268597], [-113.86040071088658, 52.28558962834636], [-113.86039794263411, 52.285597960388124], [-113.86039506304628, 52.28560627701888], [-113.86039207065473, 52.28561457913568], [-113.86038896692489, 52.285622866740276], [-113.86038575039967, 52.28563113713452], [-113.86038242107617, 52.285639391217245], [-113.8603789804227, 52.28564762809136], [-113.86037542843924, 52.28565584775688], [-113.86037176513413, 52.28566404751743], [-113.86036799196731, 52.28567222917233], [-113.8603641060104, 52.28568039181927], [-113.86036011166566, 52.285688533665905], [-113.86035600453353, 52.28569665560583], [-113.86035178901913, 52.285704754947844], [-113.86034746365117, 52.28571283348782], [-113.86034302843247, 52.28572089032691], [-113.86033848483412, 52.285728923669296], [-113.8603338328561, 52.285736933515], [-113.86032907103566, 52.28574491896343], [-113.86032420230383, 52.28575288001808], [-113.86031922519783, 52.28576081577843], [-113.86031414118034, 52.28576872714496], [-113.8603089502598, 52.285776611421326], [-113.86030365243619, 52.28578446860751], [-113.86029824770942, 52.285792298703505], [-113.86029273754502, 52.285800101711025], [-113.86028712195143, 52.28580787493373], [-113.86028140092013, 52.28581562106789], [-113.86027557592793, 52.285823336520195], [-113.86026964550645, 52.28583102218762], [-113.86026361112395, 52.28583867717309], [-113.86025747424318, 52.28584630237714], [-113.86025123340703, 52.28585389510163], [-113.86024489008102, 52.28586145534836], [-113.86023844426224, 52.285868984016005], [-113.86023189742474, 52.28587647841002], [-113.86022524810008, 52.285883939427364], [-113.86021849921937, 52.28589136707155], [-113.86021164932264, 52.285898759543215], [-113.86020469840987, 52.28590611684237], [-113.86019764794659, 52.28591343897074], [-113.86019050086956, 52.28592072413421], [-113.8601832527821, 52.28592797232753], [-113.86017590661237, 52.28593518445298], [-113.8601684638345, 52.2859423578159], [-113.8601609259083, 52.28594949421557], [-113.86015328991117, 52.28595659095219], [-113.86014555730576, 52.28596364892621], [-113.86013772956048, 52.28597066724063], [-113.86012980814083, 52.28597764589713], [-113.86012179012135, 52.28598458309463], [-113.86011367989875, 52.28599147883839], [-113.86010547747007, 52.28599833402713], [-113.86009718137835, 52.286005145962704], [-113.86008879308336, 52.28601191644449], [-113.86008031259085, 52.28601864367483], [-113.86007174283186, 52.28602532765723], [-113.86006308234369, 52.286031967491105], [-113.86005433112629, 52.28603856317651], [-113.86004549211647, 52.28604511291924], [-113.86003656384298, 52.28605161851518], [-113.86002754777704, 52.28605807816844], [-113.86001844391863, 52.286064491879024], [-113.860009253739, 52.28607085785109], [-113.85917234761087, 52.28663523508371], [-113.85916204696106, 52.28664323185493], [-113.85915183264348, 52.286651270970964], [-113.85914170905488, 52.286659352437155], [-113.8591316718042, 52.28666747445066], [-113.85912172528542, 52.28667563791555], [-113.85911186803577, 52.286683841931314], [-113.85910210151806, 52.2866920873985], [-113.85909242427242, 52.286700372517835], [-113.85908283776442, 52.28670869729108], [-113.85907334492818, 52.286717060822966], [-113.85906394136407, 52.28672546400709], [-113.8590546314746, 52.286733905051086], [-113.85904541379422, 52.286742383953296], [-113.8590362897885, 52.286750900715454], [-113.8590272594547, 52.28675945623637], [-113.85901832133578, 52.28676804781798], [-113.85900947836008, 52.28677667636258], [-113.85900073199896, 52.286785340074395], [-113.85899207931556, 52.286794040747495], [-113.85898352031562, 52.286802776584324], [-113.8589750593931, 52.28681154848897], [-113.85896669509387, 52.28682035286457], [-113.85895842594093, 52.28682919330449], [-113.85895025487696, 52.28683806621715], [-113.8589421804278, 52.28684697429716], [-113.85822622403882, 52.28765709323598], [-113.85822059647481, 52.28766337885842], [-113.85821487082141, 52.28766963020909], [-113.85820904561295, 52.2876758472862], [-113.8582031208523, 52.28768202919096], [-113.85819709801075, 52.287688174127595], [-113.85819097561696, 52.287694283891824], [-113.85818475514507, 52.28770035578909], [-113.85817843952636, 52.2877063898229], [-113.85817202875793, 52.28771238689199], [-113.85816551992001, 52.28771834339777], [-113.85815891740366, 52.28772426114298], [-113.85815222121177, 52.287730139228884], [-113.85814542988155, 52.28773597675492], [-113.85813854781273, 52.28774177282756], [-113.85813157207693, 52.28774752654448], [-113.85812450413684, 52.287753238806204], [-113.85811734546103, 52.28775890871572], [-113.85811009605513, 52.287764534475436], [-113.85810275738199, 52.28777011698588], [-113.85809533091285, 52.28777565445125], [-113.85808781371365, 52.287781147766765], [-113.85808021165265, 52.28778659514191], [-113.8580725203329, 52.287791996571364], [-113.8580647456198, 52.2877973511634], [-113.8580568831136, 52.28780265981148], [-113.85804893868827, 52.28780791892752], [-113.85804090793546, 52.28781313210134], [-113.85803279526353, 52.28781829574309], [-113.85802460067248, 52.28782340985276], [-113.85801632415657, 52.28782847622787], [-113.85800796865853, 52.287833491276835], [-113.85799953270988, 52.287838455896654], [-113.85799101631349, 52.28784336918849], [-113.85798242386339, 52.28784823205647], [-113.85797375097128, 52.28785304179883], [-113.85796500495962, 52.28785780022206], [-113.85795618143725, 52.287862505523215], [-113.85794728333829, 52.287867156807046], [-113.8579383106599, 52.28787175497233], [-113.85792926633621, 52.287876299123766], [-113.85792014890451, 52.287880788360816], [-113.8579109598304, 52.28788522268521], [-113.85790170058245, 52.28788960119994], [-113.8578923711606, 52.28789392390498], [-113.85788297449622, 52.28789819080384], [-113.85787351059211, 52.28790240099771], [-113.85786397798562, 52.28790655358604], [-113.85785437960796, 52.28791064857236], [-113.85784471545918, 52.28791468595663], [-113.85783498847057, 52.287918665742374], [-113.85782519865076, 52.28792258523323], [-113.85781534599404, 52.287926446226756], [-113.85780543196897, 52.28793024782592], [-113.85779545804114, 52.28793399003246], [-113.85778542421352, 52.28793767194756], [-113.8577753319517, 52.287941293573006], [-113.85776518272714, 52.287944853113004], [-113.85775497799683, 52.287948353265605], [-113.85774471484115, 52.28795179043214], [-113.85773439911681, 52.28795516641726], [-113.8577240308296, 52.287958479423374], [-113.85771360997381, 52.287961731248004], [-113.85770313655814, 52.287964919194806], [-113.85769261204535, 52.28796804416434], [-113.85768203936962, 52.28797110526129], [-113.8576714170596, 52.287974104281496], [-113.85766074805812, 52.287977037633354], [-113.85765003235944, 52.28797990711438], [-113.85763927142925, 52.287982712726325], [-113.857628466739, 52.28798545267341], [-113.85761761828869, 52.28798812695559], [-113.85760672753824, 52.28799073737222], [-113.85759579449636, 52.28799328122693], [-113.85758482355708, 52.2879957594238], [-113.85750588643639, 52.28801331720219], [-113.85747738003572, 52.288019610235494], [-113.85744883572241, 52.28802584030137], [-113.85742025203376, 52.28803200649924], [-113.85739163483532, 52.28803810793737], [-113.85736298265581, 52.288044146411494], [-113.85733429256695, 52.288050121019346], [-113.85730556750589, 52.288056029966825], [-113.85727680746405, 52.288061875950234], [-113.85724801391011, 52.28806765807257], [-113.85721918538141, 52.288073375433264], [-113.85719032480938, 52.28807902803577], [-113.85716142779424, 52.2880846167736], [-113.85713250166728, 52.28809014075682], [-113.8571035390975, 52.28809560087525], [-113.8570745459504, 52.28810099623721], [-113.85704552222906, 52.288106325943964], [-113.85701646499652, 52.28811159178938], [-113.85698737719282, 52.28811679108075], [-113.8569582602722, 52.28812192741487], [-113.85692911278065, 52.288126997194894], [-113.85689993324401, 52.28813200311531], [-113.85687072606505, 52.288136943383854], [-113.85684148977545, 52.28814181889756], [-113.85681222438103, 52.28814662785884], [-113.85678292987038, 52.28815137386273], [-113.85675360772662, 52.288156051518364], [-113.85672425793246, 52.288160666218396], [-113.85669488343385, 52.288165213472446], [-113.85666547982525, 52.2881696959715], [-113.85663604857244, 52.28817411371735], [-113.85660659261553, 52.288178464017165], [-113.85657711194592, 52.28818274956726], [-113.85654760510106, 52.28818696946709], [-113.85651807208386, 52.28819112281779], [-113.85648851728854, 52.28819521052352], [-113.85645893778396, 52.2881992325807], [-113.8564293335702, 52.28820318898929], [-113.85639970611886, 52.288207077953494], [-113.85637005688697, 52.28821090217145], [-113.85634038441488, 52.288214659843746], [-113.85631068870266, 52.28821835097041], [-113.85628097414738, 52.288221975556766], [-113.85625123634935, 52.28822553449623], [-113.85622147824287, 52.288229026893525], [-113.85619169836534, 52.288232451848145], [-113.85616189963947, 52.28823581205993], [-113.8561320820741, 52.28823910483255], [-113.85610224273807, 52.288242330162404]]]}}]}