{"type":"FeatureCollection","features":[{"type":"Feature","id":89,"geometry":{"type":"Polygon","coordinates":[[[-52.850938004745657,47.514804892205923],[-52.85093954231327,47.514802247548282],[-52.85129697675459,47.514279697515242],[-52.851382544754173,47.514154998945699],[-52.851528715275961,47.51390199247998],[-52.851360688818644,47.513405408360533],[-52.851164536908158,47.512322796192656],[-52.850792754088481,47.511866520602382],[-52.850005621362463,47.511219690331785],[-52.848333055280605,47.510397640953187],[-52.847729286901298,47.510255141392165],[-52.845973049967675,47.510257127832688],[-52.845190522060285,47.510376330372154],[-52.845004284609729,47.510396569266369],[-52.844729919167392,47.510473012383684],[-52.841397146431497,47.510925298363318],[-52.841169115473221,47.510919710949715],[-52.838875748409585,47.511162173613435],[-52.834009357445801,47.511537787738341],[-52.831485030860513,47.511660097905313],[-52.829858384427077,47.511484753975857],[-52.828231169966166,47.511082565667124],[-52.826984382729236,47.510657321070063],[-52.826518168702492,47.51047292460823],[-52.825776144951206,47.510131766872469],[-52.824997539837135,47.509983672472927],[-52.824471019849305,47.50980607035774],[-52.823153819512413,47.509264810472942],[-52.822497501872952,47.508932164197496],[-52.822312922155803,47.508764323672253],[-52.822133438996865,47.508515674162112],[-52.821860208598864,47.507608394179606],[-52.82173753345036,47.507180015995289],[-52.821707292731126,47.506708211585604],[-52.821674266970483,47.506472103262269],[-52.821571853816621,47.506089461265802],[-52.819254125706301,47.503517221639882],[-52.81780254793842,47.502263591456341],[-52.815994734752742,47.501148118196532],[-52.814125960677515,47.50013209419491],[-52.813434401976401,47.499660399502325],[-52.812699739821113,47.499629927747677],[-52.809980962831155,47.499498948360191],[-52.807892943620274,47.498220087310308],[-52.806520695663522,47.497159117935588],[-52.805692101426146,47.496974857057182],[-52.804280458431869,47.496774622375575],[-52.802180271526097,47.496682324167345],[-52.801530765910634,47.496683707130032],[-52.798785002356134,47.496959163190851],[-52.797221629105763,47.497295082887113],[-52.794661011931488,47.498077650109323],[-52.793509536008671,47.498576246350694],[-52.792809314810356,47.498945615319464],[-52.791113531296865,47.499789586218128],[-52.790532059738922,47.500118310473361],[-52.789648205673409,47.500425100157273],[-52.789132531472859,47.500578936382908],[-52.788471419896403,47.500774218297387],[-52.788444215549866,47.500782220184647],[-52.788815621658358,47.501799389429188],[-52.788816729919191,47.50180213561805],[-52.78881776688241,47.50180577129229],[-52.788822202906623,47.501816732776327],[-52.78882663893247,47.501827694260257],[-52.788829741846271,47.501838611635215],[-52.788834114104468,47.501850476573772],[-52.788837217708249,47.50186138857832],[-52.788840328031888,47.501872300076066],[-52.788844758552543,47.501883263039161],[-52.788847803672617,47.501895078809014],[-52.78885090728096,47.501905990813427],[-52.788854020021638,47.50191690425644],[-52.788857066580427,47.50192871920882],[-52.788860170191974,47.501939631213155],[-52.788863279606623,47.501950549871111],[-52.788866312097831,47.501962360389001],[-52.788869430241803,47.501973273247451],[-52.788871139436566,47.501985035725014],[-52.788874251092814,47.501995947300095],[-52.788875964999221,47.502007714563526],[-52.788879075969774,47.502018631508925],[-52.788880862779145,47.502029496756187],[-52.788883901995845,47.502041306767175],[-52.788885682202313,47.502052171626183],[-52.788887395478561,47.502063933441633],[-52.78889051385999,47.502074844509863],[-52.788892221685259,47.502086617728082],[-52.78889393771955,47.502098378803794],[-52.788895723441357,47.502109242183316],[-52.788897430001569,47.502121004505554],[-52.788897900461627,47.50213181941578],[-52.788899616268424,47.502143582281604],[-52.788901400731405,47.502154455506741],[-52.788903108728739,47.502166217011627],[-52.78890349738554,47.502177930709323],[-52.788905284545727,47.502188793271436],[-52.788905675844312,47.502200507124442],[-52.788907389759672,47.502212274387972],[-52.788907852180948,47.502223089727352],[-52.788908242273301,47.502234802607653],[-52.788910027312149,47.502245671357556],[-52.78891041861089,47.502257385210591],[-52.78891080881786,47.50226909719585],[-52.788911263199438,47.502279912964369],[-52.788911652718632,47.502291630319981],[-52.788912049300372,47.502303344483622],[-52.788911186520558,47.502314116180422],[-52.788911578047639,47.502325828243322],[-52.788911968024564,47.502337542018694],[-52.788911034349688,47.50234921043895],[-52.788911494013625,47.502360026518069],[-52.788911885425392,47.50237173947604],[-52.788910950886638,47.50238340423838],[-52.788910088676516,47.502394171459748],[-52.788910471589361,47.502405888427027],[-52.788909535155021,47.502417557586902],[-52.78890860061383,47.502429222349107],[-52.788907739951526,47.502439987857912],[-52.788906805409006,47.50245165262006],[-52.788905869659537,47.502463316409447],[-52.788905007330712,47.502474084525709],[-52.788904073534027,47.502485753840659],[-52.788903137209559,47.502497422105222],[-52.78890095840044,47.502508140778936],[-52.788900022647319,47.502519804568145],[-52.788899089306014,47.502531470302728],[-52.78889682903251,47.502543085078464],[-52.788895966354978,47.502553855879611],[-52.788893708491813,47.502565472600594],[-52.788891449535704,47.50257708745373],[-52.788890585420326,47.502587859072136],[-52.78888832634744,47.502599474820151],[-52.788886058660566,47.502611095472481],[-52.788883872030247,47.502621812784412],[-52.788881620878755,47.50263342899806],[-52.788879361915441,47.502645043850627],[-52.788877174479417,47.502655767427683],[-52.788873589441529,47.502667334978703],[-52.788871329786602,47.502678955201276],[-52.788869143034383,47.502689673407637],[-52.788865559427059,47.502701240140787],[-52.788863301776559,47.502712855070349],[-52.788859787855372,47.50272352410704],[-52.788857530202108,47.502735139036361],[-52.788854023515334,47.502745813908987],[-52.788850439211977,47.502757386011616],[-52.788848181554393,47.502769000940567],[-52.788844662341759,47.502779669665777],[-52.788841085325124,47.502791236785825],[-52.788837573919643,47.50280190687166],[-52.788833988974268,47.502813473525386],[-52.788830483023673,47.502824152949692],[-52.788825569471307,47.502835671250537],[-52.788822056852524,47.502846340362879],[-52.788818479824847,47.502857907481683],[-52.788813644111066,47.502868526761482],[-52.788810058925158,47.502880095204034],[-52.78880654526791,47.502890772371053],[-52.788801636986001,47.50290229098087],[-52.788796802240888,47.502912913022406],[-52.788793226637061,47.502924479322481],[-52.788788381435467,47.502935099847136],[-52.788768379640544,47.503251173882774],[-52.788766911007912,47.503252915472927],[-52.78876339908814,47.503263589134214],[-52.788759807479778,47.503275155394668],[-52.788757548332235,47.503286771136793],[-52.788754043584952,47.503297440710547],[-52.788751783861649,47.503309060927727],[-52.788748201492666,47.503320627731085],[-52.78874601346844,47.503331344959477],[-52.788743759597594,47.503342961011654],[-52.788740168725511,47.503354531823902],[-52.788739306443134,47.503365299040915],[-52.788737048032914,47.503376919335111],[-52.788734786117232,47.503388535816008],[-52.788732600613102,47.503399254094191],[-52.788731666106408,47.503410917956479],[-52.788729408149898,47.503422534670072],[-52.788728542762563,47.503433305311717],[-52.788726291064421,47.50344492509862],[-52.788725356325223,47.503456590750837],[-52.78872442181455,47.503468254612905],[-52.788723561074676,47.503479020117027],[-52.788722626333467,47.503490685769158],[-52.7887230078653,47.503502402657034],[-52.78872207312299,47.503514068309116],[-52.788721210257783,47.503524840000864],[-52.788721599080752,47.503536551906677],[-52.788721990430751,47.5035482648629],[-52.788721129458104,47.503559032156971],[-52.788721517478258,47.503570750328173],[-52.788721907621422,47.503582462311641],[-52.78872236929864,47.503593283020031],[-52.78872408398702,47.503605044020219],[-52.788724473900984,47.503616757793822],[-52.788724936265908,47.503627573131894],[-52.788726648832082,47.503639340319815],[-52.788727040181541,47.503651053276037],[-52.788728820603609,47.50366191634749],[-52.788730541669246,47.503673679526116],[-52.788732329329967,47.503684548433853],[-52.788734036096123,47.503696308968152],[-52.788735749985818,47.503708076233778],[-52.788737538221078,47.503718940666211],[-52.788739254120287,47.50373070263921],[-52.788742364378258,47.503741615037967],[-52.788744077522395,47.503753377750691],[-52.788747182040289,47.50376429341901],[-52.788750293507483,47.503775206790429],[-52.78875333855602,47.503787023460966],[-52.788756443535569,47.503797935548967],[-52.78875948399039,47.503809746538522],[-52.788762593682556,47.503820663412363],[-52.788765706475992,47.50383157686133],[-52.788768739008773,47.50384338738484],[-52.788773173255976,47.503854353275088],[-52.788776287373778,47.503865266801583],[-52.788780721623937,47.503876232691709],[-52.788785157655042,47.50388719507918],[-52.788788196913181,47.503899005095732],[-52.788792626457479,47.503909966199707],[-52.788797067891387,47.503920928002529],[-52.788801498072203,47.50393189455432],[-52.788807252175481,47.503942904674204],[-52.78881169424784,47.503953871924708],[-52.788816123800586,47.503964833028213],[-52.788821882620432,47.503975847933596],[-52.788827717107765,47.503985960083149],[-52.78883214523043,47.503996922003701],[-52.78883790595048,47.504007932510952],[-52.788843660816156,47.504018947182672],[-52.788849499159788,47.504029060459573],[-52.788855253396548,47.504040069682915],[-52.788861013323128,47.504051086454851],[-52.788868164456957,47.504061247152798],[-52.788873931794868,47.504072258047209],[-52.788879757115318,47.504082379574733],[-52.788886842296598,47.504093439990982],[-52.788893990798741,47.504103600532524],[-52.788899824624409,47.504113718049986],[-52.788906910042797,47.504124776675269],[-52.788914069119734,47.5041349378372],[-52.788921215509056,47.504145104565261],[-52.788928374591222,47.504155265726531],[-52.788936783145054,47.504166374182937],[-52.788943935055357,47.504176539430482],[-52.788951091389364,47.504186701330461],[-52.788959568553338,47.504196910221793],[-52.78896679642483,47.504206180845671],[-52.788975278878326,47.504216390046729],[-52.788983753928299,47.504226605124437],[-52.788992236273515,47.504236815219606],[-52.789000782457279,47.504246131782793],[-52.789009264694108,47.504256342772081],[-52.789017747048739,47.504266552865808],[-52.789026293241534,47.504275869427538],[-52.789034774281454,47.504286079442657],[-52.789044652854507,47.504295446378258],[-52.789053200950377,47.504304758540805],[-52.789063078438382,47.504314123607351],[-52.789071560697487,47.504324334593072],[-52.789081432794092,47.504333700242796],[-52.789091304719229,47.504343056863611],[-52.789101182220904,47.504352421927557],[-52.789109736825409,47.504361735370111],[-52.789119607614637,47.50437110093953],[-52.78913080486705,47.504380511123593],[-52.789140754714303,47.504388978643767],[-52.789150633324773,47.504398345571985],[-52.78916051262631,47.504407707129204],[-52.789171780445699,47.504416223271491],[-52.789181651943444,47.504425583466222],[-52.789192928153824,47.504434096492467],[-52.789202876470895,47.50444256572063],[-52.789214073753065,47.504451975897979],[-52.789225341590495,47.504460492035811],[-52.789236617127784,47.504469010428764],[-52.789247891058309,47.504477520609989],[-52.789259158677453,47.50448603853512],[-52.789270434913256,47.50449455155492],[-52.789281703227275,47.504503064107887],[-52.789293041980642,47.504510683516301],[-52.789305642453108,47.504519248229514],[-52.789316918703534,47.504527761245448],[-52.78932958404603,47.504535424369017],[-52.789340857203626,47.504543940807821],[-52.7893535233015,47.504551608482018],[-52.789364871322171,47.504559228427837],[-52.789377535816861,47.504566887888906],[-52.789390200604835,47.504574555481895],[-52.789402799787709,47.504583120108244],[-52.789415536796518,47.504589891052447],[-52.78942821009413,47.504597554632369],[-52.789440873576154,47.504605222142779],[-52.789453546652048,47.504612887510355],[-52.789466210141569,47.504620555018306],[-52.789478954574626,47.504627320079138],[-52.789492943850782,47.504635037566409],[-52.789505687603373,47.504641807994901],[-52.789518424006843,47.504648573480956],[-52.789532492339802,47.504655392915566],[-52.78954515849324,47.504663060571104],[-52.789559227406691,47.504669875527476],[-52.789573287825476,47.504676694491657],[-52.789586096457043,47.504682563324408],[-52.789600164922959,47.504689381856487],[-52.789614225352587,47.504696200816142],[-52.789628366608859,47.504702118223143],[-52.789642427045791,47.504708937179657],[-52.789656561818951,47.5047148533002],[-52.78967063018861,47.504721672719491],[-52.789684761524661,47.504727594946928],[-52.789698902912541,47.504733511450965],[-52.789713036897041,47.504739433830501],[-52.789727170366099,47.504745349865409],[-52.789742635079918,47.504751325216581],[-52.789756768555769,47.504757241248129],[-52.789772296925591,47.504762314034878],[-52.78978643821889,47.504768231424002],[-52.789800643453461,47.504773254383942],[-52.789816102840575,47.504779219492043],[-52.789828990627043,47.504784200174477],[-52.789836795687584,47.504786282207633],[-52.790692189185826,47.505067949068184],[-52.790696086041898,47.505068987917625],[-52.790711617362099,47.505074059845484],[-52.790725827946758,47.505079083903986],[-52.790741358525118,47.505084151275135],[-52.790756888419203,47.505089224014654],[-52.790771099127333,47.505094247172863],[-52.790786631554901,47.505099320958948],[-52.790802096444729,47.505105286253972],[-52.790816308368356,47.505110310379642],[-52.790831838278287,47.505115383109676],[-52.790845972733678,47.505121303569766],[-52.79086150333751,47.505126370925701],[-52.790875642968594,47.50513229258803],[-52.7908898501965,47.505137311919391],[-52.790905307359992,47.505143285763893],[-52.790919448894762,47.505149203023599],[-52.79093497750641,47.505154275662967],[-52.790949111122238,47.505160192453474],[-52.79096325220862,47.505166113288418],[-52.790978710420866,47.505172079068259],[-52.790992917097547,47.50517710286308],[-52.791007056758346,47.505183024510458],[-52.791021191253321,47.50518894495066],[-52.791036647700274,47.505194914225889],[-52.791050718169551,47.505201729987078],[-52.791064852674864,47.505207650422335],[-52.791078983564425,47.505213567937936],[-52.791093124681005,47.505219488758165],[-52.79110725976912,47.505225404713308],[-52.791121329683449,47.505232224941921],[-52.791135461449151,47.505238146108994],[-52.791149524018053,47.50524496139338],[-52.791163665266218,47.505250881310602],[-52.791177726521497,47.505257696514185],[-52.791191873693712,47.505263622186753],[-52.791205935818937,47.505270441045106],[-52.791218736865872,47.505276309244373],[-52.791232806923738,47.505283128565495],[-52.791246867105372,47.5052899418937],[-52.791260943889952,47.505296760704802],[-52.791273745583339,47.505302634346513],[-52.791287813701366,47.505309448135918],[-52.791301877172948,47.505316267061254],[-52.791314614733025,47.505323036918561],[-52.791328682747547,47.505329851598532],[-52.791342744909272,47.505336670441707],[-52.791355418681185,47.505344333829584],[-52.791369478781412,47.50535114803926],[-52.791382224170043,47.505357919250677],[-52.791396285025677,47.505364738010314],[-52.791408957606066,47.505372400420264],[-52.791421695194146,47.505379170266927],[-52.791435762665515,47.505385989410371],[-52.791448429744115,47.505393653296032],[-52.791461173947305,47.505400423526915],[-52.791473837818515,47.505408091730182],[-52.791487900593829,47.505414906082066],[-52.791500573200068,47.505422568483048],[-52.791513245122694,47.505430236253154],[-52.79152598141787,47.505437006011867],[-52.791538655012374,47.505444671171965],[-52.791551319020442,47.50545233847258],[-52.79156398578867,47.505460005032177],[-52.791576650835289,47.505467664274818],[-52.791589322780155,47.505475332037527],[-52.791602060302807,47.505482102761405],[-52.791614732254985,47.505489770521656],[-52.791627327207109,47.505498331039369],[-52.7916386731318,47.505505950629313],[-52.791651346988907,47.505513613988313],[-52.791664011030448,47.505521281278021],[-52.791676685009598,47.50552894373952],[-52.791688025435313,47.505536564804814],[-52.79170061731061,47.50554512874055],[-52.791713283260819,47.505552791627821],[-52.791724559560357,47.505561308910281],[-52.791737232122678,47.505568972183362],[-52.791748571474095,47.505576591375707],[-52.791761171752825,47.505585152191209],[-52.79177251518859,47.505592770719325],[-52.791776199947066,47.505596506954809],[-52.791778634173482,47.505599293159058],[-52.791936017038225,47.505723881080854],[-52.791971904439386,47.505756705941991],[-52.791510271963645,47.506031334729641],[-52.791492188285261,47.506041469551008],[-52.792181936282809,47.506667128303263],[-52.791633457253425,47.506931370772051],[-52.791225123709481,47.507236758063378],[-52.792541816552848,47.507912472427677],[-52.792931025798211,47.507729671012001],[-52.796100917131952,47.510213151280624],[-52.796867209622306,47.510065783711426],[-52.799334565975997,47.512068873095131],[-52.798875449107697,47.512328326833959],[-52.799153779155702,47.512568941533011],[-52.798237075026954,47.513018599550954],[-52.796743731204927,47.513768388231888],[-52.795381129367144,47.514460854231025],[-52.793708646489449,47.514476813649338],[-52.793740866734225,47.515916209915559],[-52.79027483927883,47.516695111174258],[-52.787658208860805,47.517002958819376],[-52.786397033555161,47.517123947536426],[-52.785368941614237,47.517519005010172],[-52.78387936583897,47.51803565837438],[-52.780911945946769,47.51887223620237],[-52.780903418611288,47.518879124504281],[-52.780879903022985,47.518940357470413],[-52.780875717956881,47.518942908509253],[-52.780868393079842,47.518967832255655],[-52.780866131895195,47.518979452265555],[-52.780856206466083,47.518987183515193],[-52.78084456059068,47.519016454790453],[-52.780843303791642,47.519098313458244],[-52.780842366879675,47.519109977146115],[-52.780810933147158,47.519104317772047],[-52.780207391744355,47.519075773335786],[-52.779304009538784,47.51910817123202],[-52.778542228229668,47.519147581984726],[-52.776932131492082,47.519244799837082],[-52.776187402869056,47.519319920963817],[-52.774927087553785,47.519429110994963],[-52.773788514727329,47.519560787387206],[-52.773777849022771,47.51956129430291],[-52.773769275199079,47.519585280113866],[-52.773671965271397,47.519853483394151],[-52.773668384758814,47.519865059806818],[-52.773666192622585,47.51987577655094],[-52.773663930366723,47.519887391862085],[-52.77366165874593,47.519899007523179],[-52.77365946649126,47.519909725162037],[-52.773658529385706,47.519921387894122],[-52.773656266435559,47.519933008575066],[-52.773654080094303,47.519943731973079],[-52.773651817946153,47.519955346388635],[-52.773650880607136,47.51996701091057],[-52.773648688345936,47.519977728548923],[-52.773646424758148,47.51998934378139],[-52.773645484314322,47.520001011727572],[-52.773643293371116,47.520011729443524],[-52.773642355568143,47.520023397545316],[-52.77364141678801,47.520035062884141],[-52.773639153309716,47.520046677221195],[-52.773638285968644,47.520057444070709],[-52.773637348047728,47.520069113067329],[-52.773635091057592,47.520080728688477],[-52.773634225150552,47.520091494720702],[-52.77363328648071,47.520103159164229],[-52.773632348556774,47.5201148281607],[-52.773631409310894,47.52012649707931],[-52.7736305447226,47.52013726318922],[-52.773629604728775,47.520148927554771],[-52.773628666170424,47.520160591103114],[-52.773627800259,47.520171357135098],[-52.773628179908854,47.520183070401075],[-52.773627239969628,47.520194744689633],[-52.773626374171535,47.520205509826532],[-52.773626760426765,47.520217223481794],[-52.773625822956348,47.520228888897861],[-52.773626210877097,47.520240599945872],[-52.773625342089744,47.520251367612047],[-52.77362572776935,47.520263085742407],[-52.773624789320309,47.520274748395451],[-52.773625247647445,47.520285569009509],[-52.77362431028876,47.520297233530428],[-52.773624695220775,47.520308947107786],[-52.773625150273233,47.520319762118092],[-52.773625536066596,47.520331479353409],[-52.773625921113243,47.520343192035732],[-52.773626316614916,47.520354906235902],[-52.773626773734975,47.52036572587707],[-52.773627158781331,47.5203774385594],[-52.773627545780542,47.520389156767585],[-52.773627999396325,47.520399972595094],[-52.773628384557327,47.520411684382381],[-52.77362877213087,47.520423398115426],[-52.773630554762256,47.520434262493737],[-52.773630942450843,47.520445975331789],[-52.773631400776978,47.520456795945833],[-52.773633111622367,47.520468561498383],[-52.773633499196052,47.520480275231449],[-52.773635281944017,47.520491138714767],[-52.773635669517816,47.520502852447855],[-52.773637374217977,47.520514614031079],[-52.773637832544551,47.520525434645144],[-52.773639544598318,47.520537201170633],[-52.773641335275812,47.520548065121076],[-52.773643038541465,47.520559827521495],[-52.773643425024467,47.520571539386722],[-52.773645210188278,47.520582404815826],[-52.773646920176347,47.520594166710509],[-52.773648696264303,47.520605040622733],[-52.773650415732064,47.520616801272332],[-52.773652199576624,47.520627666623611],[-52.773653905487947,47.520639429179752],[-52.77365701450595,47.5206503419532],[-52.77365873110363,47.520662104237132],[-52.773660508516109,47.520672978227253],[-52.773662219944626,47.520684739304777],[-52.773665328966068,47.520695652078182],[-52.773667034995896,47.520707413739302],[-52.77366882688753,47.52071827866267],[-52.773671861826784,47.520730089769536],[-52.773673638611143,47.52074095831162],[-52.773676675620138,47.520752774049285],[-52.773679791138584,47.520763688106882],[-52.77368149452974,47.520775449612337],[-52.77368460355865,47.520786362385614],[-52.773687705982276,47.520797274769599],[-52.773690748166544,47.520809091713595],[-52.773692534779308,47.520819956325525],[-52.773695562661388,47.520831770623062],[-52.773698671695357,47.520842683396218],[-52.773701780500531,47.520853597959416],[-52.773704818209382,47.520865408326728],[-52.77370791862937,47.520876326002856],[-52.773712353822646,47.520887288960658],[-52.773715389639158,47.520899103725164],[-52.773718498564911,47.520910017393177],[-52.773721599679007,47.520920929699024],[-52.773725969582614,47.520932795115186],[-52.773729070584224,47.52094370831599],[-52.773732180835793,47.520954622061737],[-52.773736613741406,47.520965582178356],[-52.773739723995384,47.520976495923996],[-52.773744077361613,47.5209883657758],[-52.773747194224391,47.520999279910633],[-52.773751620184839,47.521010242322802],[-52.773756054304407,47.521021203411927],[-52.773759162668668,47.521032121554654],[-52.773763596676282,47.521043083538686],[-52.773767954073669,47.521054942805463],[-52.773772393369718,47.521065905100706],[-52.773776820086304,47.52107687206535],[-52.773781245368347,47.521087839847119],[-52.773785687541682,47.521098800507751],[-52.773790116044196,47.521109763969868],[-52.773794555463311,47.521120725369649],[-52.773798982188097,47.521131692333867],[-52.773803410925332,47.521142654005679],[-52.773807850234434,47.521153616300218],[-52.773813603930847,47.521164627182905],[-52.773818037268818,47.52117559453599],[-52.773822470723353,47.521186560993975],[-52.773828222989607,47.521197572693396],[-52.773832662422386,47.521208534092395],[-52.773838416014037,47.521219545869364],[-52.773842844305477,47.521230511120471],[-52.773848681233709,47.521240625108405],[-52.773853109873457,47.521251587674236],[-52.773858867552057,47.521262598789107],[-52.773864618051846,47.521273613989685],[-52.773870384983844,47.521284625649187],[-52.773874884382053,47.521294695095264],[-52.77388064413708,47.521305710840295],[-52.773886403262601,47.521316721137161],[-52.773892154232762,47.521327732756788],[-52.773897987330734,47.521337845614582],[-52.773903739051903,47.521348861786819],[-52.773909504792613,47.521359872472203],[-52.773915328533057,47.521369985679499],[-52.77392108818848,47.521381002318307],[-52.773928164478455,47.521392060461764],[-52.773934002644715,47.521402175419816],[-52.773939756505079,47.521413185403588],[-52.773945587379593,47.521423305342161],[-52.773952662875182,47.521434369749784],[-52.773958502716241,47.521444482099795],[-52.773965579308467,47.521455548374789],[-52.773971411226306,47.521465660257249],[-52.773978488628238,47.52147672026652],[-52.773984319746084,47.521486838413736],[-52.773991469798872,47.521497000905761],[-52.773998560536519,47.52150806079765],[-52.774004383618539,47.521518179372123],[-52.774011469076271,47.52152923895207],[-52.774018619254356,47.521539400547873],[-52.774025775351951,47.521549567902781],[-52.774031599017796,47.521559682001183],[-52.774038691092585,47.521570741969221],[-52.774045847197847,47.521580909323248],[-52.774052996067581,47.521591070839719],[-52.774060152752718,47.521601233717973],[-52.774068554697372,47.521612346512207],[-52.774075711388122,47.521622509389765],[-52.774082861475037,47.521632671877768],[-52.774090016390026,47.521642838256952],[-52.774097173203558,47.52165300023853],[-52.774105647692842,47.52166321640896],[-52.774112812324702,47.521673379751959],[-52.774119961218609,47.521683541265418],[-52.774128443069955,47.521693762376827],[-52.774135591739523,47.521703925679645],[-52.774144073080116,47.521714140447159],[-52.774151228591499,47.521724302348446],[-52.77415970367646,47.521734514040794],[-52.774166934479389,47.521743778580138],[-52.774175414280847,47.521753995058127],[-52.774183890121584,47.521764211302091],[-52.77419104553185,47.521774374096594],[-52.774199520861828,47.521784583996663],[-52.774208075214496,47.521793898558585],[-52.774216555720933,47.521804109664096],[-52.774225031117425,47.521814329485878],[-52.774233584847408,47.521823638598342],[-52.774242068005826,47.521833849858133],[-52.774250541343726,47.521844065047617],[-52.774259094508125,47.521853378633722],[-52.7742675756651,47.521863595184385],[-52.774276123550308,47.521872908458114],[-52.774284606034804,47.521883125085665],[-52.774294477580021,47.521892487486916],[-52.774302950821934,47.521902703568493],[-52.774311505440792,47.521912016334376],[-52.77432005925813,47.521921335364944],[-52.774329858175243,47.521931595280925],[-52.77433841211375,47.521940913415399],[-52.774348291606707,47.521950276280059],[-52.774356766303939,47.521960491541392],[-52.774366645803674,47.521969854404809],[-52.774375198318346,47.521979173354289],[-52.774385069896915,47.521988535749344],[-52.774393625175229,47.521997853958432],[-52.774403422913828,47.522008112896572],[-52.774413304383515,47.522017481282568],[-52.774423174654466,47.52202684359716],[-52.77443172919871,47.522036157251016],[-52.774441608840363,47.522045519214203],[-52.774451481189388,47.522054886157662],[-52.774461352680262,47.522064249442423],[-52.774471230436333,47.522073615800835],[-52.774481109976847,47.522082978656307],[-52.774491054978718,47.522091448079657],[-52.774500933319601,47.522100809960833],[-52.774510813502097,47.522110178262231],[-52.774513310374374,47.522112070343127],[-52.774993962114188,47.522496117033114],[-52.775591882624049,47.523602693919734],[-52.776842739040347,47.523364440489821],[-52.77776767768421,47.523279756921291],[-52.77790669437227,47.523285788615873],[-52.778124613149515,47.523285723967874],[-52.77815780672055,47.523286048957182],[-52.778304161819712,47.523812549362781],[-52.782051115027642,47.529239116656534],[-52.783295148784909,47.531039963871592],[-52.782765835400063,47.531326466816594],[-52.78516091839564,47.534334296983268],[-52.785335963616077,47.534504542507939],[-52.792242125510207,47.532338462329861],[-52.792224807041507,47.536849559460336],[-52.796063828412095,47.536856500505777],[-52.79924814709149,47.536757384384686],[-52.80231893001249,47.540238740844565],[-52.802366454999095,47.540292680445909],[-52.803059124775757,47.540040873542175],[-52.803838360633428,47.539720235208335],[-52.804574345538896,47.539491608986481],[-52.805833990010193,47.538963561325808],[-52.806785116249976,47.538587099537366],[-52.807441308216944,47.538342027505365],[-52.808220385506438,47.538039353665404],[-52.808624103849588,47.537910131300755],[-52.810589342377959,47.537449268051546],[-52.814693273910315,47.536834361530588],[-52.817672282803002,47.53624212590325],[-52.81771164681966,47.53623186617164],[-52.818275922952715,47.536121978339217],[-52.819128933096067,47.535957833056031],[-52.821479036307984,47.535418123679236],[-52.821598361165599,47.535388283761542],[-52.82169709725612,47.535366683809983],[-52.823976927794888,47.534857670245707],[-52.824371697507658,47.534706468786673],[-52.827272985191478,47.53408594241084],[-52.82764532360617,47.534032911179494],[-52.828081473536109,47.533979504723561],[-52.828376964703637,47.533956976764642],[-52.828824245955936,47.533880571251835],[-52.829604578581893,47.533760498181614],[-52.83048609502336,47.533604508584148],[-52.831086651824009,47.533455375977532],[-52.831890389412315,47.533224536979176],[-52.832398079640676,47.533006321737091],[-52.832428230167906,47.532994819077835],[-52.832631012105082,47.532767303765148],[-52.832980001406732,47.532304802114048],[-52.833031008661919,47.532248160877515],[-52.832766188022326,47.532118819278388],[-52.832447116696478,47.531902907841975],[-52.832566337805908,47.531756941722051],[-52.832848503731825,47.531768112907272],[-52.8333602481189,47.531582435935171],[-52.83422917640079,47.531333261188344],[-52.834768606871449,47.531183685966646],[-52.834774411997891,47.531177599642362],[-52.834892058626068,47.531051375851469],[-52.834974545216426,47.530932880120432],[-52.835110997482388,47.530737142248761],[-52.835287614284333,47.530453764088819],[-52.835581459426066,47.530049554735328],[-52.835813876647407,47.52971600944165],[-52.835990576506319,47.529515437180137],[-52.836067968985503,47.529259948737142],[-52.836282487087253,47.528867247565671],[-52.836376562439028,47.52860246765318],[-52.836545901633293,47.5284610261754],[-52.836879065850155,47.528096946653449],[-52.837448747081417,47.527615451943035],[-52.837952268833277,47.527247660644235],[-52.838469411107745,47.526909161077995],[-52.839166158967146,47.526500681626686],[-52.839182768313876,47.526492283811486],[-52.839306642090612,47.526438286825268],[-52.839778018005099,47.526375318629725],[-52.840585566207736,47.526295762161567],[-52.841591229344402,47.526163993746437],[-52.841742584244187,47.526148794619431],[-52.841842949757726,47.526139836983916],[-52.841879082852216,47.526136648048237],[-52.842629073018692,47.526112589793378],[-52.842674402854328,47.526110629459083],[-52.842783755794912,47.52610560381504],[-52.843018368530799,47.52609612171463],[-52.843252765368646,47.526089332798442],[-52.843386936474587,47.526089702556853],[-52.843569521948417,47.526082833702134],[-52.843762657106666,47.526060146393824],[-52.843881381955356,47.526037452741022],[-52.843940959206385,47.526023419800808],[-52.844033545078787,47.525995276593925],[-52.844163819761484,47.525944207699936],[-52.844274850292713,47.525884338969632],[-52.844377393857044,47.525814258635144],[-52.844461531061334,47.525741714638578],[-52.844507975638507,47.525692095193392],[-52.844556524899197,47.52563265894895],[-52.844596151888339,47.525568397439294],[-52.84463727545446,47.52548529469216],[-52.844669558352066,47.525396462449443],[-52.844700238484791,47.525294079429827],[-52.84473417629146,47.525167512862012],[-52.84488979041879,47.524644859250266],[-52.844985919071156,47.52426944696154],[-52.845097833967216,47.523879303431848],[-52.845203066356582,47.523523122884029],[-52.845246018350792,47.52338338352655],[-52.845481959697203,47.522852841514961],[-52.84549029036264,47.522831540873291],[-52.845634063601238,47.522643259784097],[-52.846190821816911,47.521869665058531],[-52.846734777779297,47.521123494366989],[-52.847403232237191,47.520180242508751],[-52.848107187464294,47.519106869249804],[-52.84904462239858,47.51766756391762],[-52.850265790808102,47.515797528893344],[-52.850938004745657,47.514804892205923]]]},"properties":{"OBJECTID":89,"MUNICIPALI":"Mount Pearl","MPAB_LINK":"http://www.assembly.nl.ca/Legislation/sr/Regulations/rc960889.htm","OLR_LINK":"https://www.gov.nl.ca/mpa/registry/community/Mount-Pearl","GOV_LEG":"http://www.assembly.nl.ca/Legislation/sr/statutes/u08.htm"}}]}