{"type": "FeatureCollection", "features": [{"type": "Feature", "properties": {"district_id": "Weyburn"}, "geometry": {"type": "Polygon", "coordinates": [[[-103.83574401684712, 49.683002235363325], [-103.8357439962557, 49.68315982491238], [-103.8357457151169, 49.690093787367715], [-103.84687753171548, 49.69009111523413], [-103.85458220089119, 49.69008860496439], [-103.85657308484623, 49.69008786169981], [-103.8570487946222, 49.69008770064737], [-103.8572492837259, 49.69008761045787], [-103.85772260848323, 49.6900874590806], [-103.85773648744906, 49.69008745206487], [-103.85801588223659, 49.69008734729362], [-103.85829484774185, 49.69008721962619], [-103.85858157793517, 49.69008707787198], [-103.85858173790749, 49.68999677138589], [-103.85858183523662, 49.68993992503803], [-103.8585819590993, 49.689875433347986], [-103.8585825325892, 49.689553154332394], [-103.85858264257969, 49.6894886625015], [-103.85858335501544, 49.6890882197763], [-103.85858374240863, 49.68887630543366], [-103.85858381245532, 49.688831871670004], [-103.85858393946361, 49.68876369211924], [-103.85858405471454, 49.68869542250354], [-103.85858418382487, 49.68862715302363], [-103.85858431082728, 49.6885589734705], [-103.85858442607238, 49.68849070385237], [-103.85858454131554, 49.68842243423348], [-103.85858467041801, 49.688354164750436], [-103.85858479741258, 49.688285985194106], [-103.85858491264986, 49.68821771557281], [-103.85858523367517, 49.688037642243486], [-103.8585853510113, 49.68796928269178], [-103.85858548220656, 49.6879009232759], [-103.85858559953877, 49.687832563722544], [-103.85858571686903, 49.687764204168445], [-103.85858584805841, 49.687695844750166], [-103.85858596538473, 49.687627485194454], [-103.85858608270911, 49.68755912563796], [-103.85858621389255, 49.68749076621726], [-103.85858633121302, 49.68742240665917], [-103.85858644853154, 49.68735404710027], [-103.85858657970905, 49.687285687677196], [-103.8585866949178, 49.68721741804427], [-103.8585868122305, 49.68714905848297], [-103.85858694129625, 49.68708078898505], [-103.85858705860498, 49.687012429422175], [-103.85858718977263, 49.68694406999512], [-103.85858730707747, 49.686875710430634], [-103.85858742438035, 49.68680735086536], [-103.85858755554204, 49.686738991435895], [-103.85858767284101, 49.68667063186903], [-103.85858779013802, 49.68660227230136], [-103.85858792129382, 49.68653391286952], [-103.85858803858692, 49.686465553300245], [-103.85858815587805, 49.68639719373017], [-103.85858828702791, 49.68632883429594], [-103.85858840431514, 49.68626047472428], [-103.85858872940395, 49.68608022147965], [-103.85858884457834, 49.68601195183264], [-103.85858896185651, 49.685943592257296], [-103.85858909088755, 49.685875322745325], [-103.85858920605608, 49.685807053095964], [-103.8585893371889, 49.685738693654834], [-103.85858945235354, 49.68567042400388], [-103.85858958137672, 49.68560215448873], [-103.85858969653745, 49.68553388483618], [-103.85858981380194, 49.68546552525522], [-103.85858994281921, 49.6853972557377], [-103.85859005797411, 49.68532898608275], [-103.8585901890931, 49.68526062663605], [-103.85859030424412, 49.68519235697951], [-103.8585904332535, 49.68512408745881], [-103.85859055050628, 49.68505572787309], [-103.85859066565145, 49.68498745821417], [-103.85859079465492, 49.68491918869106], [-103.85859090979619, 49.684850919030545], [-103.8585910409014, 49.684782559578245], [-103.85859107259202, 49.684759299247624], [-103.85883340653417, 49.68475924104158], [-103.8588697012274, 49.68475922992204], [-103.8588703739438, 49.68430468255964], [-103.85887064788776, 49.68412419488856], [-103.85887317011847, 49.6828645468396], [-103.86226237642042, 49.68286354486503], [-103.86254346201994, 49.682863463883365], [-103.86306678955249, 49.68286329628472], [-103.8631512150721, 49.68286327065718], [-103.86367454264666, 49.682863100311764], [-103.86385614777487, 49.6828630383231], [-103.86395318857126, 49.68286300995658], [-103.86447651599171, 49.68286284497938], [-103.8645609417365, 49.682862809331226], [-103.86508413060174, 49.68286264024894], [-103.86536263798091, 49.68286254514362], [-103.86588596570773, 49.682862364803626], [-103.86597039125873, 49.68286233712058], [-103.86649371881805, 49.68286216302662], [-103.86677236484581, 49.68286206588727], [-103.86729555407186, 49.682861877820244], [-103.86738011823567, 49.682861850465116], [-103.86790330750308, 49.68286165965203], [-103.86818181477595, 49.682861566758746], [-103.86870514269513, 49.68286137367738], [-103.86889728363325, 49.68286130776783], [-103.86900486060209, 49.68286126115015], [-103.86929182443774, 49.68286115823306], [-103.8693317498545, 49.682861143310426], [-103.869466636761, 49.68286109307391], [-103.86946711457064, 49.68245192280491], [-103.86946729670987, 49.68231853120999], [-103.86947434517269, 49.67600638263785], [-103.86947482467201, 49.67562698484841], [-103.86960927542113, 49.67562694823132], [-103.86968107695735, 49.67562683961208], [-103.87009421795416, 49.67562659922148], [-103.87284485086656, 49.67562496547965], [-103.87687355322775, 49.67562244755869], [-103.8806142255544, 49.67561998267625], [-103.88089310912088, 49.675619799989796], [-103.88089255176641, 49.67460647121006], [-103.8808924240079, 49.67437274447693], [-103.88089177924678, 49.67320206429035], [-103.88089169220181, 49.67310861604435], [-103.88089163372099, 49.67292996893493], [-103.88089156600526, 49.672818162399665], [-103.88089146228606, 49.672689805005376], [-103.88088905210286, 49.66857284117911], [-103.88088896808117, 49.66838925551573], [-103.88088896276903, 49.66820827911354], [-103.88088890348507, 49.66802361429622], [-103.88214982391672, 49.668020952932956], [-103.88214989016151, 49.6680482979111], [-103.8822840493222, 49.66804797396952], [-103.88248708723056, 49.668047595078505], [-103.88299046017778, 49.66804642566829], [-103.8829903914023, 49.66801917061593], [-103.8863699935485, 49.66801160732504], [-103.8858761020683, 49.66775545015074], [-103.88574392267144, 49.66768734651958], [-103.88559788315817, 49.667613262689095], [-103.88545085776907, 49.66753988877026], [-103.88530298300145, 49.66746731602187], [-103.88515426090734, 49.66739545451199], [-103.885004830038, 49.66732430557161], [-103.88485441122668, 49.66725395645781], [-103.88470314302396, 49.667184408501406], [-103.88455102748254, 49.66711557177031], [-103.88439820109586, 49.66704753752488], [-103.88424452736358, 49.66698021449846], [-103.88409000422523, 49.666913692616326], [-103.8839346316768, 49.666847971875114], [-103.88377854826653, 49.666783053607084], [-103.88362175398964, 49.66671893780931], [-103.88346411234778, 49.66665553321423], [-103.88330575777178, 49.66659302101189], [-103.88314669437383, 49.666531221342105], [-103.8829867794797, 49.66647031272255], [-103.8828262943056, 49.66641011796609], [-103.8826649576248, 49.66635081425356], [-103.88250304859362, 49.66629231432719], [-103.88234029010475, 49.66623461550972], [-103.88217695925444, 49.66617772047282], [-103.88201291748628, 49.66612162787616], [-103.88184816273332, 49.66606642764537], [-103.88168283560083, 49.66601203118695], [-103.8815167975327, 49.665958437160086], [-103.88135018501066, 49.6659057368288], [-103.88118286154047, 49.665853838923255], [-103.88101496360278, 49.66580283470794], [-103.88088847473442, 49.66576507513513], [-103.88088841402687, 49.66546690418345], [-103.88088835567387, 49.66517466984274], [-103.88088828659934, 49.664864175831354], [-103.88088808393091, 49.66381735181817], [-103.8809622596246, 49.663817251100554], [-103.88096678986972, 49.66121535257085], [-103.88096717058684, 49.66099938968063], [-103.88096718573105, 49.66097456401507], [-103.88096313450072, 49.659936877787835], [-103.88088930718605, 49.65994174103854], [-103.88088978398793, 49.6596678341335], [-103.88096207277012, 49.6596629740032], [-103.88096236640183, 49.659481010792476], [-103.88096436271191, 49.65829018224325], [-103.8809676340543, 49.65626072046656], [-103.88096840091734, 49.65590102315633], [-103.88097202855722, 49.65373086625464], [-103.88090012476259, 49.65373080090477], [-103.88090217857966, 49.649127963940806], [-103.880903437973, 49.64649301619347], [-103.88062471879533, 49.64649328999802], [-103.88061123997193, 49.64649330359313], [-103.88047405516377, 49.64649344326782], [-103.88018562464059, 49.64649374803464], [-103.87745528106755, 49.6464965760476], [-103.87721830029233, 49.646496814585475], [-103.871036214665, 49.64650296035727], [-103.87081426440793, 49.64650317044531], [-103.87073197807742, 49.646503267331305], [-103.87071928889252, 49.646503278481894], [-103.87059471031287, 49.64650339448824], [-103.87037900760836, 49.646503601724184], [-103.87015323388806, 49.646503818212864], [-103.86946527349711, 49.64650448707265], [-103.86472483121536, 49.64650886905596], [-103.86417515058606, 49.646509366517705], [-103.86417387623335, 49.646509363010196], [-103.86414887181505, 49.646509387540966], [-103.86375315336983, 49.646505504466695], [-103.86113907802624, 49.64648008913357], [-103.86113911770092, 49.646419014213365], [-103.86113926566041, 49.646103924624235], [-103.86113929905218, 49.64604905611368], [-103.86113944696906, 49.645733966504686], [-103.86113964988058, 49.645553081216704], [-103.86375348726027, 49.64555088002446], [-103.86375499565972, 49.64183789257081], [-103.86375556992127, 49.63996821868784], [-103.86375590066848, 49.63928146131763], [-103.86375581860322, 49.63910048311069], [-103.85840426013947, 49.63910738100438], [-103.85833251241812, 49.63910748301428], [-103.85805398098331, 49.63910743436009], [-103.85762240373106, 49.63910731409234], [-103.85344124695057, 49.639106546671336], [-103.8531628541986, 49.639106487620445], [-103.85208931236998, 49.63910619189707], [-103.85181078120482, 49.63910612822166], [-103.85071383145277, 49.639105857424646], [-103.85043530034774, 49.63910579043979], [-103.84689001980739, 49.639104892329605], [-103.84680211144185, 49.639104871196515], [-103.84537146447674, 49.63910450836576], [-103.84537106297859, 49.63928548194878], [-103.8453708746313, 49.639377201164535], [-103.84537082916921, 49.63940079435906], [-103.84537073899456, 49.63948660489668], [-103.84537063915312, 49.63959625184639], [-103.84537057236119, 49.639670179439904], [-103.845370539307, 49.639705898794055], [-103.84537044462694, 49.6397860424897], [-103.84537043945622, 49.639815545739665], [-103.84537033960078, 49.639925192683215], [-103.84537023974067, 49.64003483962474], [-103.8453701398759, 49.6401444865642], [-103.84537017848166, 49.640254134882696], [-103.8453700786079, 49.640363781818074], [-103.845429084064, 49.64036374065715], [-103.84542896176781, 49.64054462703725], [-103.84542871091219, 49.64085980609853], [-103.84542865996605, 49.64091467452526], [-103.84542840906566, 49.6412298535667], [-103.84559711607059, 49.641229808946726], [-103.84576596177003, 49.641229756468775], [-103.84587566291377, 49.6412297257896], [-103.8458755027974, 49.64141052181341], [-103.8458751993327, 49.641725700297826], [-103.84587514887079, 49.64178056872028], [-103.84587485920864, 49.64209574732287], [-103.84587469690567, 49.64227663324786], [-103.8458743970276, 49.64260161616853], [-103.84688757314964, 49.64260200131666], [-103.84688754178916, 49.64264643223207], [-103.84688766228705, 49.64296152491006], [-103.8468875452241, 49.64314241125067], [-103.84688751147704, 49.643186063179755], [-103.84688734503037, 49.64345759065746], [-103.84688731164357, 49.64351236928243], [-103.84688715185523, 49.64377012561631], [-103.84688713910303, 49.643827548945175], [-103.8468870358298, 49.64400843539707], [-103.84688683553362, 49.64432361475734], [-103.84688680000481, 49.644378483302084], [-103.84688659966476, 49.644693662642496], [-103.84688649633283, 49.64487454906768], [-103.84688629593401, 49.64518972838146], [-103.84688626251162, 49.645244506990295], [-103.8468860641932, 49.64555959635638], [-103.84688594695352, 49.645740482616944], [-103.8468858251842, 49.64594501641651], [-103.84688576030116, 49.64605566202218], [-103.84688572686095, 49.64611044062291], [-103.84688554016495, 49.64642562000829], [-103.84688548045501, 49.646516108089834], [-103.84295277275133, 49.646516376459694], [-103.84195810217717, 49.64651641564568], [-103.84130302744636, 49.646516445519445], [-103.84124006754178, 49.64651644501773], [-103.83936338964301, 49.6465164995598], [-103.8392042230772, 49.64651652286328], [-103.83905406067649, 49.646516546291416], [-103.838383872828, 49.64651656999984], [-103.83770800684947, 49.646516532822645], [-103.8376908573984, 49.646516531553345], [-103.83734562245024, 49.64651658202286], [-103.83703047688684, 49.646516564932774], [-103.83701454638626, 49.64651656681312], [-103.83622619632075, 49.646516578302894], [-103.83572057858646, 49.64651653174363], [-103.8354418587677, 49.64651678669365], [-103.83538159952113, 49.646516810171285], [-103.83393536056295, 49.646518083643514], [-103.83264275286766, 49.64651908926444], [-103.83193321013646, 49.64651966823222], [-103.83144711365392, 49.6465200698077], [-103.83054404563919, 49.64652084551817], [-103.82968059942608, 49.64652147502473], [-103.82911166317493, 49.646521928841565], [-103.82429544710114, 49.64652564899316], [-103.82429790388046, 49.648568867339165], [-103.82430417771229, 49.653760339189986], [-103.82430453588871, 49.65398504799026], [-103.82430903245084, 49.65680990130224], [-103.82430946817237, 49.65708434534348], [-103.82431023337547, 49.657565241711154], [-103.8243134332429, 49.659577677935694], [-103.82431372663333, 49.65976106963267], [-103.8243156867174, 49.660994059446644], [-103.81877129271386, 49.66100028556691], [-103.81334219272895, 49.66100612359073], [-103.81333768853226, 49.66705606691803], [-103.81333754592701, 49.667253898947855], [-103.81333691409473, 49.66809103731292], [-103.81333689530813, 49.66811801277498], [-103.81334445784975, 49.668230409385814], [-103.8133566163599, 49.66841137611277], [-103.8133645139099, 49.66852880428924], [-103.81336034728842, 49.67544429313326], [-103.81336025464634, 49.675636062855475], [-103.81859804665157, 49.67563970013218], [-103.81887678281511, 49.67563993518266], [-103.81938366683146, 49.67564024727532], [-103.81946807821805, 49.67564029836862], [-103.819974960111, 49.675640697799345], [-103.82025369852046, 49.675640839608725], [-103.82076044408579, 49.675641144262535], [-103.82084485331836, 49.67564128427868], [-103.82135173751163, 49.675641587755905], [-103.82163047598802, 49.675641726251], [-103.82213721950407, 49.67564211480601], [-103.82222176950631, 49.6756421653015], [-103.82272851524783, 49.67564246134219], [-103.8230072516203, 49.67564268644958], [-103.8235139974319, 49.67564297905267], [-103.82359840887996, 49.67564302713495], [-103.82410515474372, 49.67564331715085], [-103.82431639016579, 49.675643483237614], [-103.8243056938955, 49.682876142154655], [-103.82989187524936, 49.682879142053395], [-103.83539574487106, 49.682881836151715], [-103.83546505864034, 49.68288186762114], [-103.8357439777337, 49.68288197383496], [-103.83574401684712, 49.683002235363325]]]}}]}