{"type":"FeatureCollection","crs":{"type":"name","properties":{"name":"EPSG:3160"}},"features":[{"type":"Feature","id":36,"geometry":{"type":"Polygon","coordinates":[[[337277.8609,5361377.4377],[337177.0831,5357942.5755],[335968.9585,5358151.0976],[335774.6051,5358011.043],[336990.9221,5357531.4662],[336856.4558,5357191.35],[337295.2822,5355353.3932],[336825.4455,5355385.7692],[336822.4266,5355371.5279],[336823.7477,5355354.3786],[336823.6891,5355338.8655],[336822.0545,5355307.6948],[336812.0839,5355284.8943],[336798.292,5355263.9019],[336787.046,5355250.295],[336773.4718,5355242.0047],[336759.5012,5355230.851],[336749.8143,5355217.9739],[336738.8752,5355213.6439],[336725.4053,5355221.7806],[336707.2961,5355193.1805],[336697.9008,5355188.5901],[336689.1951,5355166.6695],[336683.5751,5355144.4883],[336670.7527,5355124.4557],[336660.7425,5355113.5229],[336650.8264,5355102.2412],[336640.8423,5355091.3366],[336629.313,5355081.9032],[336617.9214,5355072.1693],[336608.1849,5355061.5352],[336594.9708,5355050.7131],[336586.2454,5355037.8469],[336575.5041,5355027.7746],[336558.0825,5355003.0088],[336548.8746,5354990.5172],[336538.6964,5354979.6988],[336530.4382,5354966.9072],[336520.835,5354951.6314],[336507.1762,5354934.0019],[336488.225,5354864.3867],[336488.8873,5354838.6964],[336495.765,5354814.9146],[336506.6903,5354788.1382],[336511.9525,5354765.0254],[336514.6464,5354735.244],[336519.6466,5354706.702],[336512.7528,5354674.2866],[336496.164,5354647.0182],[336482.3751,5354617.7063],[336469.1244,5354594.2052],[336451.7927,5354570.8203],[336437.5049,5354548.2802],[336422.4875,5354527.7013],[336410.8752,5354506.3912],[336399.6514,5354474.8079],[336384.4125,5354454.4886],[336365.7018,5354435.8105],[336348.1477,5354414.202],[336302.4875,5354352.0811],[336282.4752,5354330.3745],[336262.9415,5354312.106],[336247.2377,5354291.2944],[336238.6539,5354280.4407],[336234.5542,5354269.1252],[336231.0164,5354255.0643],[336230.3479,5354239.5389],[336226.2089,5354210.4242],[336220.9244,5354194.9059],[336218.2897,5354163.3819],[336218.8781,5354152.1706],[336243.3231,5354122.6617],[336324.0795,5354044.6587],[336348.2278,5354018.9982],[336307.6734,5353979.3877],[336227.5719,5353623.3291],[336316.5919,5353509.5456],[336322.9232,5353500.8328],[336328.6236,5353491.6949],[336333.6642,5353482.1771],[336338.02,5353472.3267],[336341.6693,5353462.1934],[336344.5935,5353451.8279],[336346.7782,5353441.2815],[336348.2125,5353430.6073],[336348.8896,5353419.8583],[336350.4869,5353361.6435],[336351.005,5353355.1798],[336352.2066,5353348.8077],[336354.0785,5353342.5992],[336356.5993,5353336.6249],[336359.7404,5353330.9519],[336363.4667,5353325.645],[336367.7353,5353320.7636],[336372.4984,5353316.3637],[336377.7021,5353312.4943],[336383.2873,5353309.1998],[336440.9948,5353279.1548],[336448.7434,5353275.4684],[336456.7322,5353272.336],[336464.9216,5353269.7734],[336473.2708,5353267.7933],[336481.7388,5353266.4052],[336507.0759,5353263.1843],[336521.8566,5353260.6816],[336533.4793,5353257.8193],[336544.89,5353254.2027],[336556.0396,5353249.8474],[336566.8804,5353244.7722],[336577.3659,5353238.9984],[336587.451,5353232.551],[336597.093,5353225.4575],[336606.2501,5353217.7486],[336614.8832,5353209.457],[336686.5185,5353135.8187],[336694.1537,5353127.055],[336701.2167,5353117.8239],[336707.6789,5353108.1627],[336713.5144,5353098.1106],[336718.6994,5353087.708],[336723.2132,5353076.9969],[336727.0373,5353066.0209],[336730.1564,5353054.824],[336732.5579,5353043.4516],[336733.5365,5353037.3657],[336734.4392,5353030.0298],[336739.1835,5352983.7656],[336740.4578,5352974.7173],[336742.4064,5352965.7898],[336745.0184,5352957.0333],[336748.2788,5352948.4972],[336752.1692,5352940.2291],[336756.6681,5352932.2757],[336761.7502,5352924.6817],[336767.3865,5352917.4896],[336773.5461,5352910.7399],[336780.1937,5352904.4705],[336787.2923,5352898.7166],[336794.8018,5352893.5106],[336928.2883,5352808.2146],[336872.5052,5352729.1318],[336844.9339,5352717.2469],[336806.1626,5352711.9546],[336761.2663,5352720.0002],[336722.1567,5352767.0835],[336701.1526,5352782.4346],[336655.3521,5352805.0655],[336614.8828,5352810.3739],[336573.4629,5352825.0875],[336539.1103,5352848.2271],[336514.6548,5352871.9558],[336487.3061,5352895.4016],[336456.2523,5352941.6601],[336439.8957,5352966.9189],[336423.8725,5353001.3049],[336411.2825,5353034.3425],[336402.0599,5353051.4874],[336387.5782,5353059.4561],[336359.6358,5353063.7342],[336302.9524,5353057.0249],[336291.1485,5353056.7986],[336280.8102,5353062.1943],[336254.7111,5353059.6865],[336235.5039,5353064.2149],[336220.9831,5353081.4263],[336211.1207,5353090.3087],[336196.6335,5353109.989],[336195.2165,5353116.0286],[336189.9432,5353131.1467],[336180.9399,5353135.4314],[336172.4123,5353145.655],[336160.7224,5353159.075],[336150.2489,5353173.0212],[336147.2737,5353178.6468],[336139.702,5353185.5516],[336136.0929,5353191.1573],[336133.4026,5353194.8352],[336117.9825,5353209.5153],[336115.839,5353209.3561],[336113.2733,5353208.6621],[336108.267,5353212.0241],[336101.2789,5353214.43],[336092.9612,5353215.1099],[336091.0952,5353217.6692],[336092.7657,5353222.7044],[336089.8716,5353228.0587],[336082.7738,5353236.5891],[336080.9577,5353238.1013],[336075.2153,5353238.1021],[336073.3112,5353246.7324],[336073.6906,5353252.6757],[336070.4056,5353254.0448],[336062.7901,5353251.5096],[336055.1372,5353251.5037],[336042.0078,5353257.2612],[336036.0217,5353259.9894],[336026.0589,5353259.3831],[336020.2295,5353262.5074],[336018.3124,5353267.2918],[336016.0844,5353268.6258],[336005.1849,5353268.4852],[335982.3432,5353259.3439],[335954.8062,5353243.1191],[336019.4958,5353401.4115],[336012.9039,5353431.3807],[336096.7508,5353440.497],[336105.5951,5353441.1329],[336115.0118,5353441.1027],[336124.3981,5353440.3459],[336133.6978,5353438.8668],[336142.856,5353436.6744],[336151.8173,5353433.7813],[336160.5287,5353430.2055],[336168.9381,5353425.9679],[336176.9952,5353421.094],[336184.6521,5353415.6127],[336191.8634,5353409.5565],[336198.5852,5353402.962],[336204.7783,5353395.8682],[336283.3113,5353298.4424],[336285.0283,5353296.637],[336287.0167,5353295.1356],[336289.2229,5353293.9782],[336291.5886,5353293.1959],[336294.0498,5353292.8093],[336296.5412,5353292.829],[336298.9959,5353293.2545],[336301.3488,5353294.0742],[336303.5366,5353295.2664],[336307.3782,5353297.7888],[336310.8698,5353300.4809],[336313.9364,5353303.6486],[336316.5139,5353307.2257],[336318.548,5353311.1374],[336319.9968,5353315.3015],[336320.8296,5353319.631],[336321.029,5353324.0355],[336318.4227,5353419.0225],[336317.7705,5353428.6921],[336316.3525,5353438.2796],[336314.177,5353447.724],[336311.2584,5353456.9656],[336307.6148,5353465.9464],[336303.2695,5353474.6094],[336298.2496,5353482.8997],[336292.5871,5353490.7651],[336218.9297,5353584.9128],[336189.0419,5353623.115],[336183.2576,5353630.9292],[336177.897,5353639.0395],[336172.9747,5353647.4233],[336168.5052,5353656.0569],[336164.5006,5353664.9158],[336125.1935,5353758.4392],[336122.2731,5353764.4324],[336118.7152,5353770.0708],[336114.5631,5353775.2871],[336109.866,5353780.0185],[336104.6805,5353784.2087],[336099.0682,5353787.8076],[336042.8618,5353819.5363],[336035.5108,5353824.0286],[336028.4956,5353829.029],[336021.8508,5353834.5123],[336015.6101,5353840.451],[336002.0057,5353854.5927],[335996.257,5353861.5979],[335991.0446,5353869.0109],[335986.3975,5353876.7905],[335982.3407,5353884.8937],[335978.8976,5353893.276],[335976.0862,5353901.8909],[335973.9226,5353910.691],[335972.4187,5353919.6274],[335971.5826,5353928.6507],[335971.4194,5353937.7113],[335971.9294,5353946.7589],[335972.9711,5353957.8384],[335973.2372,5353963.8227],[335972.9144,5353969.8041],[335972.0062,5353975.7249],[335970.5212,5353981.528],[335968.4737,5353987.1574],[335965.8835,5353992.5585],[335885.8186,5354140.3496],[335880.5587,5354150.8498],[335875.9838,5354161.6656],[335872.1126,5354172.753],[335868.9608,5354184.0659],[335866.5417,5354195.558],[335864.8655,5354207.1815],[335863.9386,5354218.8887],[335863.7651,5354230.6312],[335864.3458,5354242.3606],[335865.6782,5354254.0287],[335867.7565,5354265.5871],[335870.5726,5354276.9884],[335874.1147,5354288.1853],[335878.3682,5354299.1317],[336004.9778,5354558.6665],[336011.1022,5354570.5644],[336017.6963,5354582.2089],[336024.75,5354593.5805],[336062.8887,5354652.3386],[336065.7908,5354656.9108],[336073.1819,5354669.5544],[336079.8877,5354682.5749],[336085.8889,5354695.9345],[336091.1686,5354709.5953],[336095.7117,5354723.5186],[336099.5052,5354737.6645],[336102.5381,5354751.9924],[336104.8021,5354766.462],[336109.5904,5354803.6078],[336111.3211,5354815.3417],[336113.4657,5354827.0069],[336116.0215,5354838.5889],[336129.9762,5354896.9206],[336131.1437,5354903.2398],[336131.6391,5354909.647],[336131.4577,5354916.0706],[336130.6007,5354922.4391],[336129.078,5354928.6822],[336126.9067,5354934.7305],[336124.1107,5354940.5164],[336108.8902,5354968.2255],[336104.5949,5354976.8254],[336100.9908,5354985.737],[336098.0996,5354994.9047],[336095.9401,5355004.2718],[336094.525,5355013.7802],[336093.8636,5355023.3703],[336093.96,5355032.9826],[336094.8133,5355042.5576],[336096.4185,5355052.0355],[336098.7654,5355061.3576],[336173.5283,5355315.863],[336175.7354,5355324.5299],[336177.3012,5355333.3354],[336178.2173,5355342.2319],[336178.4787,5355351.1718],[336178.0841,5355360.1065],[336177.0353,5355368.9884],[336175.3384,5355377.7695],[336173.2838,5355385.4826],[336170.7288,5355393.0446],[336167.6845,5355400.4231],[336164.1638,5355407.5868],[336146.8173,5355440.1702],[336140.0738,5355452.106],[336132.7424,5355463.6898],[336124.8415,5355474.8929],[336116.3906,5355485.6872],[336107.411,5355496.0461],[336097.925,5355505.9431],[335999.7775,5355603.3359],[335901.63,5355700.7284],[335891.5012,5355711.333],[335881.9538,5355722.4637],[335873.0145,5355734.0886],[335864.7095,5355746.1749],[335857.062,5355758.6877],[335850.0944,5355771.5914],[335843.8262,5355784.8489],[335838.2756,5355798.4223],[335835.7955,5355800.3315],[335748.7046,5355867.3939],[335574.5224,5356001.5186],[335400.3405,5356135.6433],[335226.1588,5356269.768],[335051.9773,5356403.8928],[335024.5514,5356510.3856],[334969.6996,5356723.371],[334914.848,5356936.3561],[334859.9965,5357149.3415],[334805.1452,5357362.3266],[334777.7193,5357468.8194],[332325.788,5358439.3472],[332218.5356,5358436.8518],[332111.2831,5358434.3564],[332004.03,5358431.8613],[331896.7767,5358429.366],[331789.5234,5358426.8707],[331682.2704,5358424.3754],[331575.0171,5358421.8804],[331467.7638,5358419.3852],[331360.5088,5358416.89],[331253.2537,5358414.3949],[331145.9987,5358411.9001],[331038.674,5358371.9552],[330931.3496,5358332.0104],[330824.0257,5358292.0658],[330737.7889,5358259.9694],[330716.704,5358252.1216],[330641.3984,5358224.0936],[330603.4545,5358209.9713],[330617.11,5358147.6414],[330682.5416,5357848.9844],[330685.3834,5357837.7645],[330688.962,5357826.7576],[330693.2622,5357816.0118],[330698.2647,5357805.5748],[330703.9476,5357795.4918],[330710.2859,5357785.8076],[330717.2519,5357776.5645],[330724.8147,5357767.803],[330732.9414,5357759.5618],[330741.5965,5357751.877],[330750.7414,5357744.7825],[330760.3361,5357738.3093],[330770.3385,5357732.4859],[330780.7051,5357727.338],[330791.3898,5357722.8879],[330802.3456,5357719.1557],[330813.5247,5357716.1572],[330824.8779,5357713.906],[330836.3555,5357712.4114],[330847.9068,5357711.6807],[331458.058,5357693.208],[331436.8546,5357108.476],[331160.3824,5357118.5009],[331168.9981,5357354.2257],[331169.2066,5357361.8549],[331166.6379,5357362.7788],[331162.0477,5357363.595],[331157.6797,5357364.9787],[331152.7554,5357364.9429],[331149.7335,5357368.0907],[331144.5141,5357369.8075],[331141.6877,5357369.2779],[331139.3179,5357368.2419],[331138.344,5357369.9328],[331134.6547,5357371.3776],[331132.9454,5357372.8653],[331127.2636,5357375.9089],[331124.2647,5357375.774],[331122.3283,5357377.5146],[331117.5651,5357378.7252],[331111.6621,5357381.6114],[331107.7251,5357378.7259],[331104.6259,5357380.0479],[331103.0886,5357380.9262],[331099.469,5357381.8507],[331092.7977,5357382.7588],[331086.7487,5357383.9441],[331083.5082,5357386.5292],[331078.0476,5357387.2304],[331072.6144,5357388.541],[331058.8055,5357384.1756],[331056.6771,5357386.6184],[331051.9417,5357385.7247],[331039.7367,5357393.2294],[331034.8633,5357393.5851],[331026.8879,5357393.7475],[331016.6847,5357395.7008],[331015.9462,5357371.3303],[330680.8389,5357381.4761],[330502.5008,5357386.8258],[330493.915,5357110.0487],[330378.3786,5357065.4882],[330316.8101,5356948.1422],[330109.3534,5356954.2404],[330106.3823,5356859.9409],[329792.8137,5356864.8236],[329808.7812,5357379.5527],[329881.3155,5357377.3289],[329891.575,5357734.9176],[329164.6727,5357106.2929],[329155.7647,5357096.4935],[329156.2816,5357112.3283],[329087.3352,5357069.9953],[328929.4779,5356989.3461],[328616.5014,5356837.9364],[328212.2693,5356661.8772],[327914.5695,5356583.8586],[327787.3545,5356535.2545],[327971.9486,5356663.7569],[328129.5754,5356763.6868],[328235.3126,5356861.8412],[328304.3331,5356971.8073],[328337.6866,5357061.1291],[328352.2015,5357136.9586],[328356.9335,5357254.8066],[328374.0927,5357976.6841],[328389.3492,5358421.911],[328398.7746,5358486.6316],[328408.4906,5358540.1118],[328430.5945,5358626.2933],[328467.3172,5358727.1963],[328479.8653,5358755.4576],[328509.2348,5358805.8004],[328540.8384,5358855.5743],[328569.7557,5358896.1676],[328620.1913,5358966.2531],[328657.1774,5359027.1872],[328716.4268,5359183.2641],[328725.072,5359251.985],[328730.4914,5359398.6861],[328735.1521,5359525.097],[328736.9167,5359598.9976],[328739.4144,5359732.4874],[328758.5822,5359857.3388],[328776.8169,5359912.6702],[328809.9201,5359982.9034],[328834.2263,5360021.7154],[328867.5122,5360064.5687],[328918.2773,5360116.2235],[328967.5334,5360155.2381],[329067.698,5360208.9577],[329148.3933,5360248.4545],[329287.7473,5360304.7468],[329354.2036,5360339.4226],[329428.8688,5360389.119],[329479.5945,5360433.6233],[329539.2234,5360509.1321],[329598.2082,5360611.1137],[329619.5725,5360674.5562],[329638.1827,5360778.9384],[329646.4832,5360985.5605],[329651.4746,5361181.3921],[330480,5361159.171],[330762.5231,5361150.1577],[331289.0726,5361133.3603],[332301.2927,5361109.4347],[333956.0131,5361064.5766],[334076.4427,5361257.2747],[334369.5002,5361532.2151],[334684.9255,5361786.5308],[335270.7472,5362069.6206],[335650.6643,5362195.6278],[336370.4791,5362434.925],[337085.1273,5362687.4191],[337081.7474,5362594.4044],[337049.0678,5361481.9593],[337277.8609,5361377.4377]],[[335078.8626,5356421.6544],[335824.0662,5355847.8275],[335769.8077,5356067.5412],[335767.1402,5356077.0219],[335763.8656,5356086.3104],[335759.998,5356095.3682],[335755.5536,5356104.1572],[335750.5503,5356112.6405],[335745.0097,5356120.7831],[335738.9547,5356128.5507],[335660.2051,5356223.1358],[335581.4556,5356317.7212],[335502.7062,5356412.3064],[335475.1184,5356519.3911],[335447.5307,5356626.476],[335419.9434,5356733.5607],[335392.3562,5356840.6456],[335364.7691,5356947.7303],[335337.182,5357054.8149],[335309.5949,5357161.8999],[335282.0077,5357268.9845],[335188.1573,5357306.1752],[335094.3067,5357343.3655],[335000.4558,5357380.5557],[334906.6052,5357417.7459],[334812.7546,5357454.9363],[335078.8626,5356421.6544]]]},"properties":{"OBJECTID":36,"WARD_NAME":"WESTFORT","WARD_NO":"600"}},{"type":"Feature","id":37,"geometry":{"type":"Polygon","coordinates":[[[334415.2012,5375945.2273],[334459.6379,5375943.7724],[334478.2084,5375943.8592],[335263.5839,5375917.6772],[335446.5694,5375911.4141],[335452.0777,5375911.2666],[335457.3552,5375894.621],[335467.1131,5375881.555],[335491.9929,5375873.6557],[335546.4917,5375775.2671],[335562.0527,5375717.9537],[335595.3758,5375564.2134],[335594.6188,5375425.6207],[335637.2235,5375348.0441],[335629.4788,5375304.8868],[335630.2241,5375249.9918],[335596.1944,5375225.8985],[335591.901,5375069.3316],[335597.2936,5374941.484],[335628.9824,5374909.6946],[335622.5244,5374881.1298],[335599.9208,5374862.0046],[335616.3147,5374823.7515],[335605.1371,5374762.6477],[335606.7756,5374716.6744],[335605.9585,5374686.7246],[335599.3604,5374668.3844],[335562.2632,5374642.7127],[335555.6744,5374631.7126],[335555.6759,5374615.8228],[335562.2684,5374589.5432],[335816.5277,5373979.6308],[335833.171,5373943.3922],[335853.9733,5373921.8039],[335878.9348,5373904.8458],[335918.4563,5373889.4292],[335962.1362,5373887.893],[336017.2549,5373899.4676],[336039.0937,5373913.3395],[336066.1306,5373943.4118],[336083.8094,5373954.9833],[336095.2489,5373959.6042],[336117.089,5373959.6063],[336185.7304,5373941.882],[336240.8533,5373913.3565],[336290.7765,5373877.9014],[336336.5416,5373826.2456],[336344.8639,5373801.5764],[336315.7545,5373694.4036],[336282.4796,5373642.7506],[336283.5215,5373622.7007],[336271.0529,5373507.0494],[336276.2558,5373476.9799],[336306.4218,5373415.3128],[336369.8681,5373348.2389],[336521.7175,5373243.3931],[336639.2328,5373184.8143],[336669.3941,5373169.3971],[336689.1564,5373146.2687],[336714.1208,5373099.2411],[336725.5614,5373091.5321],[336760.922,5373084.5955],[336910.6784,5373111.5997],[336975.1571,5373119.3155],[337053.1526,5373161.7229],[337119.7109,5373174.839],[337408.828,5373183.3456],[337492.0289,5373166.3934],[337594.9833,5373113.9729],[337669.8639,5373104.73],[337717.7062,5373079.2845],[337897.6257,5373073.1412],[338126.4237,5373094.7428],[338169.0643,5373096.2968],[338269.9489,5373063.9163],[338324.0347,5373006.1014],[338448.8426,5372929.0129],[338485.2359,5372894.3263],[338545.5632,5372807.2117],[338575.7372,5372622.9443],[338573.5719,5372559.3142],[338523.1063,5372505.7894],[338422.618,5372493.4204],[338326.7671,5372394.0619],[338314.9696,5372259.8511],[338165.7831,5372203.4983],[338055.8782,5372136.5088],[337930.2722,5372041.2565],[337791.0587,5371918.7894],[337138.9552,5371358.7889],[336584.1973,5370880.4335],[336082.8219,5370441.8482],[335918.4847,5370303.6851],[335682.9711,5370141.4467],[335293.5904,5369927.9133],[335024.5814,5369782.4126],[334779.648,5369653.6627],[334575.5389,5369528.0599],[334575.5292,5369528.053],[334327.4667,5369351.1657],[334143.2438,5369204.6234],[333944.3679,5369034.0065],[333645.0103,5368807.9144],[333370.7669,5368617.4141],[332743.7764,5368200.8123],[332567.9295,5368051.1259],[331719.0215,5367026.3948],[331403.9557,5366666.3275],[331278.348,5366505.1342],[331210.3267,5366389.3087],[331171.6214,5366269.3882],[331128.2627,5366057.606],[331007.5664,5365406.7382],[330956.6099,5365091.5445],[330791.2086,5364163.531],[330775.5797,5364064.4692],[330749.3714,5363962.5964],[330737.0057,5363925.3652],[330721.2822,5363883.6385],[330721.2804,5363883.6336],[330721.2694,5363883.6385],[330692.742,5363896.3474],[330684.9478,5363899.3465],[330573.0221,5363942.4161],[330366.7228,5364024.7385],[330115.232,5364115.0143],[330077.4552,5364128.5747],[329997.7216,5364150.8256],[329965.2348,5364158.1891],[329858.6516,5364182.3474],[329641.7019,5364171.2205],[329458.1289,5364130.4254],[328994.561,5363926.4544],[328699.7312,5363792.9467],[328682.8189,5363785.5474],[328680.9534,5363784.7313],[328432.7153,5363676.1264],[328110.0714,5363561.1595],[327857.8906,5363498.1118],[327529.685,5363440.6248],[327067.9718,5363423.9284],[326752.746,5363431.3392],[326576.5557,5363435.5418],[326574.338,5363435.5947],[326053.6899,5363448.0142],[325662.9321,5363455.7321],[325660.5874,5363455.8089],[325092.6235,5363474.4041],[324719.659,5363464.6402],[324364.2686,5363450.9709],[324258.3594,5363451.832],[324124.0872,5363452.9232],[323296.0492,5363473.7611],[323215.9085,5363478.4753],[323213.4842,5363402.5108],[323006.1074,5363408.1035],[322902.4183,5363410.9005],[322798.7289,5363413.6981],[322698.4495,5363416.3682],[322598.1698,5363419.0382],[322497.8903,5363421.7083],[322397.6107,5363424.3784],[322297.3117,5363426.9321],[322197.0129,5363429.4856],[322096.7142,5363432.0388],[321996.4152,5363434.5923],[321298.4817,5363460.2038],[321190.6017,5363464.1622],[321089.9204,5363467.7691],[320989.2389,5363471.3763],[320888.5575,5363474.9832],[320787.876,5363478.5903],[320687.1946,5363482.1975],[320586.5132,5363485.8043],[320485.8316,5363489.4114],[320385.1507,5363493.0182],[320387.9742,5363603.1483],[320390.5405,5363703.2235],[320393.1068,5363803.2988],[320395.6731,5363903.374],[320398.2394,5364003.449],[320400.8056,5364103.5243],[320403.3719,5364203.5995],[320405.9382,5364303.6748],[320408.5045,5364403.7501],[320411.0708,5364503.8253],[320413.637,5364603.9007],[320416.2031,5364703.9762],[320418.834,5364802.0152],[320426.4677,5365104.2778],[320426.9934,5365124.3835],[320453.3883,5366059.8012],[320456.4763,5366169.9243],[320457.7057,5366213.7532],[320458.6258,5366246.5506],[320459.4801,5366277.0147],[320471.9147,5366720.4839],[320494.2044,5367528.5427],[320540.2215,5369162.7977],[320563.0433,5369945.6401],[320565.7342,5370046.3944],[320568.4251,5370147.1482],[320584.5705,5370751.6704],[320606.1898,5371557.8802],[320617.2949,5371960.7468],[320628.1614,5372363.8602],[320630.8533,5372464.3782],[320638.9927,5372766.0368],[320644.573,5372967.0467],[320650.4171,5373167.9998],[320660.9967,5373609.4974],[320666.1319,5373827.8662],[320672.2396,5374085.3858],[320678.2633,5374339.9523],[320678.8152,5374362.9233],[320679.1559,5374383.197],[320684.7094,5374619.8558],[320690.4342,5374840.1308],[320701.0976,5375247.5652],[320703.3932,5375333.0799],[320709.7584,5375581.2156],[320710.5284,5375611.839],[320719.8605,5375982.989],[320729.912,5376383.8408],[321455.6615,5376363.1673],[321535.8677,5376360.8884],[322349.696,5376336.7636],[322370.2899,5376336.1789],[323151.1843,5376311.8841],[323979.6508,5376286.1711],[324762.0306,5376258.5614],[324783.9313,5376258.0179],[325601.4103,5376233.3528],[326399.042,5376209.1945],[326629.5303,5376202.1796],[326701.7656,5376199.9806],[327197.1054,5376184.9023],[328012.83,5376156.1199],[328072.2378,5376154.0507],[328198.6443,5376149.7452],[328824.5914,5376128.1639],[329624.4911,5376104.1096],[329751.6535,5376100.2783],[329799.8348,5376098.8265],[330035.6881,5376091.7191],[330157.5408,5376088.047],[330319.1402,5376083.1766],[330424.4573,5376080.0027],[330831.2425,5376067.7221],[331039.9308,5376061.4063],[331238.1615,5376055.4071],[331345.0747,5376051.9508],[331369.502,5376051.1614],[331525.2253,5376046.0117],[332839.1334,5375999.3139],[332859.2381,5375998.6065],[333655.1615,5375970.1108],[334057.3992,5375956.9411],[334099.6184,5375955.5592],[334192.3165,5375952.5243],[334293.6069,5375949.2081],[334394.8976,5375945.8919],[334415.2012,5375945.2273]]]},"properties":{"OBJECTID":37,"WARD_NAME":"MCINTYRE","WARD_NO":"400"}},{"type":"Feature","id":38,"geometry":{"type":"Polygon","coordinates":[[[330545.8547,5363604.7068],[330325.4081,5363346.4047],[329988.4722,5362957.7776],[329978.5934,5362941.2262],[329910.7978,5362862.0376],[329841.9644,5362755.5485],[329773.133,5362622.5597],[329730.7821,5362494.9745],[329697.6929,5362357.5712],[329681.7337,5362227.6123],[329657.8807,5361432.7341],[329651.4746,5361181.3921],[329646.4832,5360985.5605],[329638.1827,5360778.9384],[329619.5725,5360674.5562],[329598.2082,5360611.1137],[329539.2234,5360509.1321],[329479.5945,5360433.6233],[329428.8688,5360389.119],[329354.2036,5360339.4226],[329287.7473,5360304.7468],[329148.3933,5360248.4545],[329067.698,5360208.9577],[328967.5334,5360155.2381],[328918.2773,5360116.2235],[328867.5122,5360064.5687],[328834.2263,5360021.7154],[328809.9201,5359982.9034],[328776.8169,5359912.6702],[328758.5822,5359857.3388],[328739.4144,5359732.4874],[328736.9167,5359598.9976],[328735.1521,5359525.097],[328730.4914,5359398.6861],[328725.072,5359251.985],[328716.4268,5359183.2641],[328657.1774,5359027.1872],[328620.1913,5358966.2531],[328569.7557,5358896.1676],[328540.8384,5358855.5743],[328509.2348,5358805.8004],[328479.8653,5358755.4576],[328467.3172,5358727.1963],[328430.5945,5358626.2933],[328408.4906,5358540.1118],[328398.7746,5358486.6316],[328389.3492,5358421.911],[328374.0927,5357976.6841],[328356.9335,5357254.8066],[328352.2015,5357136.9586],[328337.6866,5357061.1291],[328304.3331,5356971.8073],[328235.3126,5356861.8412],[328129.5754,5356763.6868],[327971.9486,5356663.7569],[327787.3545,5356535.2545],[327914.5695,5356583.8586],[328212.2693,5356661.8772],[328616.5014,5356837.9364],[328929.4779,5356989.3461],[329087.3352,5357069.9953],[329156.2816,5357112.3283],[329155.7647,5357096.4935],[329061.0041,5354086.4437],[329040.8996,5354087.1001],[328923.898,5354090.9187],[328883.6887,5354092.2309],[328843.4796,5354093.5433],[328803.2704,5354094.8557],[328682.6435,5354098.7925],[328574.9546,5354101.873],[328505.947,5354104.1671],[328438.937,5354106.3901],[328337.8906,5354109.9181],[328236.7012,5354113.3474],[328135.0657,5354115.4777],[328033.4367,5354117.6152],[327830.1723,5354121.8833],[327639.268,5354125.8915],[327619.0533,5354126.328],[327428.17,5354130.3078],[327199.6568,5354135.0745],[327164.1476,5354135.8189],[327128.6396,5354136.5646],[327012.8711,5354138.9961],[326981.87,5353120.6335],[326872.2429,5353123.9825],[326762.6161,5353127.3313],[326652.989,5353130.6803],[326543.3619,5353134.0293],[326512.2746,5352124.2582],[326492.022,5352125.0183],[326462.5297,5351167.0535],[326693.3869,5351107.9357],[326738.2381,5351096.45],[326422.7288,5351106.4865],[325476.2005,5351136.5951],[324960.5315,5351151.5165],[324756.9828,5351157.0244],[324655.2162,5351159.8221],[324553.4529,5351162.64],[324451.6902,5351165.4671],[324350.0643,5351168.161],[324248.3195,5351170.8178],[324146.5421,5351173.4247],[324044.7635,5351176.0564],[323942.9687,5351178.8255],[323841.163,5351181.5719],[323739.421,5351184.2587],[323637.5991,5351187.0316],[323535.84,5351189.759],[323433.9545,5351192.605],[323332.1106,5351195.4118],[323230.3324,5351198.157],[323129.6923,5351200.8791],[322998.1216,5351204.4434],[322928.4123,5351206.3235],[322817.6577,5351209.3192],[322821.2883,5351311.0357],[322824.9186,5351412.7522],[322828.5489,5351514.4686],[322832.1793,5351616.1849],[322835.81,5351717.9012],[322839.4403,5351819.6175],[322843.0707,5351921.3339],[322846.7011,5352023.0502],[322850.3318,5352124.7665],[322853.9621,5352226.4828],[322857.4592,5352336.0903],[322860.9564,5352445.6979],[322864.4534,5352555.3057],[322867.9507,5352664.9133],[322871.4477,5352774.5209],[322874.9448,5352884.1288],[322878.442,5352993.7364],[322881.9391,5353103.3442],[322885.4363,5353212.9518],[322889.8004,5353353.1808],[322892.9507,5353455.3665],[322896.1012,5353557.5523],[322899.2515,5353659.7382],[322902.402,5353761.9239],[322905.5523,5353864.1097],[322908.7029,5353966.2956],[322911.8531,5354068.4814],[322915.0037,5354170.6671],[322918.1539,5354272.853],[322921.3045,5354375.0387],[322924.4548,5354477.2246],[322927.6053,5354579.4102],[322930.7556,5354681.5958],[322933.9061,5354783.7817],[322937.0564,5354885.9674],[322940.2067,5354988.153],[322943.3573,5355090.3389],[322946.5076,5355192.5245],[322949.6582,5355294.7099],[322953.0229,5355396.0643],[322956.3875,5355497.4185],[322959.7522,5355598.7726],[322963.1169,5355700.1268],[322966.4815,5355801.4812],[322969.8462,5355902.8354],[322973.2109,5356004.1896],[322976.5755,5356105.5437],[322979.9401,5356206.8981],[322983.3047,5356308.2522],[323019.6223,5357418.5097],[323023.0331,5357522.7587],[323026.4437,5357627.0077],[323029.8543,5357731.2567],[323033.2649,5357835.5056],[323036.6758,5357939.7546],[323040.0854,5358044.0035],[323043.4948,5358148.2524],[323046.9041,5358252.5013],[323050.3135,5358356.7502],[323053.7231,5358460.9991],[323057.1325,5358565.248],[323060.5419,5358669.4968],[323063.9512,5358773.7457],[323067.3606,5358877.9946],[323070.7713,5358982.2439],[323074.1819,5359086.4932],[323213.4842,5363402.5108],[323215.9085,5363478.4753],[323296.0492,5363473.7611],[324124.0872,5363452.9232],[324258.3594,5363451.832],[324364.2686,5363450.9709],[324719.659,5363464.6402],[325092.6235,5363474.4041],[325660.5874,5363455.8089],[325662.9321,5363455.7321],[326053.6899,5363448.0142],[326574.338,5363435.5947],[326576.5557,5363435.5418],[326752.746,5363431.3392],[327067.9718,5363423.9284],[327529.685,5363440.6248],[327857.8906,5363498.1118],[328110.0714,5363561.1595],[328432.7153,5363676.1264],[328680.9534,5363784.7313],[328682.8189,5363785.5474],[328699.7312,5363792.9467],[328994.561,5363926.4544],[329458.1289,5364130.4254],[329641.7019,5364171.2205],[329858.6516,5364182.3474],[329965.2348,5364158.1891],[329997.7216,5364150.8256],[330077.4552,5364128.5747],[330115.232,5364115.0143],[330366.7228,5364024.7385],[330573.0222,5363942.4161],[330684.9478,5363899.3465],[330692.742,5363896.3474],[330721.2694,5363883.6385],[330721.2804,5363883.6336],[330710.0936,5363856.8423],[330693.1479,5363819.7607],[330666.0342,5363767.1781],[330610.3249,5363674.8735],[330545.8547,5363604.7068]]]},"properties":{"OBJECTID":38,"WARD_NAME":"NEEBING","WARD_NO":"700"}},{"type":"Feature","id":39,"geometry":{"type":"Polygon","coordinates":[[[334485.6878,5369413.8662],[334482.4202,5369411.5753],[334482.433,5369411.5753],[334482.5021,5369411.5751],[334482.5147,5369411.5751],[334482.5275,5369411.5748],[334510.6731,5369411.4503],[334510.6859,5369411.4501],[334510.6984,5369411.4501],[334517.2172,5369411.4213],[334517.23,5369411.4211],[334517.2428,5369411.4211],[334528.9598,5369411.369],[334528.9726,5369411.3687],[334528.9854,5369411.3687],[334575.9092,5369411.1606],[334575.9107,5369411.1496],[334575.9199,5369411.0884],[334575.9284,5369411.0308],[334575.9381,5369410.9648],[334575.9496,5369410.8875],[334575.9844,5369410.6525],[334576.0126,5369410.462],[334576.1503,5369409.5325],[334576.2018,5369409.1861],[334576.2233,5369409.0415],[334576.2435,5369408.9048],[334576.2952,5369408.5545],[334576.3602,5369408.1163],[334576.4219,5369407.7],[334576.456,5369407.4706],[334576.4875,5369407.2569],[334576.5207,5369407.0339],[334576.5609,5369406.762],[334576.5988,5369406.5068],[334576.637,5369406.249],[334576.6592,5369406.099],[334576.6876,5369405.9073],[334576.7207,5369405.6845],[334576.7555,5369405.4493],[334576.797,5369405.1682],[334576.8228,5369404.9941],[334576.854,5369404.7842],[334576.8794,5369404.6119],[334576.8945,5369404.5108],[334576.9229,5369404.3193],[334576.9516,5369404.126],[334576.9733,5369403.9791],[334576.9956,5369403.8285],[334577.0217,5369403.6516],[334577.0371,5369403.549],[334577.0617,5369403.3831],[334577.0883,5369403.2039],[334577.1044,5369403.0938],[334577.1172,5369403.0073],[334577.1326,5369402.9049],[334577.1497,5369402.7884],[334577.1684,5369402.6617],[334577.1848,5369402.5521],[334577.1981,5369402.461],[334577.2101,5369402.3793],[334577.226,5369402.2731],[334577.2419,5369402.1656],[334577.2549,5369402.0775],[334577.2688,5369401.9856],[334577.2849,5369401.8768],[334577.3036,5369401.7501],[334577.3261,5369401.5978],[334577.3471,5369401.4554],[334577.3663,5369401.3259],[334577.388,5369401.1797],[334577.4021,5369401.0847],[334577.4149,5369401.0845],[334662.5305,5369400.748],[334679.9849,5369400.6792],[334679.9977,5369400.6789],[334679.9862,5369398.9896],[334679.9739,5369397.1802],[334679.9652,5369395.8874],[334679.9539,5369394.2214],[334679.9534,5369392.1695],[334679.936,5369388.7993],[334679.8766,5369377.4138],[334679.8464,5369371.5975],[334679.8234,5369367.1544],[334679.8359,5369367.1541],[334698.0437,5369367.0808],[334698.0565,5369367.0808],[334698.0693,5369367.0808],[334716.3301,5369367.0071],[334716.3429,5369367.0071],[334716.3557,5369367.0071],[334716.3831,5369367.0069],[334716.3959,5369367.0069],[334716.4087,5369367.0066],[334734.6163,5369366.9332],[334734.6291,5369366.9332],[334734.6419,5369366.933],[334734.6693,5369366.933],[334734.6821,5369366.9327],[334734.6949,5369366.9327],[334752.9027,5369366.8598],[334752.9152,5369366.8596],[334752.928,5369366.8596],[334752.9554,5369366.8596],[334752.9682,5369366.8593],[334752.9808,5369366.8593],[334752.9841,5369366.8593],[334752.9967,5369366.8593],[334753.0095,5369366.8591],[334771.2421,5369366.7857],[334771.2549,5369366.7854],[334771.2677,5369366.7854],[334789.3946,5369366.7125],[334789.4072,5369366.7123],[334789.42,5369366.7123],[334789.4753,5369366.712],[334789.4881,5369366.712],[334789.5006,5369366.712],[334789.5283,5369366.7118],[334789.5411,5369366.7118],[334789.5536,5369366.7118],[334807.8147,5369366.6381],[334807.8275,5369366.6379],[334807.8403,5369366.6379],[334843.5235,5369366.4939],[334843.5363,5369366.4939],[334843.5491,5369366.4936],[334854.4328,5369366.4027],[334854.4456,5369366.4024],[334854.9285,5369367.6199],[334855.3345,5369368.6442],[334855.604,5369369.3236],[334855.8454,5369369.9321],[334857.0266,5369373.2231],[334858.1445,5369376.8027],[334859.127,5369380.5121],[334859.5819,5369382.5821],[334859.7629,5369383.3022],[334859.9119,5369383.9729],[334860.1142,5369385.2608],[334860.3097,5369386.2626],[334860.5806,5369387.9503],[334861.0508,5369391.6083],[334861.3583,5369396.5987],[334861.4957,5369399.1515],[334861.5628,5369401.0763],[334861.5984,5369403.4468],[334861.7392,5369411.5018],[334861.7517,5369411.5015],[335262.7402,5369406.0041],[335262.753,5369406.0038],[335262.9627,5369495.2205],[335262.9753,5369495.2202],[335466.5963,5369494.0338],[335466.6091,5369494.0336],[335455.4464,5369055.6692],[335455.4592,5369055.6703],[335651.5991,5369076.5106],[335651.6117,5369076.5118],[335651.6245,5369076.5126],[335682.0578,5369078.188],[335682.0706,5369078.1885],[335681.2682,5369063.0849],[335678.7927,5369058.3988],[335673.3108,5369053.3589],[335645.1945,5369043.456],[335639.8008,5369040.3614],[335636.2642,5369036.3824],[335638.6513,5369019.4067],[335635.6454,5369014.632],[335631.8433,5369012.7752],[335631.8305,5369012.7752],[335625.0481,5369012.7751],[335625.0353,5369012.7751],[335620.7913,5369014.3666],[335611.8616,5369024.1804],[335611.8494,5369024.1794],[335576.2423,5369021.2637],[335576.2295,5369021.2629],[335571.5795,5369015.9818],[335567.1225,5368996.6826],[335568.2719,5368965.7368],[335594.467,5368931.9448],[335598.8637,5368917.9039],[335600.8974,5368915.6937],[335627.4221,5368909.9469],[335629.8978,5368908.7091],[335638.9027,5368877.9624],[335642.1877,5368874.3152],[335657.3069,5368871.3978],[335662.0728,5368866.4228],[335661.0201,5368846.4644],[335664.0263,5368838.5953],[335674.8132,5368831.1685],[335697.5287,5368824.1862],[335697.5361,5368824.1839],[335697.5415,5368824.1862],[335707.1735,5368828.2513],[335711.849,5368829.0452],[335711.8595,5368829.047],[335711.8618,5368829.0452],[335716.1562,5368825.5691],[335732.549,5368817.9954],[335748.1104,5368815.1663],[335753.9458,5368811.895],[335750.8513,5368793.6812],[335767.1212,5368770.8352],[335768.3576,5368753.3633],[335768.3704,5368753.3626],[335784.5252,5368752.0385],[335784.5377,5368752.0378],[335798.5014,5368747.0002],[335798.5075,5368746.9979],[335798.5142,5368747.0002],[335804.7851,5368749.0316],[335815.8307,5368751.3294],[335815.8371,5368751.3306],[335815.8435,5368751.3294],[335823.9714,5368749.6509],[335838.292,5368738.6015],[335838.295,5368738.5989],[335838.3045,5368738.6015],[335842.0969,5368739.5715],[335858.9843,5368748.6786],[335863.14,5368754.0723],[335864.378,5368757.432],[335864.1125,5368762.2066],[335856.5581,5368796.2849],[335858.454,5368806.4146],[335861.4602,5368810.3933],[335887.7126,5368816.7578],[335887.7201,5368816.7596],[335887.7254,5368816.7578],[335898.4185,5368813.1348],[335904.3968,5368807.0803],[335925.1201,5368788.0249],[335930.8672,5368785.284],[335935.3664,5368784.6669],[335935.3764,5368784.6653],[335935.3789,5368784.6669],[335965.6149,5368799.8733],[335975.7827,5368802.5261],[335975.7955,5368802.5271],[335982.9319,5368803.232],[335982.9353,5368803.232],[335982.9445,5368803.233],[335982.9478,5368803.2322],[335988.1612,5368801.8187],[335991.7572,5368795.5302],[335991.6471,5368775.6699],[335991.6092,5368768.8396],[336003.201,5368756.2117],[336005.2825,5368740.0221],[336003.8991,5368730.0249],[336000.0972,5368718.5308],[335988.7798,5368707.9208],[335956.419,5368684.2246],[335936.6132,5368659.6444],[335932.4906,5368649.8041],[335925.8259,5368636.2135],[335928.213,5368630.2011],[335977.2132,5368611.259],[335985.4179,5368598.9022],[335986.9207,5368592.5363],[335987.6279,5368584.4019],[335988.1582,5368570.255],[335990.9876,5368549.7204],[336000.7601,5368517.3915],[336011.2331,5368501.3783],[336013.7315,5368494.6626],[336009.1988,5368461.6789],[336003.8935,5368449.3887],[335965.0779,5368404.03],[335961.0988,5368399.3439],[335956.8644,5368398.2853],[335956.8549,5368398.283],[335956.8516,5368398.2853],[335950.666,5368402.6152],[335946.3789,5368406.265],[335944.8586,5368410.1349],[335946.776,5368420.2103],[335946.5373,5368426.1153],[335940.4104,5368434.6223],[335928.8283,5368456.9915],[335925.6454,5368465.3914],[335918.6606,5368470.3429],[335918.6481,5368470.3439],[335908.8585,5368471.2254],[335908.8462,5368471.2262],[335901.4047,5368465.0603],[335892.224,5368459.1133],[335869.4067,5368445.2069],[335860.394,5368442.4903],[335823.0822,5368433.3829],[335817.6002,5368430.3766],[335812.999,5368421.6106],[335811.3098,5368412.8705],[335810.8104,5368405.0003],[335811.3108,5368399.0104],[335815.0354,5368392.711],[335831.7459,5368382.2779],[335831.7585,5368382.2777],[335836.9501,5368382.1899],[335836.9627,5368382.1896],[335843.6821,5368384.6652],[335848.6234,5368386.8715],[335848.6334,5368386.8759],[335848.6362,5368386.8715],[335852.0718,5368381.1648],[335852.2424,5368374.1747],[335850.5781,5368369.7228],[335843.6816,5368358.0517],[335839.7746,5368347.0733],[335837.0499,5368340.9871],[335846.068,5368320.3861],[335848.1015,5368310.8371],[335856.9428,5368295.7178],[335860.8328,5368290.1475],[335860.5674,5368284.1351],[335855.2624,5368271.5797],[335851.7255,5368269.1039],[335851.7127,5368269.1036],[335847.1409,5368268.9277],[335847.1281,5368268.9275],[335835.1099,5368273.8758],[335835.1035,5368273.8784],[335835.0971,5368273.8758],[335829.4449,5368271.4911],[335827.4913,5368263.6818],[335826.8217,5368257.3118],[335828.002,5368253.812],[335831.6548,5368250.0941],[335834.8376,5368240.8989],[335832.627,5368237.0967],[335830.505,5368234.9747],[335824.4043,5368231.2611],[335813.005,5368226.9313],[335812.9986,5368226.9287],[335812.9924,5368226.9313],[335799.7419,5368232.0548],[335799.7363,5368232.0568],[335799.7294,5368232.0548],[335794.9619,5368230.5535],[335792.3445,5368225.5282],[335785.0655,5368213.7974],[335780.8147,5368199.3421],[335781.2876,5368190.6468],[335786.296,5368167.5121],[335793.1996,5368162.1182],[335798.7355,5368160.3196],[335825.1389,5368118.4264],[335851.8376,5368088.6292],[335851.9847,5368070.7801],[335844.4615,5368057.6515],[335828.8188,5368053.0593],[335809.1127,5368024.6287],[335793.7695,5368018.3103],[335793.7567,5368018.3098],[335773.6257,5368017.108],[335773.6129,5368017.1074],[335766.0917,5368014.5497],[335759.9223,5368004.3345],[335760.9227,5368000.8746],[335773.7625,5367980.1023],[335783.8408,5367970.3247],[335793.7681,5367945.8053],[335807.4565,5367940.0892],[335815.7472,5367929.4302],[335817.9858,5367922.64],[335822.1974,5367909.4025],[335823.7014,5367899.6248],[335821.5953,5367894.6607],[335818.5866,5367885.1838],[335816.2541,5367838.1099],[335816.0236,5367835.4319],[335815.2941,5367826.9552],[335815.3735,5367815.9879],[335824.0531,5367795.961],[335826.7883,5367789.6499],[335831.9723,5367784.6996],[335837.8384,5367771.3116],[335842.8023,5367747.996],[335856.641,5367739.1212],[335854.9642,5367736.8093],[335581.7748,5367360.1703],[335509.7694,5367260.8992],[335473.0366,5367212.8523],[335389.9342,5367240.3145],[335338.5436,5367235.0322],[335165.7021,5367274.6732],[335149.5175,5367250.4541],[335124.5471,5367218.0104],[335113.9567,5367213.9078],[335095.2175,5367205.816],[335069.3732,5367190.531],[335042.5353,5367153.0336],[334882.2519,5367269.5681],[334832.8684,5367201.1294],[334771.5412,5367246.6984],[334657.6222,5366993.1171],[334497.3328,5366629.532],[334431.9392,5366474.9483],[333682.5025,5366811.8169],[333637.287,5366825.4919],[333357.3037,5366952.4841],[333348.692,5366930.0329],[333342.416,5366902.5888],[333349.2249,5366859.114],[333368.605,5366806.7346],[333350.5289,5366144.2653],[333344.9304,5366057.6429],[333330.198,5365630.4147],[333326.6622,5365581.799],[333311.0466,5365529.3527],[333298.6717,5365502.8348],[333280.1097,5365469.5405],[333248.8783,5365434.1832],[333196.3337,5365398.7851],[333034.3835,5365326.9326],[332998.6861,5365301.4142],[332970.4474,5365271.8344],[332945.5762,5365235.288],[332930.3773,5365198.4683],[332920.0111,5365160.6656],[332899.2642,5364532.833],[332881.0819,5363945.5012],[332506.6611,5363918.7134],[332054.8448,5363887.5843],[331720.5987,5363868.0311],[331595.871,5363858.9598],[331435.6737,5363851.7809],[331298.5035,5363845.6337],[331178.3733,5363840.2503],[331057.0343,5363834.8126],[331000.3205,5363832.5825],[330902.3874,5363835.1597],[330834.1833,5363846.8267],[330753.0737,5363872.9982],[330744.4148,5363875.8949],[330734.0184,5363879.3724],[330721.2804,5363883.6336],[330721.2822,5363883.6385],[330737.0057,5363925.3652],[330749.3714,5363962.5964],[330775.5797,5364064.4692],[330791.2086,5364163.531],[330956.6099,5365091.5445],[331007.5664,5365406.7382],[331128.2627,5366057.606],[331171.6214,5366269.3882],[331210.3267,5366389.3087],[331278.348,5366505.1342],[331403.9557,5366666.3275],[331719.0215,5367026.3948],[332567.9295,5368051.1259],[332743.7764,5368200.8123],[333370.7669,5368617.4141],[333645.0103,5368807.9144],[333944.3679,5369034.0065],[334143.2438,5369204.6234],[334327.4667,5369351.1657],[334575.5292,5369528.053],[334575.5389,5369528.0599],[334575.542,5369528.053],[334575.5947,5369527.925],[334575.6516,5369527.7877],[334575.7163,5369527.6313],[334575.7767,5369527.4846],[334575.8254,5369527.3676],[334575.8853,5369527.223],[334575.9291,5369527.1168],[334575.9867,5369526.9772],[334576.0466,5369526.8326],[334576.1057,5369526.6898],[334576.1618,5369526.5543],[334576.1984,5369526.4658],[334576.246,5369526.3508],[334576.2808,5369526.2663],[334576.3422,5369526.1179],[334576.4124,5369525.9484],[334576.4626,5369525.8265],[334576.5222,5369525.6824],[334576.5742,5369525.5572],[334576.6474,5369525.3801],[334576.7152,5369525.2162],[334576.7733,5369525.0752],[334576.8463,5369524.899],[334576.917,5369524.728],[334576.9653,5369524.611],[334577.0578,5369524.3881],[334577.1269,5369524.2209],[334577.2861,5369523.8356],[334577.4791,5369523.3694],[334577.6832,5369522.8756],[334577.9077,5369522.3329],[334578.134,5369521.7858],[334578.3272,5369521.3183],[334578.5681,5369520.7365],[334578.691,5369520.439],[334578.8641,5369520.0204],[334579.0079,5369519.673],[334579.1858,5369519.2424],[334579.4808,5369518.5297],[334579.6966,5369518.0077],[334580.0122,5369517.2451],[334580.3309,5369516.4746],[334580.581,5369515.8696],[334580.7346,5369515.4982],[334580.9663,5369514.938],[334581.4284,5369513.8209],[334582.342,5369511.6118],[334583.2708,5369509.3662],[334583.6781,5369508.3813],[334584.1939,5369507.1344],[334585.0873,5369504.9742],[334586.9845,5369500.3872],[334588.4982,5369496.7274],[334589.5027,5369494.2985],[334590.2899,5369492.3956],[334591.2965,5369489.9621],[334592.3087,5369487.5147],[334592.8517,5369486.202],[334589.5416,5369484.0557],[334588.5276,5369483.3983],[334587.1358,5369482.4957],[334584.7478,5369480.9436],[334582.3164,5369479.3549],[334579.8532,5369477.7424],[334577.5556,5369476.2354],[334576.0424,5369475.2416],[334573.6606,5369473.6752],[334571.2993,5369472.1195],[334569.2807,5369470.787],[334566.9166,5369469.2242],[334564.6664,5369467.7338],[334557.3966,5369462.9021],[334554.6832,5369461.092],[334551.3286,5369458.8487],[334546.3428,5369455.5044],[334542.3547,5369452.82],[334539.1258,5369450.641],[334536.4442,5369448.827],[334534.0813,5369447.2258],[334529.0615,5369443.8144],[334523.6177,5369440.1002],[334522.5274,5369439.3544],[334519.8755,5369437.5231],[334516.0215,5369434.862],[334512.7495,5369432.6026],[334510.4128,5369430.989],[334507.9864,5369429.3135],[334505.1008,5369427.3209],[334502.5145,5369425.535],[334500.5733,5369424.1944],[334498.4953,5369422.7595],[334495.4203,5369420.636],[334492.9141,5369418.9055],[334490.3787,5369417.1548],[334488.3268,5369415.7163],[334485.6878,5369413.8662]]]},"properties":{"OBJECTID":39,"WARD_NAME":"RED RIVER","WARD_NO":"200"}},{"type":"Feature","id":40,"geometry":{"type":"Polygon","coordinates":[[[332881.0819,5363945.5012],[332869.2644,5363514.6727],[332832.0488,5362223.2794],[332830.5883,5362073.3117],[332871.4721,5362047.9368],[332866.3791,5362039.6304],[332807.1383,5361942.2719],[332798.3721,5361927.8657],[332779.8908,5361897.4924],[332768.7487,5361879.1809],[332593.872,5361591.7831],[332529.907,5361486.6609],[332519.6652,5361469.829],[332519.6621,5361469.8237],[332511.4014,5361455.7095],[332470.7553,5361388.8658],[332453.0204,5361359.7],[332415.0163,5361297.2016],[332402.9993,5361277.4402],[332373.194,5361228.3937],[332360.6265,5361207.7061],[332324.2983,5361148.1882],[332306.7311,5361119.3376],[332301.2927,5361109.4347],[331289.0726,5361133.3603],[330762.5231,5361150.1577],[330480,5361159.171],[329651.4746,5361181.3921],[329657.8807,5361432.7341],[329681.7337,5362227.6123],[329697.6929,5362357.5712],[329730.7821,5362494.9745],[329773.133,5362622.5597],[329841.9644,5362755.5485],[329910.7978,5362862.0376],[329978.5934,5362941.2262],[329988.4722,5362957.7776],[330325.4081,5363346.4047],[330545.8547,5363604.7067],[330610.3254,5363674.8728],[330666.0342,5363767.1781],[330693.1478,5363819.7608],[330710.0935,5363856.8424],[330721.2804,5363883.6336],[330734.0184,5363879.3724],[330744.4148,5363875.8949],[330753.0737,5363872.9982],[330834.1833,5363846.8267],[330902.3874,5363835.1597],[331000.3205,5363832.5825],[331057.0343,5363834.8126],[331178.3733,5363840.2503],[331298.5035,5363845.6337],[331435.6737,5363851.7809],[331595.871,5363858.9598],[331720.5987,5363868.0311],[332054.8448,5363887.5843],[332506.6611,5363918.7134],[332881.0819,5363945.5012]]]},"properties":{"OBJECTID":40,"WARD_NAME":"NORTHWOOD","WARD_NO":"500"}},{"type":"Feature","id":41,"geometry":{"type":"Polygon","coordinates":[[[335165.7021,5367274.6732],[335338.5436,5367235.0322],[335389.9342,5367240.3145],[335473.0366,5367212.8523],[335509.7694,5367260.8992],[335570.1764,5367171.5068],[335704.0183,5367076.7477],[335798.007,5367020.1814],[335997.1845,5366918.6022],[337090.1541,5366153.4673],[337090.2295,5363005.1395],[337085.1273,5362687.4191],[336370.4791,5362434.925],[335650.6643,5362195.6278],[335270.7472,5362069.6206],[334684.9255,5361786.5308],[334369.5002,5361532.2151],[334076.4427,5361257.2747],[333956.0131,5361064.5766],[332301.2927,5361109.4347],[332306.7311,5361119.3376],[332324.2983,5361148.1882],[332360.6265,5361207.7061],[332373.194,5361228.3937],[332402.9993,5361277.4402],[332415.0163,5361297.2016],[332453.0204,5361359.7],[332470.7553,5361388.8658],[332511.4014,5361455.7095],[332519.6621,5361469.8237],[332519.6652,5361469.829],[332529.907,5361486.6609],[332593.872,5361591.7831],[332768.7487,5361879.1809],[332779.8908,5361897.4924],[332798.3721,5361927.8657],[332807.1383,5361942.2719],[332866.3791,5362039.6304],[332871.4721,5362047.9368],[332830.5883,5362073.3117],[332832.0488,5362223.2794],[332869.2644,5363514.6727],[332881.0819,5363945.5012],[332899.2642,5364532.833],[332920.0111,5365160.6656],[332930.3773,5365198.4683],[332945.5762,5365235.288],[332970.4474,5365271.8344],[332998.6861,5365301.4142],[333034.3835,5365326.9326],[333196.3337,5365398.7851],[333248.8783,5365434.1832],[333280.1097,5365469.5405],[333298.6717,5365502.8348],[333311.0466,5365529.3527],[333326.6622,5365581.799],[333330.198,5365630.4147],[333344.9304,5366057.6429],[333350.5289,5366144.2653],[333368.605,5366806.7346],[333349.2249,5366859.114],[333342.416,5366902.5888],[333348.692,5366930.0329],[333357.3037,5366952.4841],[333637.287,5366825.4919],[333682.5025,5366811.8169],[334431.9392,5366474.9483],[334497.3328,5366629.532],[334657.6222,5366993.1171],[334771.5412,5367246.6984],[334832.8684,5367201.1294],[334882.2519,5367269.5681],[335042.5353,5367153.0336],[335069.3732,5367190.531],[335095.2175,5367205.816],[335113.9567,5367213.9078],[335124.5471,5367218.0104],[335149.5175,5367250.4541],[335165.7021,5367274.6732]]]},"properties":{"OBJECTID":41,"WARD_NAME":"MCKELLAR","WARD_NO":"300"}},{"type":"Feature","id":42,"geometry":{"type":"Polygon","coordinates":[[[338806.2096,5373960.3932],[338805.4801,5373920.2457],[338803.3657,5373803.917],[338801.0616,5373677.1515],[338799.91,5373613.7688],[338798.2927,5373524.7893],[338797.1405,5373461.4068],[338795.9889,5373398.0238],[338778.9577,5372919.1141],[338775.3338,5372812.611],[338758.5213,5372318.5577],[338755.4985,5372229.6826],[338773.9254,5372228.9459],[338822.8355,5372226.9903],[338962.5832,5372221.4028],[338982.6827,5372220.5993],[339108.3704,5372215.5739],[339174.5406,5372212.9283],[339194.6401,5372212.1244],[339387.5633,5372204.4112],[339402.7904,5372203.8025],[339403.7981,5372234.1719],[339404.9781,5372269.7334],[339407.532,5372346.672],[339420.9135,5372749.8797],[340213.3792,5372734.8716],[340212.1684,5373739.331],[341019.6631,5373736.3854],[341027.1397,5373062.28],[341028.6218,5372930.005],[341030.9831,5372717.1351],[341019.3384,5372118.6643],[341018.6085,5372081.1432],[341016.9082,5371989.5034],[341015.2818,5371878.8312],[341014.5042,5371839.8069],[341013.0031,5371760.5746],[341009.7336,5371592.8176],[341009.5275,5371582.2771],[341009.0799,5371559.3444],[341007.3284,5371469.6385],[341005.9955,5371401.3845],[341000.2177,5371105.4173],[340792.8997,5370868.4587],[340753.4491,5370823.3673],[340269.6347,5370270.3811],[340118.3749,5370097.497],[341937.6898,5369406.6614],[339941.2518,5368066.4108],[339007.8369,5368063.7987],[337090.1541,5366153.4673],[335997.1845,5366918.6022],[335798.007,5367020.1814],[335704.0183,5367076.7477],[335570.1764,5367171.5068],[335509.7694,5367260.8992],[335581.7748,5367360.1703],[335854.9642,5367736.8093],[335856.641,5367739.1212],[335842.8023,5367747.996],[335837.8384,5367771.3116],[335831.9723,5367784.6996],[335826.7883,5367789.6499],[335824.0531,5367795.961],[335815.3735,5367815.9879],[335815.2941,5367826.9552],[335816.0236,5367835.4319],[335816.2541,5367838.1099],[335818.5866,5367885.1838],[335821.5953,5367894.6607],[335823.7014,5367899.6248],[335822.1974,5367909.4025],[335817.9858,5367922.64],[335815.7472,5367929.4302],[335807.4565,5367940.0892],[335793.7681,5367945.8053],[335783.8408,5367970.3247],[335773.7625,5367980.1023],[335760.9227,5368000.8746],[335759.9223,5368004.3345],[335766.0917,5368014.5497],[335773.6129,5368017.1074],[335773.6257,5368017.108],[335793.7567,5368018.3098],[335793.7695,5368018.3103],[335809.1127,5368024.6287],[335828.8188,5368053.0593],[335844.4615,5368057.6515],[335851.9847,5368070.7801],[335851.8376,5368088.6292],[335825.1389,5368118.4264],[335798.7355,5368160.3196],[335793.1996,5368162.1182],[335786.296,5368167.5121],[335781.2876,5368190.6468],[335780.8147,5368199.3421],[335785.0655,5368213.7974],[335792.3445,5368225.5282],[335794.9619,5368230.5535],[335799.7294,5368232.0548],[335799.7363,5368232.0568],[335799.7419,5368232.0548],[335812.9924,5368226.9313],[335812.9986,5368226.9287],[335813.005,5368226.9313],[335824.4043,5368231.2611],[335830.505,5368234.9747],[335832.627,5368237.0967],[335834.8376,5368240.8989],[335831.6548,5368250.0941],[335828.002,5368253.812],[335826.8217,5368257.3118],[335827.4913,5368263.6818],[335829.4449,5368271.4911],[335835.0971,5368273.8758],[335835.1035,5368273.8784],[335835.1099,5368273.8758],[335847.1281,5368268.9275],[335847.1409,5368268.9277],[335851.7127,5368269.1036],[335851.7255,5368269.1039],[335855.2624,5368271.5797],[335860.5674,5368284.1351],[335860.8328,5368290.1475],[335856.9428,5368295.7178],[335848.1015,5368310.8371],[335846.068,5368320.3861],[335837.0499,5368340.9871],[335839.7746,5368347.0733],[335843.6816,5368358.0517],[335850.5781,5368369.7228],[335852.2424,5368374.1747],[335852.0718,5368381.1648],[335848.6362,5368386.8715],[335848.6334,5368386.8759],[335848.6234,5368386.8715],[335843.6821,5368384.6652],[335836.9627,5368382.1896],[335836.9501,5368382.1899],[335831.7585,5368382.2777],[335831.7459,5368382.2779],[335815.0354,5368392.711],[335811.3108,5368399.0104],[335810.8104,5368405.0003],[335811.3098,5368412.8705],[335812.999,5368421.6106],[335817.6002,5368430.3766],[335823.0822,5368433.3829],[335860.394,5368442.4903],[335869.4067,5368445.2069],[335892.224,5368459.1133],[335901.4047,5368465.0603],[335908.8462,5368471.2262],[335908.8585,5368471.2254],[335918.6481,5368470.3439],[335918.6606,5368470.3429],[335925.6454,5368465.3914],[335928.8283,5368456.9915],[335940.4104,5368434.6223],[335946.5373,5368426.1153],[335946.776,5368420.2103],[335944.8586,5368410.1349],[335946.3789,5368406.265],[335950.666,5368402.6152],[335956.8516,5368398.2853],[335956.8549,5368398.283],[335956.8644,5368398.2853],[335961.0988,5368399.3439],[335965.0779,5368404.03],[336003.8935,5368449.3887],[336009.1988,5368461.6789],[336013.7315,5368494.6626],[336011.2331,5368501.3783],[336000.7601,5368517.3915],[335990.9876,5368549.7204],[335988.1582,5368570.255],[335987.6279,5368584.4019],[335986.9207,5368592.5363],[335985.4179,5368598.9022],[335977.2132,5368611.259],[335928.213,5368630.2011],[335925.8259,5368636.2135],[335932.4906,5368649.8041],[335936.6132,5368659.6444],[335956.419,5368684.2246],[335988.7798,5368707.9208],[336000.0972,5368718.5308],[336003.8991,5368730.0249],[336005.2825,5368740.0221],[336003.201,5368756.2117],[335991.6092,5368768.8396],[335991.6471,5368775.6699],[335991.7572,5368795.5302],[335988.1612,5368801.8187],[335982.9478,5368803.2322],[335982.9445,5368803.233],[335982.9353,5368803.232],[335982.9319,5368803.232],[335975.7955,5368802.5271],[335975.7827,5368802.5261],[335965.6149,5368799.8733],[335935.3789,5368784.6669],[335935.3764,5368784.6653],[335935.3664,5368784.6669],[335930.8672,5368785.284],[335925.1201,5368788.0249],[335904.3968,5368807.0803],[335898.4185,5368813.1348],[335887.7254,5368816.7578],[335887.7201,5368816.7596],[335887.7126,5368816.7578],[335861.4602,5368810.3933],[335858.454,5368806.4146],[335856.5581,5368796.2849],[335864.1125,5368762.2066],[335864.378,5368757.432],[335863.14,5368754.0723],[335858.9843,5368748.6786],[335842.0969,5368739.5715],[335838.3045,5368738.6015],[335838.295,5368738.5989],[335838.292,5368738.6015],[335823.9714,5368749.6509],[335815.8435,5368751.3294],[335815.8371,5368751.3306],[335815.8307,5368751.3294],[335804.7851,5368749.0316],[335798.5142,5368747.0002],[335798.5075,5368746.9979],[335798.5014,5368747.0002],[335784.5377,5368752.0378],[335784.5252,5368752.0385],[335768.3704,5368753.3626],[335768.3576,5368753.3633],[335767.1212,5368770.8352],[335750.8513,5368793.6812],[335753.9458,5368811.895],[335748.1104,5368815.1663],[335732.549,5368817.9954],[335716.1562,5368825.5691],[335711.8618,5368829.0452],[335711.8595,5368829.047],[335711.849,5368829.0452],[335707.1735,5368828.2513],[335697.5415,5368824.1862],[335697.5361,5368824.1839],[335697.5287,5368824.1862],[335674.8132,5368831.1685],[335664.0263,5368838.5953],[335661.0201,5368846.4644],[335662.0728,5368866.4228],[335657.3069,5368871.3978],[335642.1877,5368874.3152],[335638.9027,5368877.9624],[335629.8978,5368908.7091],[335627.4221,5368909.9469],[335600.8974,5368915.6937],[335598.8637,5368917.9039],[335594.467,5368931.9448],[335568.2719,5368965.7368],[335567.1225,5368996.6826],[335571.5795,5369015.9818],[335576.2295,5369021.2629],[335576.2423,5369021.2637],[335611.8494,5369024.1794],[335611.8616,5369024.1804],[335620.7913,5369014.3666],[335625.0353,5369012.7751],[335625.0481,5369012.7751],[335631.8305,5369012.7752],[335631.8433,5369012.7752],[335635.6454,5369014.632],[335638.6513,5369019.4067],[335636.2642,5369036.3824],[335639.8008,5369040.3614],[335645.1945,5369043.456],[335673.3108,5369053.3589],[335678.7927,5369058.3988],[335681.2682,5369063.0849],[335682.0706,5369078.1885],[335682.0578,5369078.188],[335651.6245,5369076.5126],[335651.6117,5369076.5118],[335651.5991,5369076.5106],[335455.4592,5369055.6703],[335455.4464,5369055.6692],[335466.6091,5369494.0336],[335466.5963,5369494.0338],[335262.9753,5369495.2202],[335262.9627,5369495.2205],[335262.753,5369406.0038],[335262.7402,5369406.0041],[334861.7517,5369411.5015],[334861.7392,5369411.5018],[334861.5984,5369403.4468],[334861.5628,5369401.0763],[334861.4957,5369399.1515],[334861.3583,5369396.5987],[334861.0508,5369391.6083],[334860.5806,5369387.9503],[334860.3097,5369386.2626],[334860.1142,5369385.2608],[334859.9119,5369383.9729],[334859.7629,5369383.3022],[334859.5819,5369382.5821],[334859.127,5369380.5121],[334858.1445,5369376.8027],[334857.0266,5369373.2231],[334855.8454,5369369.9321],[334855.604,5369369.3236],[334855.3345,5369368.6442],[334854.9285,5369367.6199],[334854.4456,5369366.4024],[334854.4328,5369366.4027],[334843.5491,5369366.4936],[334843.5363,5369366.4939],[334843.5235,5369366.4939],[334807.8403,5369366.6379],[334807.8275,5369366.6379],[334807.8147,5369366.6381],[334789.5536,5369366.7118],[334789.5411,5369366.7118],[334789.5283,5369366.7118],[334789.5006,5369366.712],[334789.4881,5369366.712],[334789.4753,5369366.712],[334789.42,5369366.7123],[334789.4072,5369366.7123],[334789.3946,5369366.7125],[334771.2677,5369366.7854],[334771.2549,5369366.7854],[334771.2421,5369366.7857],[334753.0095,5369366.8591],[334752.9967,5369366.8593],[334752.9841,5369366.8593],[334752.9808,5369366.8593],[334752.9682,5369366.8593],[334752.9554,5369366.8596],[334752.928,5369366.8596],[334752.9152,5369366.8596],[334752.9027,5369366.8598],[334734.6949,5369366.9327],[334734.6821,5369366.9327],[334734.6693,5369366.933],[334734.6419,5369366.933],[334734.6291,5369366.9332],[334734.6163,5369366.9332],[334716.4087,5369367.0066],[334716.3959,5369367.0069],[334716.3831,5369367.0069],[334716.3557,5369367.0071],[334716.3429,5369367.0071],[334716.3301,5369367.0071],[334698.0693,5369367.0808],[334698.0565,5369367.0808],[334698.0437,5369367.0808],[334679.8359,5369367.1541],[334679.8234,5369367.1544],[334679.8464,5369371.5975],[334679.8766,5369377.4138],[334679.936,5369388.7993],[334679.9534,5369392.1695],[334679.9539,5369394.2214],[334679.9652,5369395.8874],[334679.9739,5369397.1802],[334679.9862,5369398.9896],[334679.9977,5369400.6789],[334679.9849,5369400.6792],[334662.5305,5369400.748],[334577.4149,5369401.0845],[334577.4021,5369401.0847],[334577.388,5369401.1797],[334577.3663,5369401.3259],[334577.3471,5369401.4554],[334577.3261,5369401.5978],[334577.3036,5369401.7501],[334577.2849,5369401.8768],[334577.2688,5369401.9856],[334577.2549,5369402.0775],[334577.2419,5369402.1656],[334577.226,5369402.2731],[334577.2101,5369402.3793],[334577.1981,5369402.461],[334577.1848,5369402.5521],[334577.1684,5369402.6617],[334577.1497,5369402.7884],[334577.1326,5369402.9049],[334577.1172,5369403.0073],[334577.1044,5369403.0938],[334577.0883,5369403.2039],[334577.0617,5369403.3831],[334577.0371,5369403.549],[334577.0217,5369403.6516],[334576.9956,5369403.8285],[334576.9733,5369403.9791],[334576.9516,5369404.126],[334576.9229,5369404.3193],[334576.8945,5369404.5108],[334576.8794,5369404.6119],[334576.854,5369404.7842],[334576.8228,5369404.9941],[334576.797,5369405.1682],[334576.7555,5369405.4493],[334576.7207,5369405.6845],[334576.6876,5369405.9073],[334576.6592,5369406.099],[334576.637,5369406.249],[334576.5988,5369406.5068],[334576.5609,5369406.762],[334576.5207,5369407.0339],[334576.4875,5369407.2569],[334576.456,5369407.4706],[334576.4219,5369407.7],[334576.3602,5369408.1163],[334576.2952,5369408.5545],[334576.2435,5369408.9048],[334576.2233,5369409.0415],[334576.2018,5369409.1861],[334576.1503,5369409.5325],[334576.0126,5369410.462],[334575.9844,5369410.6525],[334575.9496,5369410.8875],[334575.9381,5369410.9648],[334575.9284,5369411.0308],[334575.9199,5369411.0884],[334575.9107,5369411.1496],[334575.9092,5369411.1606],[334528.9854,5369411.3687],[334528.9726,5369411.3687],[334528.9598,5369411.369],[334517.2428,5369411.4211],[334517.23,5369411.4211],[334517.2172,5369411.4213],[334510.6984,5369411.4501],[334510.6859,5369411.4501],[334510.6731,5369411.4503],[334482.5275,5369411.5748],[334482.5147,5369411.5751],[334482.5021,5369411.5751],[334482.433,5369411.5753],[334482.4202,5369411.5753],[334485.6878,5369413.8662],[334488.3268,5369415.7163],[334490.3787,5369417.1548],[334492.9141,5369418.9055],[334495.4203,5369420.636],[334498.4953,5369422.7595],[334500.5733,5369424.1944],[334502.5145,5369425.535],[334505.1008,5369427.3209],[334507.9864,5369429.3135],[334510.4128,5369430.989],[334512.7495,5369432.6026],[334516.0215,5369434.862],[334519.8755,5369437.5231],[334522.5274,5369439.3544],[334523.6177,5369440.1002],[334529.0615,5369443.8144],[334534.0813,5369447.2258],[334536.4442,5369448.827],[334539.1258,5369450.641],[334542.3547,5369452.82],[334546.3428,5369455.5044],[334551.3286,5369458.8487],[334554.6832,5369461.092],[334557.3966,5369462.9021],[334564.6664,5369467.7338],[334566.9166,5369469.2242],[334569.2807,5369470.787],[334571.2993,5369472.1195],[334573.6606,5369473.6752],[334576.0424,5369475.2416],[334577.5556,5369476.2354],[334579.8532,5369477.7424],[334582.3164,5369479.3549],[334584.7478,5369480.9436],[334587.1358,5369482.4957],[334588.5276,5369483.3983],[334589.5416,5369484.0557],[334592.8517,5369486.202],[334592.3087,5369487.5147],[334591.2965,5369489.9621],[334590.2899,5369492.3956],[334589.5027,5369494.2985],[334588.4982,5369496.7274],[334586.9845,5369500.3872],[334585.0873,5369504.9742],[334584.1939,5369507.1344],[334583.6781,5369508.3813],[334583.2708,5369509.3662],[334582.342,5369511.6118],[334581.4284,5369513.8209],[334580.9663,5369514.938],[334580.7346,5369515.4982],[334580.581,5369515.8696],[334580.3309,5369516.4746],[334580.0122,5369517.2451],[334579.6966,5369518.0077],[334579.4808,5369518.5297],[334579.1858,5369519.2424],[334579.0079,5369519.673],[334578.8641,5369520.0204],[334578.691,5369520.439],[334578.5681,5369520.7365],[334578.3272,5369521.3183],[334578.134,5369521.7858],[334577.9077,5369522.3329],[334577.6832,5369522.8756],[334577.4791,5369523.3694],[334577.2861,5369523.8356],[334577.1269,5369524.2209],[334577.0578,5369524.3881],[334576.9653,5369524.611],[334576.917,5369524.728],[334576.8463,5369524.899],[334576.7733,5369525.0752],[334576.7152,5369525.2162],[334576.6474,5369525.3801],[334576.5742,5369525.5572],[334576.5222,5369525.6824],[334576.4626,5369525.8265],[334576.4124,5369525.9484],[334576.3422,5369526.1179],[334576.2808,5369526.2663],[334576.246,5369526.3508],[334576.1984,5369526.4658],[334576.1618,5369526.5543],[334576.1057,5369526.6898],[334576.0466,5369526.8326],[334575.9867,5369526.9772],[334575.9291,5369527.1168],[334575.8853,5369527.223],[334575.8254,5369527.3676],[334575.7767,5369527.4846],[334575.7163,5369527.6313],[334575.6516,5369527.7877],[334575.5947,5369527.925],[334575.542,5369528.053],[334575.5389,5369528.0599],[334779.648,5369653.6627],[335024.5814,5369782.4126],[335293.5904,5369927.9133],[335682.9711,5370141.4467],[335918.4847,5370303.6851],[336082.8219,5370441.8482],[336584.1973,5370880.4335],[337138.9552,5371358.7889],[337791.0587,5371918.7894],[337930.2722,5372041.2565],[338055.8782,5372136.5088],[338165.7831,5372203.4983],[338314.9696,5372259.8511],[338326.7671,5372394.0619],[338422.618,5372493.4204],[338523.1063,5372505.7894],[338573.5719,5372559.3142],[338575.7372,5372622.9443],[338545.5632,5372807.2117],[338485.2359,5372894.3263],[338448.8426,5372929.0129],[338324.0347,5373006.1014],[338269.9489,5373063.9163],[338169.0643,5373096.2968],[338126.4237,5373094.7428],[337897.6257,5373073.1412],[337717.7062,5373079.2845],[337669.8639,5373104.73],[337594.9833,5373113.9729],[337492.0289,5373166.3934],[337408.828,5373183.3456],[337119.7109,5373174.839],[337053.1526,5373161.7229],[336975.1571,5373119.3155],[336910.6784,5373111.5997],[336760.922,5373084.5955],[336725.5614,5373091.5321],[336714.1208,5373099.2411],[336689.1564,5373146.2687],[336669.3941,5373169.3971],[336639.2328,5373184.8143],[336521.7175,5373243.3931],[336369.8681,5373348.2389],[336306.4218,5373415.3128],[336276.2558,5373476.9799],[336271.0529,5373507.0494],[336283.5215,5373622.7007],[336282.4796,5373642.7506],[336315.7545,5373694.4036],[336344.8639,5373801.5764],[336336.5416,5373826.2456],[336290.7765,5373877.9014],[336240.8533,5373913.3565],[336185.7304,5373941.882],[336117.089,5373959.6063],[336095.2489,5373959.6042],[336083.8094,5373954.9833],[336066.1306,5373943.4118],[336039.0937,5373913.3395],[336017.2549,5373899.4676],[335962.1362,5373887.893],[335918.4563,5373889.4292],[335878.9348,5373904.8458],[335853.9733,5373921.8039],[335833.171,5373943.3922],[335816.5277,5373979.6308],[335562.2684,5374589.5432],[335555.6759,5374615.8228],[335555.6744,5374631.7126],[335562.2632,5374642.7127],[335599.3604,5374668.3844],[335605.9585,5374686.7246],[335606.7756,5374716.6744],[335605.1371,5374762.6477],[335616.3147,5374823.7515],[335599.9208,5374862.0046],[335622.5244,5374881.1298],[335628.9824,5374909.6946],[335597.2936,5374941.484],[335591.901,5375069.3316],[335596.1944,5375225.8985],[335630.2241,5375249.9918],[335629.4788,5375304.8868],[335637.2235,5375348.0441],[335594.6188,5375425.6207],[335595.3758,5375564.2134],[335562.0527,5375717.9537],[335546.4917,5375775.2671],[335491.9929,5375873.6557],[335467.1131,5375881.555],[335457.3552,5375894.621],[335452.0777,5375911.2666],[336066.5358,5375890.1937],[336872.8547,5375863.5962],[337677.8057,5375835.8313],[338858.4905,5375795.1085],[338836.9384,5375193.8337],[338833.5202,5375098.4817],[338829.642,5374990.2706],[338826.8893,5374913.4739],[338820.8046,5374743.6959],[338820.0838,5374723.5849],[338818.4437,5374633.3864],[338817.779,5374596.8192],[338814.3238,5374406.7894],[338813.1976,5374344.8419],[338809.1018,5374119.5289],[338806.8741,5373996.96],[338806.2096,5373960.3932]]]},"properties":{"OBJECTID":42,"WARD_NAME":"CURRENT RIVER","WARD_NO":"100"}}]}