{"type":"FeatureCollection","crs":{"type":"name","properties":{"name":"EPSG:3857"}},"features":[{"type":"Feature","id":1,"geometry":{"type":"Polygon","coordinates":[[[-8820153.21329776,5330318.69949462],[-8820139.45898466,5330353.68244544],[-8820099.58046618,5330443.8495914],[-8820096.1111023,5330454.73114962],[-8820068.84778781,5330516.3753949],[-8820027.18461261,5330589.66650724],[-8819969.71022283,5330684.50007129],[-8819941.87094224,5330726.05734898],[-8819890.02680708,5330794.83471726],[-8819846.35719199,5330847.89794367],[-8819796.44589958,5330898.30492427],[-8819735.442693,5330961.12052533],[-8819661.77465375,5331032.03506611],[-8819712.73955425,5332119.8990378],[-8819683.50028892,5332112.74463723],[-8819629.02804012,5332102.03291467],[-8819603.21767762,5332101.4850225],[-8819577.33414293,5332104.40192842],[-8819552.58741383,5332107.8950692],[-8819538.13533213,5332110.71712049],[-8819554.00188829,5332554.24098693],[-8819554.30464159,5332716.28717859],[-8819565.81678337,5333136.93690782],[-8819577.1800807,5333597.68673838],[-8819575.55116243,5333784.6705555],[-8818942.52680421,5333648.44869283],[-8818948.73396604,5333663.68035785],[-8818964.98886742,5333703.32685813],[-8819004.36725341,5333786.04690681],[-8819042.13869702,5333860.96525685],[-8819103.02808348,5333977.07035127],[-8819152.23484279,5334075.97882544],[-8819177.75047571,5334134.66177929],[-8819211.38328119,5334222.2278731],[-8819272.98269075,5334420.01540295],[-8819431.7865772,5334952.17855519],[-8819478.76911617,5335114.96404407],[-8819499.09826367,5335178.64664697],[-8819520.83313639,5335233.12247713],[-8819545.86641086,5335283.36688426],[-8819576.70069735,5335331.29513798],[-8819613.54118644,5335377.57460765],[-8819657.86075934,5335425.78820632],[-8819708.35658956,5335469.11316436],[-8819848.51406279,5335555.53623509],[-8820116.94554949,5335709.79145499],[-8820185.13215796,5335748.52366294],[-8820219.10320971,5335773.65696488],[-8820261.29836544,5335807.39817696],[-8820303.34943938,5335848.01745896],[-8820387.02555502,5335939.01192441],[-8820437.33670166,5335986.46307755],[-8820470.75094143,5336011.43948991],[-8820477.80238624,5336014.77764949],[-8820515.12354872,5336031.77914796],[-8820522.64108722,5336035.11160682],[-8820568.98912688,5336051.70051005],[-8820605.73003148,5336060.91092997],[-8820642.76250541,5336066.79937539],[-8820687.1243682,5336071.06588487],[-8820743.54795942,5336069.81514353],[-8820797.40545527,5336064.29365461],[-8820849.84065687,5336052.74886631],[-8820898.82767946,5336036.9146825],[-8820905.34399552,5336034.20402808],[-8820911.22711234,5336031.75827019],[-8820930.93495885,5336023.56256885],[-8820932.79944126,5336038.97557622],[-8820938.75120644,5336092.76064725],[-8820946.67455035,5336202.62638749],[-8820956.74580133,5336406.37278827],[-8820964.59175192,5336531.50893247],[-8820965.34962004,5336667.20839283],[-8820986.32948089,5337200.95077275],[-8820987.97011687,5337237.95474444],[-8820845.1667822,5337307.86763053],[-8820576.65614342,5337435.2814118],[-8820322.33949717,5337557.8023725],[-8820100.9327735,5337667.40243896],[-8819859.32066677,5337783.70627829],[-8819395.78355837,5338001.56998237],[-8819250.77279201,5338072.95180246],[-8819171.19354687,5338107.60137916],[-8818873.52183257,5338011.35265951],[-8818733.23786013,5337964.70700662],[-8818585.36749892,5337913.98621861],[-8818334.37268275,5337830.90312517],[-8818017.20837404,5337725.23539219],[-8817723.64767302,5337627.59639397],[-8817614.75109046,5337590.76666357],[-8817588.1795476,5337582.34977125],[-8817549.6747468,5337569.99576985],[-8817519.97693275,5337563.26086207],[-8817482.13616651,5337552.9448549],[-8817439.49054726,5337541.80742343],[-8817399.93155102,5337532.72642989],[-8817276.75745242,5337606.653727],[-8817009.43686772,5337746.50174363],[-8816825.65539195,5337839.09395],[-8816474.95177363,5338005.09650103],[-8816188.38592959,5338139.73809866],[-8816018.11219999,5338204.1513422],[-8815971.12019186,5337538.13253143],[-8815802.9916082,5335880.52296543],[-8815763.78337761,5335449.53140022],[-8815636.39654099,5334174.31319779],[-8815513.5323448,5334186.85286628],[-8815489.50114938,5334188.08774301],[-8815360.7179514,5334249.07622135],[-8815272.17859421,5334293.66777069],[-8814788.02976065,5334533.22096416],[-8814549.21641129,5334649.82909645],[-8814214.9222266,5334818.20874185],[-8814144.0741748,5334852.75743368],[-8814101.45179741,5334872.9860788],[-8814101.35754578,5334848.71350567],[-8814100.51994341,5334807.79471915],[-8814100.34173321,5334805.40525697],[-8814095.69271072,5334635.47878373],[-8814096.42021145,5334602.03783081],[-8814095.30071198,5334554.52101055],[-8814091.4328799,5334435.9798003],[-8814087.53393165,5334318.24696168],[-8814081.95243002,5334183.78617083],[-8814079.35345255,5334049.0959304],[-8814076.4659354,5333924.50088586],[-8814073.72767319,5333795.7384008],[-8814064.67419107,5333326.52566871],[-8815580.62494308,5332590.57937122],[-8815757.97550692,5332507.11761005],[-8816037.5986408,5332375.51750972],[-8816417.02351263,5332196.93027562],[-8816870.42998081,5331983.4960366],[-8817480.93999779,5331673.32648034],[-8818386.01093984,5331199.52947222],[-8820153.21329776,5330318.69949462]]]},"properties":{"OBJECTID":1,"WARD":"MERRITTON","WARD_NUMBER":1,"COUNCILLOR_01":"Coun. Jackie Lindal","COUNCILLOR_01_EMAIL":"jlindal@stcatharines.ca","COUNCILLOR_01_PHONE":"905.327.0484","COUNCILLOR_02":"Coun. Greg Miller","COUNCILLOR_02_EMAIL":"gmiller@stcatharines.ca","COUNCILLOR_02_PHONE":"905.327.0442","OBJECTID0":1}},{"type":"Feature","id":2,"geometry":{"type":"Polygon","coordinates":[[[-8820930.93495885,5336023.56256885],[-8820911.22711234,5336031.75827019],[-8820905.34399552,5336034.20402808],[-8820898.82767946,5336036.9146825],[-8820849.84065687,5336052.74886631],[-8820797.40545527,5336064.29365461],[-8820743.54795942,5336069.81514353],[-8820687.1243682,5336071.06588487],[-8820642.76250541,5336066.79937539],[-8820605.73003148,5336060.91092997],[-8820568.98912688,5336051.70051005],[-8820522.64108722,5336035.11160682],[-8820515.12354872,5336031.77914796],[-8820477.80238624,5336014.77764949],[-8820470.75094143,5336011.43948991],[-8820437.33670166,5335986.46307755],[-8820387.02555502,5335939.01192441],[-8820303.34943938,5335848.01745896],[-8820261.29836544,5335807.39817696],[-8820219.10320971,5335773.65696488],[-8820185.13215796,5335748.52366294],[-8820116.94554949,5335709.79145499],[-8819848.51406279,5335555.53623509],[-8819708.35658956,5335469.11316436],[-8819657.86075934,5335425.78820632],[-8819613.54118644,5335377.57460765],[-8819576.70069735,5335331.29513798],[-8819545.86641086,5335283.36688426],[-8819520.83313639,5335233.12247713],[-8819499.09826367,5335178.64664697],[-8819478.76911617,5335114.96404407],[-8819431.7865772,5334952.17855519],[-8819272.98269075,5334420.01540295],[-8819211.38328119,5334222.2278731],[-8819177.75047571,5334134.66177929],[-8819152.23484279,5334075.97882544],[-8819103.02808348,5333977.07035127],[-8819042.13869702,5333860.96525685],[-8819004.36725341,5333786.04690681],[-8818964.98886742,5333703.32685813],[-8818948.73396604,5333663.68035785],[-8818942.52680421,5333648.44869283],[-8819575.55116243,5333784.6705555],[-8819577.1800807,5333597.68673838],[-8819565.81678337,5333136.93690782],[-8819554.30464159,5332716.28717859],[-8819554.00188829,5332554.24098693],[-8819538.13533213,5332110.71712049],[-8819552.58741383,5332107.8950692],[-8819577.33414293,5332104.40192842],[-8819603.21767762,5332101.4850225],[-8819629.02804012,5332102.03291467],[-8819683.50028892,5332112.74463723],[-8819712.73955425,5332119.8990378],[-8819661.77465375,5331032.03506611],[-8819735.442693,5330961.12052533],[-8819796.44589958,5330898.30492427],[-8819846.35719199,5330847.89794367],[-8819890.02680708,5330794.83471726],[-8819941.87094224,5330726.05734898],[-8819969.71022283,5330684.50007129],[-8820027.18461261,5330589.66650724],[-8820068.84778781,5330516.3753949],[-8820096.1111023,5330454.73114962],[-8820099.58046618,5330443.8495914],[-8820139.45898466,5330353.68244544],[-8820153.21329776,5330318.69949462],[-8821674.21459374,5329560.24365072],[-8822734.55288251,5329031.31435434],[-8823033.45812947,5328882.1832868],[-8824794.78544023,5328132.29868714],[-8824795.34605815,5328173.81653394],[-8824805.70176052,5328520.18432753],[-8825553.67151101,5328501.63623432],[-8825696.08454715,5328498.09784897],[-8828760.90888267,5328421.42051632],[-8828811.81027291,5329849.76148045],[-8828840.6566385,5330405.51927743],[-8828888.96943333,5330859.5303573],[-8828935.44683757,5333203.70979786],[-8828982.66224459,5333231.1852226],[-8829023.71606922,5333274.08013105],[-8829033.11032128,5333305.36267851],[-8829063.74239559,5333368.16471648],[-8829033.89191571,5333448.03251376],[-8829001.52983508,5333516.87885213],[-8828958.95398662,5333560.19540863],[-8828890.67076686,5333603.67230402],[-8828846.42449521,5333662.80326414],[-8828854.77368413,5333746.19080855],[-8828910.34998656,5333829.36500339],[-8829020.41370502,5333937.93002132],[-8829090.29364566,5334088.40870937],[-8829290.15496793,5334300.96127587],[-8829427.27246075,5334234.22499121],[-8829399.9795119,5334331.61899934],[-8829379.02424511,5334406.39201085],[-8829288.88238847,5334728.04263766],[-8829306.90854989,5334901.66487633],[-8829315.01566126,5334979.74618832],[-8829316.95501157,5334998.4144983],[-8829328.21418247,5335106.87509442],[-8829344.16595432,5335260.52445758],[-8829332.27772717,5335303.05069892],[-8829308.44820437,5335361.96928396],[-8829286.53855515,5335418.28742332],[-8829017.98914595,5335400.41075615],[-8828972.60317115,5335404.17260908],[-8828833.53874022,5335420.09281308],[-8828481.49377859,5335460.44760006],[-8828187.72593061,5335480.15469126],[-8828020.80766441,5335491.24694209],[-8827951.80855279,5335494.46230983],[-8827870.55582265,5335488.85077591],[-8827806.47161797,5335476.36107616],[-8827677.84581872,5335444.11382017],[-8827583.8629761,5335417.40421306],[-8827502.46606966,5335398.03881627],[-8827445.29675944,5335392.16269803],[-8827394.05157436,5335395.45974165],[-8827342.72692833,5335404.17104386],[-8827274.11824929,5335428.44049004],[-8827125.06259034,5335507.31588977],[-8827074.67650375,5335530.85161195],[-8827033.65956847,5335542.82535984],[-8826978.89178032,5335552.72263541],[-8826928.85657908,5335555.96509062],[-8826810.77784066,5335558.52110661],[-8826174.03487545,5335579.13452071],[-8824988.04879493,5335635.08076155],[-8824995.56670895,5335904.43986047],[-8824984.62317417,5335901.60161054],[-8824923.41099016,5335888.03021454],[-8824853.00989101,5335880.80493666],[-8824769.53326012,5335880.54816024],[-8824668.50830092,5335885.23443923],[-8823178.77329269,5335954.57690213],[-8823091.34508789,5335958.54571694],[-8822989.87677448,5335956.42821337],[-8822901.01896918,5335943.47537106],[-8822828.22851004,5335923.53325057],[-8822727.07233896,5335880.05270582],[-8822657.39639123,5335837.97843571],[-8822610.99283399,5335804.15996461],[-8822562.38763591,5335759.19795287],[-8822522.17941471,5335714.63310465],[-8822392.35612066,5335560.90964745],[-8822363.63907063,5335527.46123367],[-8822324.78859333,5335492.02411463],[-8822276.8910684,5335455.7317178],[-8822232.10336205,5335429.49319295],[-8822183.65689486,5335408.94753457],[-8822107.68267557,5335382.94025928],[-8821973.20890359,5335338.08924902],[-8821766.91078322,5335271.1729473],[-8821745.00143052,5335267.6305543],[-8821700.94298431,5335264.70960104],[-8821668.54376206,5335264.14023108],[-8821632.39339745,5335269.15159168],[-8821607.95345268,5335274.62910535],[-8821572.30370543,5335287.4184682],[-8821534.10120671,5335305.92379615],[-8821494.04381003,5335328.60602819],[-8821457.3417289,5335360.0148026],[-8821395.17062462,5335435.49800452],[-8821255.14059498,5335734.22392047],[-8821216.95743828,5335794.01083454],[-8821173.74081853,5335851.25097493],[-8821125.57601515,5335901.72862428],[-8821072.48725933,5335944.55547124],[-8821024.69573636,5335977.28478379],[-8820954.63864186,5336013.66187888],[-8820930.93495885,5336023.56256885]]]},"properties":{"OBJECTID":2,"WARD":"ST. ANDREW'S","WARD_NUMBER":2,"COUNCILLOR_01":"Coun. Matt Harris","COUNCILLOR_01_EMAIL":"mharris@stcatharines.ca","COUNCILLOR_01_PHONE":"905.329.6802","COUNCILLOR_02":"Coun. Joe Kushner","COUNCILLOR_02_EMAIL":"jkushner@stcatharines.ca","COUNCILLOR_02_PHONE":"905.327.9638","OBJECTID0":2}},{"type":"Feature","id":3,"geometry":{"type":"Polygon","coordinates":[[[-8820987.97011687,5337237.95474444],[-8820999.63622822,5337508.8839523],[-8821015.01576378,5337910.02962005],[-8821029.26099173,5338319.16474203],[-8821042.26026653,5338696.82640621],[-8821058.46612501,5339375.14677973],[-8821087.13244665,5340119.09820755],[-8820481.02355931,5340413.44379964],[-8819935.30488216,5340678.19879624],[-8819422.23040559,5340930.58934139],[-8819378.57034954,5340951.49158722],[-8819124.84766502,5341076.43280979],[-8818919.40188435,5341178.06410547],[-8818566.27967209,5341351.16916251],[-8818056.01882362,5341590.18920771],[-8817176.20921797,5342006.82700686],[-8817001.18363938,5342092.35945776],[-8816546.68187019,5342310.60488193],[-8816530.78422635,5341926.00740733],[-8816496.48932421,5340837.52919395],[-8816241.94017451,5340263.89309034],[-8816112.4568146,5339541.15764681],[-8816110.38829005,5339511.82285113],[-8816018.11219999,5338204.1513422],[-8816188.38592959,5338139.73809866],[-8816474.95177363,5338005.09650103],[-8816825.65539195,5337839.09395],[-8817009.43686772,5337746.50174363],[-8817276.75745242,5337606.653727],[-8817399.93155102,5337532.72642989],[-8817439.49054726,5337541.80742343],[-8817482.13616651,5337552.9448549],[-8817519.97693275,5337563.26086207],[-8817549.6747468,5337569.99576985],[-8817588.1795476,5337582.34977125],[-8817614.75109046,5337590.76666357],[-8817723.64767302,5337627.59639397],[-8818017.20837404,5337725.23539219],[-8818334.37268275,5337830.90312517],[-8818585.36749892,5337913.98621861],[-8818733.23786013,5337964.70700662],[-8818873.52183257,5338011.35265951],[-8819171.19354687,5338107.60137916],[-8819250.77279201,5338072.95180246],[-8819395.78355837,5338001.56998237],[-8819859.32066677,5337783.70627829],[-8820100.9327735,5337667.40243896],[-8820322.33949717,5337557.8023725],[-8820576.65614342,5337435.2814118],[-8820845.1667822,5337307.86763053],[-8820987.97011687,5337237.95474444]]]},"properties":{"OBJECTID":3,"WARD":"ST. GEORGE'S","WARD_NUMBER":3,"COUNCILLOR_01":"Coun. Mark Stevens","COUNCILLOR_01_EMAIL":"mstevens@stcatharines.ca","COUNCILLOR_01_PHONE":"289.696.3673","COUNCILLOR_02":"Coun. Kevin Townsend","COUNCILLOR_02_EMAIL":"ktownsend@stcatharines.ca","COUNCILLOR_02_PHONE":"905.327.0401","OBJECTID0":3}},{"type":"Feature","id":4,"geometry":{"type":"Polygon","coordinates":[[[-8821250.18037359,5344415.84786428],[-8821242.74326946,5344418.42704179],[-8821236.88816204,5344418.14721461],[-8821228.06376866,5344418.95827901],[-8821220.7779484,5344420.04521441],[-8821213.19494537,5344422.22202947],[-8821206.42175097,5344424.96743046],[-8821193.11066176,5344432.38867078],[-8821178.22569411,5344442.94000928],[-8821157.51987715,5344458.56188838],[-8821137.11221276,5344474.83095218],[-8821109.95885529,5344497.76570079],[-8821093.04157564,5344512.11135202],[-8821074.7716169,5344527.26742094],[-8821058.59382758,5344540.67965714],[-8821038.30172716,5344560.74297154],[-8821028.76373828,5344571.13336798],[-8821021.72429215,5344580.0622228],[-8821017.22658946,5344585.46876753],[-8821007.67839602,5344592.44665453],[-8821007.28618564,5344592.96239199],[-8820988.51392826,5344617.6377929],[-8820954.77132397,5344645.73265769],[-8820947.12691865,5344648.52555599],[-8820932.26132138,5344665.20860475],[-8820919.10020845,5344672.28070852],[-8820905.12994364,5344683.60077888],[-8820894.07114912,5344696.42787098],[-8820862.95105043,5344717.95139356],[-8820832.14953114,5344746.10824156],[-8820816.92371035,5344758.0605534],[-8820801.03471539,5344767.37183055],[-8820786.08619099,5344778.60651833],[-8820775.28044945,5344779.36155369],[-8820765.50602728,5344777.71216999],[-8820767.84774604,5344781.43673277],[-8820766.3270967,5344785.33961216],[-8820766.43141027,5344789.74034877],[-8820761.44584272,5344793.57274575],[-8820753.64626275,5344796.29347793],[-8820747.03966743,5344801.54265494],[-8820737.99522987,5344807.39223752],[-8820729.94427131,5344811.30836758],[-8820717.05565326,5344820.81639547],[-8820708.36063032,5344832.71276016],[-8820700.43613818,5344838.89409525],[-8820698.90489911,5344841.64142004],[-8820699.19673288,5344844.25674113],[-8820691.88112431,5344850.31478483],[-8820688.34425078,5344849.59080566],[-8820684.87379414,5344851.95052334],[-8820664.60661238,5344864.25550428],[-8820659.26508291,5344871.1406422],[-8820638.43069881,5344887.82529604],[-8820622.24468163,5344901.693746],[-8820612.50943795,5344907.486018],[-8820608.4488317,5344917.42005023],[-8820604.79030688,5344929.5605201],[-8820599.8620168,5344933.78471829],[-8820575.47085401,5344935.77197123],[-8820523.01300815,5344974.27833377],[-8820512.63397693,5344993.18264756],[-8820508.65097113,5344995.60163437],[-8820495.26653274,5344995.62231978],[-8820479.96750003,5345007.51645061],[-8820473.26940027,5345016.78538141],[-8820473.00636349,5345029.30039935],[-8820477.01751979,5345039.93490895],[-8820472.56948827,5345050.08639193],[-8820466.73375512,5345057.93077798],[-8820456.67494126,5345065.15759445],[-8820427.11762257,5345079.02759574],[-8820395.85547884,5345094.90808305],[-8820375.05883692,5345098.48945414],[-8820365.05716703,5345103.0586733],[-8820339.81537619,5345113.07369284],[-8820286.91563021,5345135.01925737],[-8820169.96742647,5345202.33117282],[-8820124.5847152,5345243.98625899],[-8820119.54500373,5345254.30405488],[-8820116.96905361,5345270.99852438],[-8820113.6973691,5345273.25093539],[-8820085.78912533,5345292.46032841],[-8820057.69325938,5345311.80049288],[-8820047.10911722,5345321.25656837],[-8820044.87825365,5345330.32591633],[-8820035.07006053,5345329.37369189],[-8819964.31624106,5345351.69423678],[-8819921.2636128,5345379.44273681],[-8819876.9757401,5345404.18557617],[-8819859.95264528,5345420.01501071],[-8819840.09617757,5345427.20118014],[-8819776.96869396,5345459.38249882],[-8819733.17372829,5345487.11466936],[-8819708.69547467,5345501.84332269],[-8819670.43643373,5345524.86493469],[-8819644.19903332,5345546.64133947],[-8819564.21969208,5345616.21995468],[-8819438.2899442,5345722.53499873],[-8819423.9571849,5345734.63456073],[-8819344.4284409,5345818.58574423],[-8819205.74400404,5345958.10415937],[-8819112.72194801,5346047.72409593],[-8819044.78830902,5346113.82120557],[-8818990.39661059,5346183.303641],[-8818891.60433602,5346342.30592247],[-8818812.15875756,5346447.63084755],[-8818809.41118452,5346480.3125383],[-8818810.68375486,5346517.20837505],[-8818747.18057888,5346689.11319777],[-8818739.39422715,5346741.2847045],[-8818740.93620457,5346801.70080821],[-8818749.39408453,5346815.57376141],[-8818760.39868019,5346842.93620248],[-8818759.84560685,5346869.01733949],[-8818757.27299681,5346893.24635899],[-8818748.1563704,5346910.36081196],[-8818745.96109627,5346928.91492156],[-8818745.36416954,5346957.06168649],[-8818739.77922717,5346989.75330603],[-8818743.80330882,5347030.65977564],[-8818738.71121598,5347040.11094562],[-8818744.13667751,5347063.47669217],[-8818735.63408882,5347100.24182514],[-8818722.04055137,5347146.45563432],[-8818722.55472555,5347170.75130046],[-8818710.23522581,5347205.36477874],[-8818724.91302523,5347241.5910883],[-8818734.87171647,5347318.27982674],[-8818735.1892595,5347339.72938786],[-8818724.51819111,5347393.75795387],[-8818719.62780664,5347442.22555798],[-8818712.55882228,5347496.33165251],[-8818711.16902054,5347510.60062026],[-8818710.72975145,5347522.40934986],[-8818707.79784438,5347533.13573904],[-8818703.36044015,5347541.88321227],[-8818702.85275064,5347543.34585003],[-8818701.000983,5347551.49919599],[-8818699.30734613,5347553.08370701],[-8818697.30208243,5347557.11186814],[-8818696.12864087,5347566.67341032],[-8818698.22127998,5347576.69822818],[-8818697.95712938,5347580.82000892],[-8818696.43467775,5347600.58400918],[-8818695.79421057,5347606.72845846],[-8818696.11094537,5347624.4901009],[-8818696.37370377,5347641.13208402],[-8818697.17272982,5347648.90326647],[-8818697.91820129,5347671.00523507],[-8818697.34579308,5347677.28876693],[-8818696.0508464,5347690.55430581],[-8818698.05180588,5347712.60477607],[-8818699.81084612,5347726.75011009],[-8818698.27102546,5347752.94744251],[-8818697.99611425,5347762.93975749],[-8818699.00549384,5347780.9902864],[-8818698.04888923,5347795.03091978],[-8818698.18027643,5347800.76685367],[-8818699.25763052,5347813.78469807],[-8818697.92931859,5347819.21978867],[-8818696.1854278,5347839.95916101],[-8818697.02369942,5347850.10743553],[-8818697.30742109,5347870.24630238],[-8818698.90186321,5347886.27740309],[-8818699.65465406,5347892.44217819],[-8818701.293815,5347915.39345668],[-8818701.07922529,5347941.5412072],[-8818701.17886436,5347949.65266633],[-8818700.97383131,5347969.9216413],[-8818701.71911906,5347986.85109549],[-8818701.62935207,5347993.42170094],[-8818701.57869724,5347997.19875539],[-8818698.172437,5348017.21643994],[-8818697.92875317,5348024.97390826],[-8818696.5265566,5348040.96600741],[-8818696.38112217,5348046.55446099],[-8818696.12836072,5348065.22110109],[-8818697.42367991,5348072.5092978],[-8818697.07942076,5348087.60499397],[-8818696.97513725,5348095.29257718],[-8818697.17503276,5348116.48135559],[-8818699.57754237,5348129.45090322],[-8818700.0379079,5348131.48054518],[-8818696.90363492,5348146.75337272],[-8818696.23138871,5348150.16772998],[-8818696.03421117,5348174.98326252],[-8818697.51313672,5348184.0930272],[-8818697.888312,5348197.52430291],[-8818696.69587911,5348203.2404502],[-8818695.05934258,5348221.18437763],[-8818695.57829984,5348229.1633202],[-8818695.38053615,5348233.49594286],[-8818693.87380219,5348252.07424267],[-8818694.2265556,5348256.90158315],[-8818694.7313382,5348276.27553545],[-8818695.56193342,5348281.74051457],[-8818696.89556621,5348301.61517507],[-8818700.39814109,5348336.13333794],[-8818701.72418938,5348371.94664442],[-8818702.5328623,5348389.36663102],[-8818702.31479667,5348410.68886189],[-8818703.28024176,5348431.88645385],[-8818704.4479503,5348453.71584241],[-8818706.20242373,5348473.31779027],[-8818706.83686898,5348477.87057135],[-8818706.7296651,5348496.04859099],[-8818706.37077953,5348501.98499573],[-8818704.43988353,5348521.11615027],[-8818704.30557314,5348525.86992732],[-8818704.81677201,5348544.68455905],[-8818709.03555609,5348567.60311365],[-8818710.12876127,5348574.26269643],[-8818709.781136,5348589.63982187],[-8818709.06978247,5348611.30421223],[-8818709.17265317,5348613.96476419],[-8818709.43390199,5348630.74468664],[-8818710.31181636,5348637.89093268],[-8818711.43507007,5348647.55493756],[-8818711.81163564,5348650.63413752],[-8818711.24876856,5348666.43058665],[-8818710.23363283,5348674.45693217],[-8818712.15427335,5348692.10350682],[-8818712.39478682,5348700.0768985],[-8818710.25187261,5348719.41582709],[-8818709.66921092,5348757.23176211],[-8818708.92936969,5348780.99430555],[-8818707.91733524,5348799.1618324],[-8818707.15680979,5348814.11495377],[-8818705.09781824,5348832.40465125],[-8818703.22993576,5348841.68020483],[-8818699.15265939,5348859.80298561],[-8818698.53624968,5348879.51060434],[-8818697.32148964,5348886.90816047],[-8818695.5804064,5348907.44079513],[-8818696.77653239,5348916.82455539],[-8818696.94094087,5348920.1841433],[-8818696.00972648,5348932.26621094],[-8818695.27279962,5348940.36752742],[-8818690.34577816,5348954.35531358],[-8818689.80322496,5348958.47174829],[-8818683.9639506,5348988.3178803],[-8818683.50684283,5348996.35504749],[-8818680.21726638,5349007.63687935],[-8818677.85416588,5349017.53498531],[-8818670.95803026,5349043.17147116],[-8818666.67491403,5349055.83566392],[-8818661.57696077,5349067.02524358],[-8818653.24460105,5349085.44002375],[-8818651.65195034,5349089.82440967],[-8818643.75420312,5349101.95317132],[-8818634.2417443,5349125.24696223],[-8818633.70726952,5349128.66461527],[-8818629.48237654,5349137.06994118],[-8818616.91235743,5349164.86551305],[-8818614.50001723,5349168.11918802],[-8818603.26796603,5349179.43366621],[-8818601.33352533,5349183.3236602],[-8818587.51187094,5349200.75570709],[-8818566.2401491,5349228.01168375],[-8818552.27619838,5349245.51364834],[-8818539.4068327,5349259.39111505],[-8818536.38712658,5349261.16768996],[-8818524.23416098,5349263.37776936],[-8818522.69976387,5349263.49769123],[-8818504.92520341,5349269.12946606],[-8818488.00315509,5349273.58227939],[-8818485.54831475,5349274.80536563],[-8818476.48278254,5349280.55735669],[-8818472.42707638,5349281.62096886],[-8818457.25612145,5349319.36920162],[-8818228.9349217,5349315.67406423],[-8818215.2681487,5349275.79206465],[-8818203.45878211,5349268.07809133],[-8818200.06909531,5349266.28264843],[-8818190.61007939,5349259.99782753],[-8818175.34447352,5349250.28055305],[-8818166.09000985,5349239.10686223],[-8818152.11525572,5349226.74769586],[-8818141.47513906,5349214.99527154],[-8818132.63228281,5349194.10865172],[-8818117.79003201,5349168.66125776],[-8818101.75344899,5349143.96852189],[-8818089.71688648,5349127.37008703],[-8818078.89989221,5349113.30769325],[-8818052.19398211,5349099.51837177],[-8818032.53467607,5349090.15816449],[-8817985.05975786,5349087.05952237],[-8817946.06468264,5349085.47591865],[-8817893.87280107,5349086.01704476],[-8817887.65957708,5349086.9102421],[-8817863.01206479,5349090.83690966],[-8817815.79238303,5349104.79876906],[-8817791.63933495,5349118.38185564],[-8817759.79115588,5349129.06411687],[-8817720.34232151,5349140.33712009],[-8817715.17950805,5349140.82344196],[-8817695.21744445,5349143.41510472],[-8817683.62109296,5349145.70343505],[-8817682.21495728,5349146.59242405],[-8817670.02474605,5349156.63434129],[-8817644.74563074,5349165.86665827],[-8817616.91952518,5349177.99992519],[-8817540.61474592,5349204.42856989],[-8817509.51034367,5349221.83153545],[-8817468.22645372,5349229.65151972],[-8817439.77677504,5349241.49434059],[-8817416.55008668,5349253.4810811],[-8817404.66327062,5349261.7073923],[-8817385.81565319,5349269.34912094],[-8817364.46166021,5349266.74720301],[-8817340.22879259,5349265.78271864],[-8817334.3565561,5349262.86297166],[-8817326.93240216,5349255.74864124],[-8817321.25305314,5349249.63509395],[-8817318.57753789,5349243.31373082],[-8817315.2344739,5349233.83235504],[-8817317.35300216,5349216.59064659],[-8817331.56579653,5349213.2375809],[-8817347.17977674,5349208.79866965],[-8817369.06992674,5349199.89601882],[-8817375.98851757,5349198.45415524],[-8817406.55591618,5349189.64590249],[-8817431.1547427,5349184.25112427],[-8817450.77448245,5349176.12922565],[-8817453.44470283,5349174.48861373],[-8817469.23756503,5349171.06750358],[-8817532.82604538,5349147.26275456],[-8817554.26458007,5349138.67751216],[-8817570.20928568,5349134.28527326],[-8817592.83250705,5349125.64422867],[-8817610.38417008,5349120.99336437],[-8817613.66989235,5349120.12826398],[-8817626.8784066,5349110.17851684],[-8817638.83423409,5349096.68058658],[-8817647.25162756,5349084.35607558],[-8817654.52611555,5349067.23221002],[-8817662.22891305,5349051.36837593],[-8817665.42289383,5349039.72841335],[-8817669.46355058,5349030.83254754],[-8817675.76135207,5349022.32780194],[-8817678.29352298,5349014.02191845],[-8817700.30784274,5349003.14386142],[-8817714.45377746,5348974.71525868],[-8817753.81106855,5348959.34935807],[-8817784.69844477,5348932.15097061],[-8817793.24104503,5348915.94325731],[-8817804.97873091,5348910.14838322],[-8817837.89892345,5348890.90573019],[-8817853.71009432,5348883.32756591],[-8817866.63048052,5348868.64898318],[-8817874.59345782,5348844.69963348],[-8817879.11980487,5348807.15048914],[-8817878.83421468,5348781.15116441],[-8817868.02527316,5348740.47019917],[-8817840.3260504,5348677.79308509],[-8817828.66964916,5348656.47877963],[-8817828.79844688,5348650.43486519],[-8817839.63657441,5348645.99401461],[-8817846.08184824,5348637.90339016],[-8817848.60668475,5348627.24006923],[-8817849.00759294,5348592.33908571],[-8817844.48639049,5348522.15454934],[-8817836.10083904,5348451.82320641],[-8817825.00848812,5348385.08090312],[-8817806.36036186,5348302.78383409],[-8817781.74658441,5348203.21979401],[-8817772.64109941,5348130.72536327],[-8817764.99865881,5348084.25684103],[-8817759.42354341,5348051.60516966],[-8817762.75763068,5348030.54687803],[-8817780.94754597,5347995.84989722],[-8817798.37843695,5347976.34387612],[-8817841.99372903,5347954.84428311],[-8817873.65210182,5347948.03960698],[-8817919.52584278,5347940.11025827],[-8817961.40627977,5347933.03283204],[-8817960.99988466,5347912.63884964],[-8817956.55415984,5347891.04576448],[-8817955.13931914,5347881.66663684],[-8817939.9157729,5347873.36183076],[-8817935.85210262,5347868.8514458],[-8817932.05810032,5347860.35646954],[-8817924.31360198,5347850.77968271],[-8817919.78660479,5347844.63916559],[-8817917.16756005,5347836.41926277],[-8817920.04003334,5347832.74023248],[-8817932.60599765,5347834.63010999],[-8817942.49195075,5347831.1042594],[-8817954.68485885,5347819.82973292],[-8817963.28348046,5347809.73027378],[-8817969.29225381,5347789.97934642],[-8817970.75841834,5347773.62153597],[-8817965.11602123,5347755.73836167],[-8817938.34650763,5347702.00133406],[-8817937.56498217,5347694.9441974],[-8817941.3885017,5347690.35321831],[-8817930.65051089,5347658.08936406],[-8817925.54148644,5347658.91492145],[-8817907.57989041,5347647.9986979],[-8817894.86719963,5347632.58126061],[-8817894.03143794,5347620.78016402],[-8817848.06517099,5347474.27590174],[-8817833.05108778,5347419.66909228],[-8817834.9887541,5347404.50730261],[-8817832.35051798,5347385.50673428],[-8817819.63180679,5347366.373385],[-8817791.91420666,5347333.06149195],[-8817752.33421515,5347288.82742976],[-8817716.22811327,5347208.44020782],[-8817707.61967407,5347186.0727435],[-8817718.92386593,5347174.23803364],[-8817792.13862205,5347149.93386644],[-8817865.93458666,5347109.86631218],[-8817920.89382127,5347077.77172439],[-8817963.72821664,5347048.75746639],[-8817977.36166706,5347026.17488642],[-8817989.47971603,5346996.92927468],[-8817994.21452303,5346971.08827459],[-8817996.94113475,5346923.94249407],[-8817990.40854009,5346894.88294279],[-8817983.18749345,5346860.81106048],[-8817978.59692122,5346836.42283838],[-8817965.44021288,5346806.32138599],[-8817957.58622208,5346784.56916322],[-8817946.76240187,5346739.54724715],[-8817935.81169646,5346719.51809992],[-8817918.32827925,5346699.6848102],[-8817894.27274111,5346677.94143473],[-8817823.03204343,5346620.43924391],[-8817716.34621332,5346553.91276231],[-8817596.31979715,5346472.54652943],[-8817524.66945281,5346440.78840601],[-8817517.65813209,5346439.40102807],[-8817509.89642122,5346436.97541685],[-8817500.95496168,5346434.31672225],[-8817489.96461085,5346433.33078028],[-8817481.97882444,5346432.05999545],[-8817476.76695214,5346431.27940551],[-8817472.5894246,5346430.69850424],[-8817469.42973352,5346433.73677902],[-8817468.49964235,5346438.68422373],[-8817467.12005311,5346442.10467581],[-8817464.37432267,5346448.32820873],[-8817463.83081535,5346451.21225268],[-8817461.69480756,5346451.44283955],[-8817446.84400955,5346451.33130343],[-8817445.788366,5346449.23964214],[-8817445.10148041,5346446.04851716],[-8817443.27667245,5346444.49195303],[-8817435.25304101,5346443.49131419],[-8817423.27710436,5346440.88835835],[-8817413.90013226,5346438.82274546],[-8817408.91838805,5346440.30311621],[-8817400.18843234,5346443.28900011],[-8817390.74097607,5346447.77953174],[-8817384.66533889,5346448.95986297],[-8817339.74965529,5346472.1445011],[-8817328.92665706,5346476.6067708],[-8817319.49482957,5346477.23063865],[-8817230.49543874,5346467.72481608],[-8817132.67392687,5346467.141835],[-8817066.95488798,5346472.5772238],[-8816981.09044208,5346498.12748998],[-8816971.85117164,5346522.28154176],[-8816956.06734679,5346533.36068937],[-8816895.0191153,5346533.18659054],[-8816836.46002864,5346540.67589082],[-8816808.86862188,5346554.16207235],[-8816785.29697675,5346592.47066469],[-8816763.00764068,5346610.14586985],[-8816760.0264011,5346612.09002812],[-8816751.3643769,5346617.44846913],[-8816707.59157855,5346631.83018947],[-8816690.65311598,5346128.21006651],[-8816660.72775731,5345348.68781692],[-8816659.00537908,5345302.93251659],[-8816655.11880053,5345199.61435062],[-8816655.10972629,5345199.39820767],[-8816636.04538022,5344692.84789655],[-8816598.49440982,5343754.35775632],[-8816566.15448459,5342845.54624421],[-8816546.68187019,5342310.60488193],[-8817001.18363938,5342092.35945776],[-8817176.20921797,5342006.82700686],[-8818056.01882362,5341590.18920771],[-8818566.27967209,5341351.16916251],[-8818919.40188435,5341178.06410547],[-8819124.84766502,5341076.43280979],[-8819378.57034954,5340951.49158722],[-8819422.23040559,5340930.58934139],[-8819935.30488216,5340678.19879624],[-8820481.02355931,5340413.44379964],[-8821087.13244665,5340119.09820755],[-8821094.54505335,5340377.76939769],[-8821135.32124528,5341402.13813628],[-8821157.79893531,5341988.1539379],[-8821183.46891447,5342635.81680974],[-8821204.15961698,5343106.47110752],[-8821204.50770459,5343193.96155397],[-8821227.81020243,5343926.09150031],[-8821250.18037359,5344415.84786428]]]},"properties":{"OBJECTID":4,"WARD":"GRANTHAM","WARD_NUMBER":5,"COUNCILLOR_01":"Coun. Dawn Dodge","COUNCILLOR_01_EMAIL":"ddodge@stcatharines.ca","COUNCILLOR_01_PHONE":"905.933.0373","COUNCILLOR_02":"Coun. Bill Phillips","COUNCILLOR_02_EMAIL":"bphillips@stcatharines.ca","COUNCILLOR_02_PHONE":"905.327.5363","OBJECTID0":4}},{"type":"Feature","id":5,"geometry":{"type":"Polygon","coordinates":[[[-8821250.18037359,5344415.84786428],[-8821227.81020243,5343926.09150031],[-8821204.50770459,5343193.96155397],[-8821204.15961698,5343106.47110752],[-8821183.46891447,5342635.81680974],[-8821157.79893531,5341988.1539379],[-8821135.32124528,5341402.13813628],[-8821094.54505335,5340377.76939769],[-8821087.13244665,5340119.09820755],[-8821594.79897956,5339889.41058359],[-8822236.09052193,5339589.23686628],[-8822365.21126181,5339515.14609793],[-8822595.18382312,5339381.51968077],[-8822653.27298159,5339347.04674027],[-8822706.6683932,5339317.09557592],[-8822991.83559359,5339169.80386221],[-8823310.64470176,5339251.883771],[-8823506.92688019,5339305.05402547],[-8823581.01404062,5339324.98781085],[-8823636.49596311,5339338.51814724],[-8823744.10494579,5339354.9274591],[-8823811.87486591,5339361.89707574],[-8823929.52248688,5339363.69306704],[-8823946.16372824,5339362.38893721],[-8823994.43299339,5339358.38880199],[-8824067.78784524,5339349.52642658],[-8824114.78890709,5339340.99557297],[-8824168.63703393,5339329.7378057],[-8824209.61926263,5339318.39146437],[-8824237.76805597,5339309.53848282],[-8824276.08923693,5339297.24000821],[-8824328.1487944,5339277.33433388],[-8824509.62818613,5339208.16478955],[-8824822.56226921,5339090.59539455],[-8824960.20796769,5339038.58090872],[-8824966.04770686,5339036.43440847],[-8824999.87921582,5339024.84049212],[-8825005.81952518,5339022.80477595],[-8825054.75779384,5339005.60701485],[-8825114.2254292,5338990.33396636],[-8825168.79545341,5338978.54757636],[-8825206.97069623,5338973.23735473],[-8825246.37039006,5338969.20886568],[-8825279.66807492,5338966.4878187],[-8825306.86113922,5338965.07559908],[-8825366.08919627,5338965.64916479],[-8825426.57788948,5338970.30341289],[-8825480.78556157,5338976.26406979],[-8825548.54332577,5338983.75874292],[-8825701.22453786,5339002.57550458],[-8825954.32218191,5339031.71996149],[-8826010.20461664,5339038.15365045],[-8826250.25107871,5339065.73319914],[-8826278.4173685,5339068.96791571],[-8826724.89242334,5339121.1930685],[-8827082.2856804,5339162.65109483],[-8827189.46659203,5339174.67514283],[-8827695.65919298,5339233.39575614],[-8827789.77298656,5339244.66230275],[-8828478.54522479,5339324.80563476],[-8828603.8336673,5339339.22583384],[-8828649.80800227,5339344.54888228],[-8828875.70221662,5339371.66580359],[-8829020.14503247,5339387.6831681],[-8829173.40483798,5339405.02024672],[-8829231.74115058,5339410.32464387],[-8829290.80578984,5339414.92652844],[-8829338.81005876,5339418.58640291],[-8829433.39950276,5339420.56495351],[-8829627.04383375,5339416.2219766],[-8829772.40890619,5339413.05385906],[-8829948.61085077,5339407.13144969],[-8829959.44022578,5339495.89112147],[-8829964.23862517,5339535.21978258],[-8829965.81951717,5339603.02393622],[-8829953.56626417,5339677.42596443],[-8829900.51940329,5339736.27232908],[-8829802.99667596,5339767.70264317],[-8829717.21553727,5339799.36997601],[-8829623.15464914,5339853.4593638],[-8829575.35333428,5339965.00868455],[-8829541.73917216,5340006.94296089],[-8829509.68053097,5340017.46551079],[-8829457.21739197,5340020.87436813],[-8829401.67582503,5340032.64085882],[-8829335.70174587,5340060.86468326],[-8829265.85154271,5340094.50866613],[-8829157.45651562,5340171.7078791],[-8829135.97423424,5340184.16158175],[-8829125.14986516,5340186.0047787],[-8829109.03682634,5340186.88179263],[-8829099.21870309,5340189.77636058],[-8829040.93236414,5340210.24931524],[-8829020.38156161,5340218.94112049],[-8829007.90140649,5340235.01358797],[-8828995.88087806,5340245.25271919],[-8828973.07036465,5340255.61714742],[-8828954.14124015,5340268.80958658],[-8828935.72701387,5340273.42027212],[-8828914.31672544,5340282.26634371],[-8828894.82563774,5340297.85312979],[-8828889.75838432,5340302.90583006],[-8828830.75014842,5340333.67373303],[-8828809.35876824,5340350.08115439],[-8828798.59474551,5340357.42424987],[-8828793.26455739,5340358.5191755],[-8828784.30888041,5340361.08724578],[-8828768.03309993,5340370.03708858],[-8828740.23941531,5340389.7515874],[-8828665.80652959,5340429.65763976],[-8828656.21969626,5340438.0555737],[-8828640.6507753,5340454.40898709],[-8828621.91616123,5340466.40204254],[-8828597.20115823,5340477.75824776],[-8828544.56546895,5340506.59196934],[-8828503.02586954,5340528.6048836],[-8828468.84459976,5340542.3464509],[-8828456.48960528,5340543.64232802],[-8828444.79503272,5340546.15452999],[-8828424.72529453,5340556.40172062],[-8828386.04158227,5340572.62934945],[-8828345.4451916,5340598.78523623],[-8828325.31634554,5340611.95250425],[-8828321.28742513,5340624.93122195],[-8828317.04433886,5340631.54716947],[-8828308.23865777,5340635.14899802],[-8828274.82592987,5340653.2018634],[-8828261.08201112,5340663.92103108],[-8828254.62198928,5340678.56890019],[-8828247.74201643,5340688.56828688],[-8828243.10318054,5340689.33328078],[-8828240.91266715,5340687.57026362],[-8828235.61342416,5340687.11888001],[-8828227.6704274,5340690.39448209],[-8828212.45307611,5340706.23920372],[-8828199.6458845,5340721.4455079],[-8828154.00471266,5340751.45115939],[-8828126.59283353,5340794.54428985],[-8828108.2063737,5340831.6343521],[-8828066.04565195,5340875.80257478],[-8828057.88616712,5340881.30779657],[-8828049.95682249,5340883.89617445],[-8828005.35069004,5340904.9860847],[-8827986.11127304,5340916.45259054],[-8827933.05950322,5340948.7128142],[-8827841.61667282,5341016.45280212],[-8827816.0721838,5341034.83682231],[-8827786.60289406,5341069.46731278],[-8827777.58118329,5341083.71958049],[-8827769.20153057,5341091.62619487],[-8827728.1232967,5341124.4734761],[-8827659.96065015,5341192.51541095],[-8827610.6214575,5341244.27064747],[-8827518.04476814,5341308.54920129],[-8827388.9888893,5341381.36327682],[-8827313.71495656,5341428.29190227],[-8827230.38866277,5341492.24214257],[-8827196.4503263,5341510.62574596],[-8827112.64003227,5341564.59732831],[-8827094.38343051,5341578.14527532],[-8827075.86839803,5341595.98459837],[-8827054.38711393,5341608.09163414],[-8827041.92241239,5341614.71141565],[-8827033.73029253,5341621.76230608],[-8827023.86144808,5341635.48174293],[-8827017.02480803,5341643.24783031],[-8827009.53482409,5341649.45374185],[-8826982.79568494,5341667.46852086],[-8826970.52297769,5341673.0609645],[-8826957.26852275,5341676.399016],[-8826942.9450704,5341681.77759943],[-8826936.53446928,5341685.42753243],[-8826912.85882548,5341695.94263013],[-8826902.26995609,5341702.94441335],[-8826887.42251212,5341717.2494021],[-8826829.49617171,5341786.7021033],[-8826824.05319669,5341793.29361255],[-8826819.1726703,5341797.49044863],[-8826814.86158266,5341798.94901077],[-8826809.09364774,5341796.25283997],[-8826803.71000409,5341791.50208746],[-8826796.30357327,5341785.16307567],[-8826777.00848074,5341782.36173397],[-8826713.29937023,5341790.8533397],[-8826608.48759628,5341824.62644924],[-8826530.97755566,5341863.255216],[-8826461.77516025,5341889.16348363],[-8826433.07454872,5341902.49632889],[-8826428.44548047,5341902.7450942],[-8826419.03365636,5341902.38010089],[-8826398.62731577,5341903.68007857],[-8826385.02997105,5341907.01035604],[-8826375.89050213,5341910.0883641],[-8826372.222037,5341913.62240124],[-8826370.45727936,5341924.58605119],[-8826367.20784074,5341932.76926831],[-8826367.25298876,5341938.95763339],[-8826367.0222813,5341941.87474542],[-8826364.37392847,5341945.77347619],[-8826277.69431228,5341988.85300679],[-8826172.52836469,5342039.80211927],[-8826129.25761237,5342062.11613709],[-8826080.95361746,5342112.85799868],[-8826051.28295633,5342140.09206225],[-8826015.6519644,5342165.65664803],[-8825989.00419939,5342179.03072055],[-8825978.83367775,5342182.25909782],[-8825927.40849783,5342192.88895722],[-8825913.05912363,5342199.46885481],[-8825902.80782839,5342206.64869173],[-8825884.09785723,5342217.09203234],[-8825865.4572315,5342232.52125427],[-8825855.38056825,5342239.53277889],[-8825824.02235928,5342257.10651122],[-8825816.25192359,5342260.21226163],[-8825773.63340111,5342275.66338309],[-8825711.58546792,5342294.83928737],[-8825688.42504223,5342296.76854802],[-8825656.80126707,5342310.55498712],[-8825507.48694914,5342342.5411102],[-8825425.35191168,5342364.05113496],[-8825416.15891422,5342369.70545765],[-8825396.17229711,5342383.90304739],[-8825383.2375924,5342388.27698305],[-8825357.10319699,5342393.23794245],[-8825340.25559897,5342396.32790682],[-8825304.32644782,5342411.22760991],[-8825297.20529332,5342416.06519712],[-8825276.65198807,5342432.82913536],[-8825272.1410114,5342435.65800973],[-8825110.15996747,5342517.22282827],[-8825043.3739801,5342541.79714246],[-8825003.40750442,5342561.42522629],[-8824978.14444369,5342573.96615232],[-8824874.09111021,5342620.11387587],[-8824754.59695754,5342667.48801028],[-8824747.50005028,5342671.12260122],[-8824723.0146632,5342687.46058755],[-8824674.88197687,5342721.01324476],[-8824652.67155761,5342734.9918151],[-8824633.12083659,5342744.55635811],[-8824578.50859261,5342768.34874064],[-8824517.33027461,5342794.92688099],[-8824513.15776864,5342797.93439825],[-8824508.89332505,5342805.40912388],[-8824504.20013135,5342808.74962607],[-8824461.92300088,5342824.03079467],[-8824429.26495514,5342837.96425701],[-8824418.70127865,5342843.5894499],[-8824359.79991156,5342884.30899033],[-8824306.65398479,5342919.99102087],[-8824303.47672606,5342924.56615553],[-8824299.66195301,5342935.14426097],[-8824295.99939051,5342938.33419804],[-8824204.52065384,5342997.28525191],[-8824195.07718657,5343006.71518046],[-8824181.08551571,5343012.44092292],[-8824136.7429989,5343036.44460413],[-8824086.28397424,5343066.33735451],[-8824017.50186982,5343096.02105885],[-8823949.3286822,5343123.47411973],[-8823913.67732237,5343137.83078395],[-8823913.18088787,5343138.02948622],[-8823898.28629407,5343145.081015],[-8823772.52625943,5343204.61707737],[-8823752.48829604,5343214.10271402],[-8823748.64016376,5343215.701718],[-8823719.00518877,5343228.01982667],[-8823706.01390666,5343233.41926315],[-8823699.56699738,5343235.02053757],[-8823690.69099586,5343237.22582533],[-8823685.2489567,5343238.44645742],[-8823664.6932015,5343243.05715927],[-8823662.64170423,5343243.51776191],[-8823656.94146639,5343245.44259358],[-8823654.01726651,5343246.43234452],[-8823652.01481915,5343248.0133602],[-8823642.35081837,5343255.64377564],[-8823637.87793652,5343259.69542694],[-8823636.41599493,5343261.02091153],[-8823635.53385562,5343262.00642346],[-8823634.15299986,5343263.55224996],[-8823634.93025604,5343286.54220688],[-8823646.08683903,5343616.50782847],[-8823674.40928964,5344055.97421171],[-8823582.08883845,5344166.55135574],[-8823557.93940783,5344167.97645451],[-8823556.96063186,5344142.5114613],[-8823569.16116313,5344142.21413619],[-8823569.0283537,5344139.77019872],[-8823563.62477547,5344038.95129287],[-8823550.4640106,5344039.08969775],[-8823550.17444551,5344013.36572934],[-8823563.60940657,5344013.23303737],[-8823559.49222376,5343943.45751547],[-8823547.57157568,5343935.72902976],[-8823509.73825989,5343925.36192734],[-8823067.199239,5343894.41273794],[-8823066.23499243,5343882.57352557],[-8823102.70564969,5343816.31577663],[-8823093.8476323,5343490.1861305],[-8823093.07896906,5343476.07829131],[-8823089.28423529,5343465.3494285],[-8823085.9969505,5343455.69695872],[-8823081.80374543,5343449.60111471],[-8823078.1579628,5343447.6299448],[-8823057.2030668,5343448.99795496],[-8823044.59654545,5343449.23109896],[-8823028.54188225,5343451.64066102],[-8823004.24275075,5343456.23919067],[-8822951.26432575,5343467.83641129],[-8822736.60453867,5343511.58230307],[-8822649.49371733,5343531.2142435],[-8822641.09086461,5343532.06978203],[-8822633.17870592,5343537.51506173],[-8822596.16901355,5343559.94303061],[-8822541.00171326,5343580.34865138],[-8822499.85278577,5343595.56459767],[-8822375.96508351,5343662.47988769],[-8822313.45635177,5343715.8064501],[-8822254.76418684,5343760.10876991],[-8822234.84650255,5343787.0076668],[-8822185.53254361,5343816.63177025],[-8822119.1256529,5343839.22007159],[-8822082.87101393,5343837.24473514],[-8822039.08781508,5343862.73199144],[-8821987.00006375,5343909.29676709],[-8821904.18048773,5343964.62410465],[-8821866.19089864,5343987.80386457],[-8821846.98829251,5343992.73777111],[-8821824.74212407,5343998.45621645],[-8821724.80980378,5344060.70355111],[-8821665.90560087,5344107.93281291],[-8821664.78266198,5344108.83339194],[-8821596.95994943,5344154.63979925],[-8821547.88614367,5344175.84292413],[-8821477.79076491,5344222.95425549],[-8821475.49134742,5344224.50120366],[-8821392.23850291,5344304.81053007],[-8821377.13913956,5344323.58064303],[-8821376.04669308,5344338.31771388],[-8821343.14894685,5344364.19191209],[-8821331.01869186,5344381.64654283],[-8821287.02333975,5344403.74526521],[-8821250.18037359,5344415.84786428]]]},"properties":{"OBJECTID":5,"WARD":"PORT DALHOUSIE","WARD_NUMBER":6,"COUNCILLOR_01":"Coun. Marty Mako","COUNCILLOR_01_EMAIL":"mmako@stcatharines.ca","COUNCILLOR_01_PHONE":"289.697.2749","COUNCILLOR_02":"Coun. Bruce Williamson","COUNCILLOR_02_EMAIL":"bwilliamson@stcatharines.ca","COUNCILLOR_02_PHONE":"905.934.2787","OBJECTID0":5}},{"type":"Feature","id":6,"geometry":{"type":"Polygon","coordinates":[[[-8829949.2242981,5339372.66705921],[-8829948.61085077,5339407.13144969],[-8829772.40890619,5339413.05385906],[-8829627.04383375,5339416.2219766],[-8829433.39950276,5339420.56495351],[-8829338.81005876,5339418.58640291],[-8829290.80578984,5339414.92652844],[-8829231.74115058,5339410.32464387],[-8829173.40483798,5339405.02024672],[-8829020.14503247,5339387.6831681],[-8828875.70221662,5339371.66580359],[-8828649.80800227,5339344.54888228],[-8828603.8336673,5339339.22583384],[-8828478.54522479,5339324.80563476],[-8827789.77298656,5339244.66230275],[-8827695.65919298,5339233.39575614],[-8827189.46659203,5339174.67514283],[-8827082.2856804,5339162.65109483],[-8826724.89242334,5339121.1930685],[-8826278.4173685,5339068.96791571],[-8826250.25107871,5339065.73319914],[-8826010.20461664,5339038.15365045],[-8825954.32218191,5339031.71996149],[-8825701.22453786,5339002.57550458],[-8825548.54332577,5338983.75874292],[-8825480.78556157,5338976.26406979],[-8825426.57788948,5338970.30341289],[-8825366.08919627,5338965.64916479],[-8825306.86113922,5338965.07559908],[-8825279.66807492,5338966.4878187],[-8825246.37039006,5338969.20886568],[-8825206.97069623,5338973.23735473],[-8825168.79545341,5338978.54757636],[-8825114.2254292,5338990.33396636],[-8825054.75779384,5339005.60701485],[-8825005.81952518,5339022.80477595],[-8824999.87921582,5339024.84049212],[-8824966.04770686,5339036.43440847],[-8824960.20796769,5339038.58090872],[-8824822.56226921,5339090.59539455],[-8824509.62818613,5339208.16478955],[-8824328.1487944,5339277.33433388],[-8824276.08923693,5339297.24000821],[-8824237.76805597,5339309.53848282],[-8824209.61926263,5339318.39146437],[-8824168.63703393,5339329.7378057],[-8824114.78890709,5339340.99557297],[-8824067.78784524,5339349.52642658],[-8823994.43299339,5339358.38880199],[-8823946.16372824,5339362.38893721],[-8823929.52248688,5339363.69306704],[-8823811.87486591,5339361.89707574],[-8823744.10494579,5339354.9274591],[-8823636.49596311,5339338.51814724],[-8823581.01404062,5339324.98781085],[-8823506.92688019,5339305.05402547],[-8823310.64470176,5339251.883771],[-8822991.83559359,5339169.80386221],[-8822706.6683932,5339317.09557592],[-8822653.27298159,5339347.04674027],[-8822595.18382312,5339381.51968077],[-8822365.21126181,5339515.14609793],[-8822236.09052193,5339589.23686628],[-8821594.79897956,5339889.41058359],[-8821087.13244665,5340119.09820755],[-8821058.46612501,5339375.14677973],[-8821042.26026653,5338696.82640621],[-8821029.26099173,5338319.16474203],[-8821015.01576378,5337910.02962005],[-8820999.63622822,5337508.8839523],[-8820987.97011687,5337237.95474444],[-8820986.32948089,5337200.95077275],[-8820965.34962004,5336667.20839283],[-8820964.59175192,5336531.50893247],[-8820956.74580133,5336406.37278827],[-8820946.67455035,5336202.62638749],[-8820938.75120644,5336092.76064725],[-8820932.79944126,5336038.97557622],[-8820930.93495885,5336023.56256885],[-8820954.63864186,5336013.66187888],[-8821024.69573636,5335977.28478379],[-8821072.48725933,5335944.55547124],[-8821125.57601515,5335901.72862428],[-8821173.74081853,5335851.25097493],[-8821216.95743828,5335794.01083454],[-8821255.14059498,5335734.22392047],[-8821273.11061462,5335695.87128436],[-8821278.16847885,5335685.07714121],[-8821300.5761557,5335636.70374161],[-8821306.52559837,5335623.87681007],[-8821345.90382252,5335538.99424365],[-8821395.17062462,5335435.49800452],[-8821424.73645672,5335396.39262561],[-8821457.3417289,5335360.0148026],[-8821494.04381003,5335328.60602819],[-8821534.10120671,5335305.92379615],[-8821572.30370543,5335287.4184682],[-8821607.95345268,5335274.62910535],[-8821632.39339745,5335269.15159168],[-8821668.54376206,5335264.14023108],[-8821700.94298431,5335264.70960104],[-8821745.00143052,5335267.6305543],[-8821766.91078322,5335271.1729473],[-8821853.91953447,5335298.30116093],[-8821973.20890359,5335338.08924902],[-8822107.68267557,5335382.94025928],[-8822183.65689486,5335408.94753457],[-8822232.10336205,5335429.49319295],[-8822276.8910684,5335455.7317178],[-8822324.78859333,5335492.02411463],[-8822363.63907063,5335527.46123367],[-8822392.35612066,5335560.90964745],[-8822471.21719545,5335655.41688103],[-8822522.17941471,5335714.63310465],[-8822562.38763591,5335759.19795287],[-8822610.99283399,5335804.15996461],[-8822657.39639123,5335837.97843571],[-8822727.07233896,5335880.05270582],[-8822774.04630002,5335902.20290247],[-8822828.22851004,5335923.53325057],[-8822901.01896918,5335943.47537106],[-8822989.87677448,5335956.42821337],[-8823091.34508789,5335958.54571694],[-8823110.62293079,5335957.6716183],[-8823121.80832736,5335957.16361758],[-8823178.77329269,5335954.57690213],[-8823187.01834659,5335954.20001843],[-8823407.78549621,5335944.14131105],[-8823743.60912718,5335928.14401473],[-8823797.80300562,5335925.47307799],[-8824061.71858814,5335913.07256503],[-8824518.05896475,5335892.21136901],[-8824769.53326012,5335880.54816024],[-8824853.00989101,5335880.80493666],[-8824923.41099016,5335888.03021454],[-8824977.66114235,5335900.05742905],[-8824984.62317417,5335901.60161054],[-8824995.56670895,5335904.43986047],[-8824991.26656647,5335720.0600682],[-8824988.04879493,5335635.08076155],[-8826174.03487545,5335579.13452071],[-8826810.77784066,5335558.52110661],[-8826928.85657908,5335555.96509062],[-8826978.89178032,5335552.72263541],[-8827033.65956847,5335542.82535984],[-8827074.67650375,5335530.85161195],[-8827125.06259034,5335507.31588977],[-8827274.11824929,5335428.44049004],[-8827342.72692833,5335404.17104386],[-8827394.05157436,5335395.45974165],[-8827445.29675944,5335392.16269803],[-8827502.46606966,5335398.03881627],[-8827583.8629761,5335417.40421306],[-8827677.84581872,5335444.11382017],[-8827806.47161797,5335476.36107616],[-8827870.55582265,5335488.85077591],[-8827951.80855279,5335494.46230983],[-8828020.80766441,5335491.24694209],[-8828187.72593061,5335480.15469126],[-8828481.49377859,5335460.44760006],[-8828833.53874022,5335420.09281308],[-8828972.60317115,5335404.17260908],[-8829017.98914595,5335400.41075615],[-8829286.53855515,5335418.28742332],[-8829272.71322961,5335453.82857585],[-8829225.16353221,5335508.28474504],[-8829216.93412314,5335572.4990936],[-8829194.89162178,5335619.21210509],[-8829228.33296389,5335681.00964082],[-8829167.7105023,5335776.98357095],[-8829124.25593336,5335894.90423636],[-8829161.52655744,5335942.42998507],[-8829303.11490656,5335939.00854072],[-8829359.59385733,5335995.42904296],[-8829411.87265715,5336211.34708729],[-8829378.95542587,5336389.3803996],[-8829329.16513931,5336481.65327099],[-8829399.1273168,5336505.64865429],[-8829442.74117206,5336470.10043956],[-8829497.22485233,5336443.80630398],[-8829515.11747222,5336478.53529152],[-8829506.70302403,5336507.81944671],[-8829483.01116788,5336567.2373192],[-8829455.95235022,5336648.18841856],[-8829444.16936514,5336711.36786966],[-8829495.20555507,5336789.62928633],[-8829489.43787545,5336832.47919517],[-8829453.63183999,5336864.17939081],[-8829392.98174033,5336890.5980124],[-8829357.49056353,5336974.06682057],[-8829286.68259064,5337132.21405717],[-8829313.19492949,5337184.26712367],[-8829396.40245115,5337219.87363264],[-8829435.71304728,5337258.36311062],[-8829500.75131657,5337459.09132684],[-8829521.19864534,5337533.44564599],[-8829508.98106481,5337617.70454985],[-8829500.4481625,5337693.2359815],[-8829590.34754089,5337777.57553629],[-8829654.83462879,5337880.02489728],[-8829727.97471961,5337941.3996444],[-8829759.73841772,5338016.67664088],[-8829751.69494667,5338076.41850543],[-8829686.7798232,5338141.88941194],[-8829633.60099712,5338207.59834846],[-8829623.75046238,5338308.55061352],[-8829677.93363243,5338388.21030556],[-8829773.57632077,5338450.04301101],[-8829861.09932006,5338526.44571878],[-8829918.39375388,5338646.43325219],[-8829908.54705835,5338747.39198472],[-8829882.52525118,5338776.33159537],[-8829837.15252895,5338794.07723294],[-8829813.61305984,5338845.65548637],[-8829786.98087545,5338905.02950539],[-8829792.49220386,5338971.92443356],[-8829857.7540764,5339085.20418554],[-8829951.91219023,5339221.65622486],[-8829949.2242981,5339372.66705921]]]},"properties":{"OBJECTID":6,"WARD":"ST. PATRICK'S","WARD_NUMBER":4,"COUNCILLOR_01":"Coun. Caleb Ratzlaff","COUNCILLOR_01_EMAIL":"cratzlaff@stcatharines.ca ","COUNCILLOR_01_PHONE":"905.327.0473","COUNCILLOR_02":"Coun. Robin McPherson","COUNCILLOR_02_EMAIL":"rmcpherson@stcatharines.ca","COUNCILLOR_02_PHONE":"905.328.0003","OBJECTID0":6}}]}