{"type": "FeatureCollection", "features": [{"type": "Feature", "properties": {"district_id": "Coquitlam"}, "geometry": {"type": "Polygon", "coordinates": [[[-122.87636613, 49.21989243], [-122.87636848, 49.22539614], [-122.87636715, 49.22620044], [-122.87636847, 49.22639278], [-122.87637642, 49.2287969], [-122.87638264, 49.2291544], [-122.87637134, 49.22977893], [-122.87636882, 49.22991789], [-122.87620447, 49.2300032], [-122.87601082, 49.23007441], [-122.8756121, 49.23019119], [-122.87543453, 49.23027237], [-122.87515865, 49.23047888], [-122.87503472, 49.23059567], [-122.87503443, 49.23062273], [-122.87503319, 49.23095457], [-122.87506112, 49.23107278], [-122.87518498, 49.23122517], [-122.87532091, 49.2313149], [-122.87548575, 49.23139607], [-122.87602039, 49.23160401], [-122.87617159, 49.23169373], [-122.87636297, 49.23193728], [-122.87655596, 49.23218936], [-122.87676144, 49.23249557], [-122.87713167, 49.2327391], [-122.8773088, 49.23281032], [-122.87744586, 49.23288295], [-122.87759738, 49.23294561], [-122.87773443, 49.23301825], [-122.87778865, 49.23304531], [-122.87817456, 49.23317064], [-122.8785032, 49.23331591], [-122.87888694, 49.23344124], [-122.8793539, 49.23350533], [-122.87984922, 49.23356942], [-122.88001357, 49.23361357], [-122.88020648, 49.23372181], [-122.88032846, 49.23389272], [-122.88038426, 49.23397389], [-122.88049374, 49.23409068], [-122.88071296, 49.23434276], [-122.88080915, 49.23440685], [-122.88090395, 49.23446952], [-122.88091868, 49.23447807], [-122.88093176, 49.23447807], [-122.88130179, 49.23470309], [-122.88150703, 49.23476717], [-122.88196173, 49.23482985], [-122.88216702, 49.23484836], [-122.88246853, 49.23488538], [-122.88267544, 49.23491245], [-122.882854, 49.23493951], [-122.88326449, 49.2350563], [-122.883376, 49.23507481], [-122.88382854, 49.23513747], [-122.8841303, 49.23519302], [-122.88429577, 49.23522008], [-122.8847614, 49.23528274], [-122.88518802, 49.23536392], [-122.88538018, 49.23542801], [-122.88555759, 49.23551774], [-122.88581835, 49.23572425], [-122.88606664, 49.23584246], [-122.88631414, 49.23590512], [-122.88680706, 49.2359507], [-122.88728852, 49.23600482], [-122.88772716, 49.23606891], [-122.88798835, 49.23607745], [-122.88825039, 49.23605039], [-122.88857842, 49.23601479], [-122.88871694, 49.23599769], [-122.88918323, 49.23592649], [-122.88972036, 49.23591794], [-122.88993982, 49.23595355], [-122.89041978, 49.23618854], [-122.89088693, 49.23643065], [-122.8911188, 49.2366571], [-122.89129749, 49.23690777], [-122.89135301, 49.23706158], [-122.89144752, 49.23719688], [-122.8921331, 49.23786341], [-122.89227073, 49.23796168], [-122.89248961, 49.23805141], [-122.89257806, 49.23806587], [-122.89291817, 49.25624973], [-122.89305804, 49.26126919], [-122.89355095, 49.27043514], [-122.8927531, 49.27043465], [-122.89218802, 49.2704385], [-122.89172751, 49.27044064], [-122.8910938, 49.2704455], [-122.88978598, 49.27045482], [-122.88041885, 49.27052186], [-122.88044537, 49.27087268], [-122.88030327, 49.27087223], [-122.87838657, 49.27086399], [-122.87429877, 49.2708445], [-122.87429853, 49.27084839], [-122.86858641, 49.27082439], [-122.86844458, 49.27082063], [-122.86291083, 49.2707871], [-122.85963115, 49.27077622], [-122.85844785, 49.27077176], [-122.85755269, 49.27076831], [-122.85741802, 49.27076727], [-122.85680637, 49.27076461], [-122.85638887, 49.27076228], [-122.85363601, 49.27073989], [-122.85286842, 49.27073369], [-122.85282683, 49.27073349], [-122.85169773, 49.27072418], [-122.84651461, 49.27070608], [-122.84647754, 49.27070624], [-122.84629525, 49.27070541], [-122.84629497, 49.27073891], [-122.84630072, 49.27073894], [-122.84628464, 49.27263966], [-122.84532082, 49.27263339], [-122.8424519, 49.27261465], [-122.84148141, 49.27260895], [-122.83667958, 49.27258425], [-122.83594905, 49.27257957], [-122.83591943, 49.27312395], [-122.8312959, 49.27314893], [-122.83046714, 49.27315745], [-122.82385608, 49.27318402], [-122.82376135, 49.28049707], [-122.82112219, 49.28049946], [-122.82111409, 49.2822092], [-122.82112262, 49.28340069], [-122.82113077, 49.28453492], [-122.82113901, 49.28481421], [-122.8211429, 49.28644018], [-122.82114355, 49.28654038], [-122.82114404, 49.286963], [-122.82114896, 49.28776387], [-122.82115171, 49.28857002], [-122.82116734, 49.28967837], [-122.82117231, 49.29163372], [-122.82117162, 49.29236947], [-122.8211741, 49.29253121], [-122.82117342, 49.29326857], [-122.82117627, 49.29326856], [-122.82118032, 49.2948963], [-122.82275164, 49.29490137], [-122.82275169, 49.29490385], [-122.82275775, 49.29686124], [-122.82275796, 49.29728824], [-122.82276502, 49.29927266], [-122.82276664, 49.29938094], [-122.82277061, 49.30050646], [-122.82277057, 49.30050781], [-122.82277054, 49.30050973], [-122.82275895, 49.30116947], [-122.82275667, 49.30131396], [-122.82265846, 49.30774122], [-122.82260596, 49.31134458], [-122.82259023, 49.31240361], [-122.82258571, 49.31240357], [-122.82254795, 49.31495834], [-122.82254581, 49.31552507], [-122.82255753, 49.31610085], [-122.82254724, 49.31895273], [-122.82255896, 49.31952851], [-122.82255217, 49.32139983], [-122.82254635, 49.32231611], [-122.82254466, 49.32953178], [-122.82259093, 49.33702892], [-122.82263766, 49.34018664], [-122.82266224, 49.34411405], [-122.82265343, 49.35132582], [-122.80016486, 49.3512538], [-122.79012154, 49.35123723], [-122.78939856, 49.35123439], [-122.78862306, 49.35122745], [-122.75533301, 49.35098587], [-122.73339103, 49.35098982], [-122.71144906, 49.35098961], [-122.68936045, 49.35099414], [-122.68908309, 49.35099602], [-122.68357849, 49.35099221], [-122.67807303, 49.35099081], [-122.6723311, 49.35111621], [-122.66662132, 49.35115886], [-122.66634448, 49.35116123], [-122.64973223, 49.35115628], [-122.64893722, 49.35115626], [-122.64419365, 49.35115623], [-122.64391793, 49.35115398], [-122.64180272, 49.35115306], [-122.63741649, 49.3511499], [-122.63284311, 49.3511488], [-122.62510872, 49.35114479], [-122.61951607, 49.35114496], [-122.6200403, 49.35102221], [-122.6205828, 49.35084309], [-122.62881027, 49.34616314], [-122.63641796, 49.34156721], [-122.63734794, 49.3407782], [-122.63856456, 49.33956478], [-122.63941634, 49.3390777], [-122.6406631, 49.33863334], [-122.64173306, 49.33833995], [-122.64347697, 49.33802809], [-122.64513764, 49.33762524], [-122.65178451, 49.33499131], [-122.65445096, 49.33337801], [-122.65529819, 49.33261464], [-122.65616019, 49.33156072], [-122.65732105, 49.3306478], [-122.6586606, 49.3298417], [-122.65927901, 49.32958819], [-122.66181179, 49.32830362], [-122.66336915, 49.32678618], [-122.66547183, 49.32419501], [-122.66870443, 49.32096888], [-122.67522884, 49.31702631], [-122.67558903, 49.31663361], [-122.67587775, 49.31613518], [-122.6760711, 49.31564416], [-122.67629242, 49.31444884], [-122.67644052, 49.31402585], [-122.67670094, 49.31368832], [-122.67787771, 49.31271796], [-122.6780419, 49.3124124], [-122.67817578, 49.31142156], [-122.67821914, 49.31016081], [-122.67799065, 49.30849722], [-122.67748908, 49.30711512], [-122.67626032, 49.30510131], [-122.67447431, 49.30346713], [-122.67326459, 49.30250542], [-122.67140208, 49.30148851], [-122.66960295, 49.30062958], [-122.66762317, 49.29993128], [-122.66591494, 49.29957378], [-122.66227766, 49.29899042], [-122.66112219, 49.29861876], [-122.66010899, 49.29798137], [-122.65961624, 49.29719037], [-122.65899425, 49.29525942], [-122.65897991, 49.29445169], [-122.65920115, 49.29371093], [-122.66049829, 49.2926271], [-122.66165814, 49.29207629], [-122.66342572, 49.29140513], [-122.66560272, 49.29075681], [-122.67076216, 49.28953658], [-122.6853598, 49.28670952], [-122.68744222, 49.28617402], [-122.69299812, 49.28423709], [-122.69514936, 49.2833555], [-122.69764331, 49.2822019], [-122.69877221, 49.28149443], [-122.69965524, 49.28086598], [-122.70181943, 49.27905866], [-122.7024177, 49.27852161], [-122.70962733, 49.27844581], [-122.71419569, 49.27844684], [-122.7141957, 49.27844905], [-122.71490693, 49.27844773], [-122.71562196, 49.2784481], [-122.7183876, 49.27844048], [-122.71976852, 49.27844048], [-122.72115195, 49.27843576], [-122.72267237, 49.2784328], [-122.72905657, 49.27841933], [-122.7293444, 49.27841954], [-122.73362921, 49.27841081], [-122.73390609, 49.27840837], [-122.73390539, 49.27858949], [-122.7339079, 49.28385933], [-122.73390697, 49.2840398], [-122.73390834, 49.28519501], [-122.73390863, 49.28575811], [-122.74481303, 49.28575569], [-122.7560476, 49.28571698], [-122.75619983, 49.28572188], [-122.75683631, 49.28572432], [-122.75759645, 49.28572666], [-122.75759866, 49.28572647], [-122.75859174, 49.2857297], [-122.75924024, 49.28573164], [-122.76033849, 49.2857353], [-122.76148545, 49.2857389], [-122.7616237, 49.28573965], [-122.76158448, 49.28918176], [-122.76158551, 49.2892968], [-122.76715511, 49.28930198], [-122.76718817, 49.28575763], [-122.76723395, 49.27838199], [-122.77856385, 49.27845818], [-122.7838716, 49.27845767], [-122.78813108, 49.27845924], [-122.78813175, 49.27845792], [-122.78842266, 49.27845858], [-122.79030403, 49.27846063], [-122.79044164, 49.2784624], [-122.79065099, 49.26805622], [-122.79074673, 49.26511571], [-122.79074913, 49.26473892], [-122.79079349, 49.26317212], [-122.79084193, 49.26121719], [-122.79085149, 49.26088166], [-122.79108626, 49.26088174], [-122.79202142, 49.26087258], [-122.79212407, 49.26085585], [-122.79307384, 49.26074903], [-122.79488631, 49.26070915], [-122.79563724, 49.26058383], [-122.7960364, 49.26038728], [-122.79707427, 49.25964669], [-122.7973158, 49.25926928], [-122.79741453, 49.25850733], [-122.79742523, 49.25771262], [-122.79740136, 49.25748901], [-122.79716129, 49.25691364], [-122.79715676, 49.25641801], [-122.79783035, 49.25532137], [-122.79793777, 49.25491546], [-122.79793502, 49.2547455], [-122.7979483, 49.25458784], [-122.79797879, 49.25429166], [-122.79781487, 49.25329686], [-122.79759775, 49.25236756], [-122.79731142, 49.25180072], [-122.79699626, 49.2513407], [-122.79616351, 49.25046909], [-122.79595984, 49.25018282], [-122.79557507, 49.24940093], [-122.79548021, 49.24899788], [-122.7955084, 49.24870306], [-122.79561886, 49.24845099], [-122.79595546, 49.24829859], [-122.79651659, 49.2483584], [-122.79747317, 49.24866319], [-122.79759532, 49.24867458], [-122.79790123, 49.24859055], [-122.79820316, 49.24832423], [-122.79826238, 49.24817611], [-122.79822006, 49.24790745], [-122.79820167, 49.24775697], [-122.79818184, 49.24766481], [-122.79813271, 49.24735292], [-122.79827207, 49.24698262], [-122.79848727, 49.24671914], [-122.79856485, 49.24667326], [-122.79864061, 49.24662459], [-122.79875214, 49.24656248], [-122.79887611, 49.24652637], [-122.7989406, 49.24650101], [-122.7990316, 49.24647133], [-122.79979258, 49.24641152], [-122.80130724, 49.24640297], [-122.80175436, 49.24632749], [-122.80231192, 49.24613237], [-122.80290081, 49.24557265], [-122.80294524, 49.24532911], [-122.80278716, 49.24503573], [-122.80226984, 49.24454438], [-122.80179929, 49.24399463], [-122.80175022, 49.24374682], [-122.80179095, 49.24358161], [-122.80206338, 49.24321132], [-122.80252123, 49.24285242], [-122.80372633, 49.24233258], [-122.80454297, 49.24211183], [-122.80583864, 49.24192668], [-122.80658307, 49.24167602], [-122.806873, 49.24140399], [-122.80695331, 49.24072749], [-122.80682772, 49.24043838], [-122.80681033, 49.24005242], [-122.8069995, 49.23901702], [-122.80731992, 49.23829494], [-122.8073553, 49.23785914], [-122.80724039, 49.2375629], [-122.80624095, 49.23671265], [-122.80567091, 49.23646057], [-122.80448009, 49.23618426], [-122.80226185, 49.23616148], [-122.80097799, 49.23624693], [-122.80066355, 49.23619696], [-122.80022852, 49.23590512], [-122.80011744, 49.23573849], [-122.80010881, 49.23506911], [-122.80032641, 49.234639], [-122.80043875, 49.23411917], [-122.80150631, 49.23260523], [-122.80289431, 49.23106138], [-122.80349655, 49.2301499], [-122.80374408, 49.22996807], [-122.80551565, 49.22891083], [-122.8062971, 49.22825569], [-122.80647962, 49.22790534], [-122.80652654, 49.22729862], [-122.80646314, 49.22706078], [-122.80506091, 49.22522782], [-122.80503639, 49.2203831], [-122.84299841, 49.21987875], [-122.85573477, 49.22062667], [-122.86677561, 49.22083033], [-122.87636613, 49.21989243]]]}}]}