{
"type": "FeatureCollection",
"name": "2018_Ward_Boundaries",
"crs": { "type": "name", "properties": { "name": "urn:ogc:def:crs:OGC:1.3:CRS84" } },
"features": [
{ "type": "Feature", "properties": { "OBJECTID": 1, "ID": 0, "YEAR": 2018, "WARD_NUM": 2, "SHAPEAREA": 32200494.759531502, "SHAPELEN": 27714.298382124402 }, "geometry": { "type": "Polygon", "coordinates": [ [ [ -79.001317248068474, 43.905020400189279 ], [ -79.006484575225144, 43.917985871342218 ], [ -79.006974186976052, 43.919157414662756 ], [ -79.007955262978228, 43.921286569418392 ], [ -79.00837526969282, 43.922156619212025 ], [ -79.008485519206687, 43.922375605823468 ], [ -79.008717652694628, 43.922328278344544 ], [ -79.013398586766414, 43.921313124315077 ], [ -79.018187978075517, 43.920247330851687 ], [ -79.01842642151027, 43.920191649649546 ], [ -79.023256176289991, 43.919097676348848 ], [ -79.028082576129947, 43.918015282529794 ], [ -79.028324115972509, 43.917965423264384 ], [ -79.033155191754588, 43.916904016356348 ], [ -79.037927537358513, 43.915726276928055 ], [ -79.038164286259956, 43.915666358502925 ], [ -79.042686288948332, 43.914636287829758 ], [ -79.043453090311544, 43.914462253615909 ], [ -79.047866249287679, 43.913466629983482 ], [ -79.048103660612242, 43.913408383156963 ], [ -79.053235405369549, 43.912277075210604 ], [ -79.057711210031812, 43.911194183967027 ], [ -79.05777486506706, 43.911178332604706 ], [ -79.057892596291936, 43.911149014893546 ], [ -79.057892438427373, 43.911148661075138 ], [ -79.058010510179699, 43.911120089114945 ], [ -79.058128173808768, 43.911091617235464 ], [ -79.062743970117594, 43.91001486581289 ], [ -79.06474384072294, 43.909540531174351 ], [ -79.064982548794902, 43.909483549617825 ], [ -79.06776261230273, 43.908823945577858 ], [ -79.07259934184853, 43.907737653984562 ], [ -79.077401162539047, 43.906636811290348 ], [ -79.077639630816904, 43.906581280237688 ], [ -79.082437425161018, 43.905480581522532 ], [ -79.083441867223272, 43.905256997106598 ], [ -79.088136151170502, 43.904185361066112 ], [ -79.087920852340901, 43.903650892574362 ], [ -79.087182026371309, 43.903811059510865 ], [ -79.082943030424772, 43.893076550854097 ], [ -79.082979503607461, 43.893069017486454 ], [ -79.082812472424678, 43.892645958078219 ], [ -79.080488010666897, 43.893568401841392 ], [ -79.07799419587046, 43.894592026238684 ], [ -79.077416047253166, 43.893104987207927 ], [ -79.077008991861675, 43.892056412602223 ], [ -79.076911605950372, 43.891787124987616 ], [ -79.07659774743928, 43.890946417051119 ], [ -79.076446574694771, 43.89061765752227 ], [ -79.076396138213738, 43.890462800098277 ], [ -79.076037353730285, 43.889536242943592 ], [ -79.075929881712568, 43.889266613458609 ], [ -79.075307150020507, 43.887707466321118 ], [ -79.075283105307406, 43.887647076387722 ], [ -79.075218810892906, 43.887486032686141 ], [ -79.075038838530588, 43.88752764660839 ], [ -79.07494535420318, 43.887308454357047 ], [ -79.07297752808519, 43.882671324877045 ], [ -79.072606759991103, 43.881817364140886 ], [ -79.072240300292734, 43.880962244930039 ], [ -79.071871774105645, 43.880109180175587 ], [ -79.071467316069004, 43.879261291381432 ], [ -79.070623905894081, 43.877335670573324 ], [ -79.069769056560872, 43.875354258536603 ], [ -79.075862894680142, 43.871710158739255 ], [ -79.078359175827288, 43.870214594087741 ], [ -79.077817879736514, 43.868969818696115 ], [ -79.077778299416707, 43.868878797069982 ], [ -79.07683291360226, 43.869101826173939 ], [ -79.074998431009192, 43.869504357245503 ], [ -79.073208766767593, 43.869922650573571 ], [ -79.072656298207178, 43.870038992954136 ], [ -79.071096763380368, 43.870330161442737 ], [ -79.069484259378527, 43.870638231403767 ], [ -79.068238591768477, 43.870833416421242 ], [ -79.067445811750602, 43.870910587428838 ], [ -79.066415528694435, 43.870976977842638 ], [ -79.065516589439895, 43.870974487922041 ], [ -79.064436173934496, 43.870930264186242 ], [ -79.064147835789001, 43.870923786562152 ], [ -79.063960846666845, 43.870923017131759 ], [ -79.063774042414394, 43.870929105797202 ], [ -79.063587906408443, 43.870942035543145 ], [ -79.063402915029641, 43.870961774833141 ], [ -79.063219544086749, 43.870988271416032 ], [ -79.063038264881797, 43.871021458561628 ], [ -79.062645474085954, 43.87110108473491 ], [ -79.060651287762312, 43.871554413737293 ], [ -79.059486127831761, 43.87181926407083 ], [ -79.058657072294153, 43.872007707328784 ], [ -79.058482091767871, 43.872048850721363 ], [ -79.058253704355266, 43.872109965188997 ], [ -79.05807351506607, 43.872163165141401 ], [ -79.057845435237894, 43.872248881585847 ], [ -79.057725674822393, 43.872293888748821 ], [ -79.057476625340399, 43.872394076687002 ], [ -79.057274299137177, 43.87249649923497 ], [ -79.057102579903926, 43.872595381401531 ], [ -79.056878558890091, 43.872730738212049 ], [ -79.056835787888645, 43.872759658311203 ], [ -79.056659867632561, 43.872878610077507 ], [ -79.056393765701529, 43.873038810993755 ], [ -79.056288579642455, 43.873099046430561 ], [ -79.056099592892082, 43.873195292358268 ], [ -79.055905476592201, 43.873285067193478 ], [ -79.055668652161984, 43.873378436479186 ], [ -79.055433652676996, 43.873459681611394 ], [ -79.054973768069871, 43.873576343751424 ], [ -79.054766666985117, 43.873620616957446 ], [ -79.052998835828532, 43.874025729399996 ], [ -79.051844760488805, 43.874283397600074 ], [ -79.049473373401895, 43.874801895861779 ], [ -79.049423580863973, 43.874812786222428 ], [ -79.046734396452564, 43.875420274302847 ], [ -79.043151705381874, 43.876261352198739 ], [ -79.043082583238117, 43.876276347391311 ], [ -79.038314930634627, 43.877322253252423 ], [ -79.034443688566725, 43.878186588782711 ], [ -79.034441544445627, 43.878187065089051 ], [ -79.033274630918271, 43.878447574488249 ], [ -79.03122117444488, 43.878907718406545 ], [ -79.029951265564407, 43.87919361816035 ], [ -79.028668327823354, 43.879481682847462 ], [ -79.028005304218112, 43.87963940562453 ], [ -79.027032354309256, 43.879870840729616 ], [ -79.026507513334863, 43.878640974243353 ], [ -79.02627287390132, 43.878131653738464 ], [ -79.025988998544634, 43.877484754947837 ], [ -79.024508879258292, 43.87409677902756 ], [ -79.024460477950484, 43.873980715306203 ], [ -79.024060530636291, 43.873110903280931 ], [ -79.023959892831542, 43.872843163270581 ], [ -79.02388253168192, 43.872587791464817 ], [ -79.023816159985401, 43.872251875373308 ], [ -79.023795949217458, 43.872071491859984 ], [ -79.023782311560694, 43.87186621034148 ], [ -79.02379248269493, 43.871589393766534 ], [ -79.023817369572413, 43.871324095124862 ], [ -79.023873172271209, 43.870989482153576 ], [ -79.023895741470412, 43.870890672048482 ], [ -79.023983122190742, 43.870618801407161 ], [ -79.02405961099636, 43.870415880142595 ], [ -79.024148000015842, 43.870207222342529 ], [ -79.024202664928083, 43.870102394745366 ], [ -79.02522376292066, 43.867520974733985 ], [ -79.02575628497091, 43.866270238019595 ], [ -79.026141258178825, 43.865270505880389 ], [ -79.026240145380086, 43.864774239624751 ], [ -79.026282312184449, 43.86427376100886 ], [ -79.02629821077943, 43.863681974105553 ], [ -79.026332227543691, 43.862414885914866 ], [ -79.026317289775434, 43.862276288918949 ], [ -79.026246470167848, 43.862057666601359 ], [ -79.026003065363042, 43.861392801305264 ], [ -79.025898323099042, 43.861209345498722 ], [ -79.025673351130365, 43.86124830527686 ], [ -79.024078554137461, 43.861604650209003 ], [ -79.023683626663313, 43.861706747502694 ], [ -79.023146799274443, 43.861845526194905 ], [ -79.02231247391164, 43.862027253620091 ], [ -79.022104922636231, 43.862066066770481 ], [ -79.02197753074887, 43.862089886565009 ], [ -79.021843893160565, 43.862114874761787 ], [ -79.021487407199601, 43.862190759129753 ], [ -79.021345783336415, 43.862231751713445 ], [ -79.020894154037634, 43.862362470637215 ], [ -79.020419397087167, 43.862470371862656 ], [ -79.019258385858805, 43.86272362042547 ], [ -79.019076413772851, 43.862754201197198 ], [ -79.018848603448788, 43.862792472536434 ], [ -79.018488701530003, 43.862872479409589 ], [ -79.017986785445828, 43.862985202460784 ], [ -79.017959402228968, 43.862992120132226 ], [ -79.017234505591148, 43.863175251565529 ], [ -79.016852474010889, 43.863271761542968 ], [ -79.016001287625571, 43.863448540231666 ], [ -79.015931256279913, 43.863463655391513 ], [ -79.014541030490818, 43.863763700277524 ], [ -79.014394437692403, 43.863803724511307 ], [ -79.013936602239411, 43.863928725787261 ], [ -79.013602760222611, 43.864004114819465 ], [ -79.012869621155076, 43.864146161419796 ], [ -79.012686169956723, 43.864181703200579 ], [ -79.010416043298591, 43.86470029711603 ], [ -79.007804676761253, 43.865289848175209 ], [ -79.003310032405963, 43.866304412040215 ], [ -78.999930441717368, 43.867067136157054 ], [ -78.996064914293513, 43.867939383097585 ], [ -78.993981029495771, 43.868397298589194 ], [ -78.988560035052643, 43.869588305285887 ], [ -78.988280131970086, 43.869649791513503 ], [ -78.988197117204308, 43.869669673217018 ], [ -78.987865234467904, 43.869749158414621 ], [ -78.987304743210814, 43.869883393367502 ], [ -78.986752340354371, 43.86999992049455 ], [ -78.986274475447431, 43.870100722533742 ], [ -78.991441186688775, 43.882035243691455 ], [ -78.99232181690698, 43.883975189833642 ], [ -78.993605253647985, 43.887472997714653 ], [ -78.99397881931759, 43.888460198056812 ], [ -78.994262304906528, 43.889149844515011 ], [ -78.997644894979629, 43.896795035138481 ], [ -79.001317248068474, 43.905020400189279 ] ] ] } },
{ "type": "Feature", "properties": { "OBJECTID": 2, "ID": 0, "YEAR": 2018, "WARD_NUM": 1, "SHAPEAREA": 10777563.506008999, "SHAPELEN": 14798.479069607301 }, "geometry": { "type": "Polygon", "coordinates": [ [ [ -79.02405961099636, 43.870415880142595 ], [ -79.023983122190742, 43.870618801407161 ], [ -79.023895741470412, 43.870890672048482 ], [ -79.023873172271209, 43.870989482153576 ], [ -79.023817369572413, 43.871324095124862 ], [ -79.02379248269493, 43.871589393766534 ], [ -79.023782311560694, 43.87186621034148 ], [ -79.023795949217458, 43.872071491859984 ], [ -79.023816159985401, 43.872251875373308 ], [ -79.02388253168192, 43.872587791464817 ], [ -79.023959892831542, 43.872843163270581 ], [ -79.024060530636291, 43.873110903280931 ], [ -79.024460477950484, 43.873980715306203 ], [ -79.024508879258292, 43.87409677902756 ], [ -79.025988998544634, 43.877484754947837 ], [ -79.02627287390132, 43.878131653738464 ], [ -79.026507513334863, 43.878640974243353 ], [ -79.027032354309256, 43.879870840729616 ], [ -79.028005304218112, 43.87963940562453 ], [ -79.028668327823354, 43.879481682847462 ], [ -79.029951265564407, 43.87919361816035 ], [ -79.03122117444488, 43.878907718406545 ], [ -79.033274630918271, 43.878447574488249 ], [ -79.034441544445627, 43.878187065089051 ], [ -79.034443688566725, 43.878186588782711 ], [ -79.038314930634627, 43.877322253252423 ], [ -79.043082583238117, 43.876276347391311 ], [ -79.043151705381874, 43.876261352198739 ], [ -79.046734396452564, 43.875420274302847 ], [ -79.049423580863973, 43.874812786222428 ], [ -79.049473373401895, 43.874801895861779 ], [ -79.051844760488805, 43.874283397600074 ], [ -79.052998835828532, 43.874025729399996 ], [ -79.054766666985117, 43.873620616957446 ], [ -79.054973768069871, 43.873576343751424 ], [ -79.055433652676996, 43.873459681611394 ], [ -79.055668652161984, 43.873378436479186 ], [ -79.055905476592201, 43.873285067193478 ], [ -79.056099592892082, 43.873195292358268 ], [ -79.056288579642455, 43.873099046430561 ], [ -79.056393765701529, 43.873038810993755 ], [ -79.056659867632561, 43.872878610077507 ], [ -79.056835787888645, 43.872759658311203 ], [ -79.056878558890091, 43.872730738212049 ], [ -79.057102579903926, 43.872595381401531 ], [ -79.057274299137177, 43.87249649923497 ], [ -79.057476625340399, 43.872394076687002 ], [ -79.057725674822393, 43.872293888748821 ], [ -79.057845435237894, 43.872248881585847 ], [ -79.05807351506607, 43.872163165141401 ], [ -79.058253704355266, 43.872109965188997 ], [ -79.058482091767871, 43.872048850721363 ], [ -79.058657072294153, 43.872007707328784 ], [ -79.059486127831761, 43.87181926407083 ], [ -79.060651287762312, 43.871554413737293 ], [ -79.062645474085954, 43.87110108473491 ], [ -79.063038264881797, 43.871021458561628 ], [ -79.063219544086749, 43.870988271416032 ], [ -79.063402915029641, 43.870961774833141 ], [ -79.063587906408443, 43.870942035543145 ], [ -79.063774042414394, 43.870929105797202 ], [ -79.063960846666845, 43.870923017131759 ], [ -79.064147835789001, 43.870923786562152 ], [ -79.064436173934496, 43.870930264186242 ], [ -79.065516589439895, 43.870974487922041 ], [ -79.066415528694435, 43.870976977842638 ], [ -79.067445811750602, 43.870910587428838 ], [ -79.068238591768477, 43.870833416421242 ], [ -79.069484259378527, 43.870638231403767 ], [ -79.071096763380368, 43.870330161442737 ], [ -79.072656298207178, 43.870038992954136 ], [ -79.073208766767593, 43.869922650573571 ], [ -79.074998431009192, 43.869504357245503 ], [ -79.07683291360226, 43.869101826173939 ], [ -79.077778299416707, 43.868878797069982 ], [ -79.078130458401333, 43.86879571432479 ], [ -79.078144286536386, 43.868792452697903 ], [ -79.078110127785848, 43.868713678032947 ], [ -79.078078296414603, 43.868640399540773 ], [ -79.076919047699462, 43.865969871010954 ], [ -79.07661949669459, 43.865264906406964 ], [ -79.076603354270304, 43.865242567005204 ], [ -79.076201887547327, 43.864291286720785 ], [ -79.076145556900784, 43.864166365056946 ], [ -79.076091101804565, 43.864034984314053 ], [ -79.076028518015562, 43.863905395195268 ], [ -79.075979183415825, 43.863772877054217 ], [ -79.075921284130473, 43.863642242229773 ], [ -79.075866118344678, 43.863511010563286 ], [ -79.075819464718819, 43.863405646195133 ], [ -79.075739935651995, 43.863252085931329 ], [ -79.075636527878331, 43.86298797432319 ], [ -79.075575384948976, 43.862858142705115 ], [ -79.075518538521393, 43.862727286803143 ], [ -79.075459992014999, 43.862596832598086 ], [ -79.075377368772465, 43.862399967931104 ], [ -79.075292191869408, 43.862203473436168 ], [ -79.075239932903386, 43.862071821332549 ], [ -79.075182487189352, 43.861941110012722 ], [ -79.075125763908815, 43.861810229863643 ], [ -79.075011593546577, 43.86154774419861 ], [ -79.074836884277175, 43.861156159528271 ], [ -79.074406042113623, 43.860132571566844 ], [ -79.073882249884761, 43.858952345202411 ], [ -79.07363076868441, 43.85839815786818 ], [ -79.073500273455053, 43.858089076654338 ], [ -79.073390887161764, 43.857861171423565 ], [ -79.073414608828131, 43.85785520598769 ], [ -79.073320093020271, 43.857672479057797 ], [ -79.073109531847209, 43.857266244980259 ], [ -79.072791973541143, 43.856652790041124 ], [ -79.072672928084074, 43.856424000846992 ], [ -79.072508441936634, 43.856105362133171 ], [ -79.072325161158417, 43.855721533808392 ], [ -79.071112709401049, 43.853079482751248 ], [ -79.070962377586767, 43.853149785636369 ], [ -79.070878589890569, 43.853231468870035 ], [ -79.070732191882541, 43.853427917927156 ], [ -79.070683388294867, 43.853543961359811 ], [ -79.070697151937068, 43.853685112567383 ], [ -79.070740114107835, 43.853780640790568 ], [ -79.070730162966427, 43.853829906621556 ], [ -79.070686558883907, 43.853878929142098 ], [ -79.070616378525955, 43.853922895697089 ], [ -79.07054012714903, 43.85394234119687 ], [ -79.07043083686078, 43.853961791325275 ], [ -79.070322181529079, 43.853961593766229 ], [ -79.070234257454203, 43.853950280308084 ], [ -79.070162753287903, 43.853921223597531 ], [ -79.070099092765872, 43.853859536402098 ], [ -79.07003217616527, 43.853758477545512 ], [ -79.069980990421072, 43.853660960799196 ], [ -79.069940695807588, 43.853576733572574 ], [ -79.069904140855584, 43.853502432881093 ], [ -79.069857970720761, 43.853457520212423 ], [ -79.069807039907744, 43.853426117918453 ], [ -79.069732656631544, 43.853429748229964 ], [ -79.069650974141069, 43.853457423333509 ], [ -79.069580681569136, 43.853487624560948 ], [ -79.069555011546512, 43.853525632261025 ], [ -79.069548634318167, 43.853576933756962 ], [ -79.069583324669395, 43.853719183309757 ], [ -79.06957852028691, 43.85378262473354 ], [ -79.069555045775687, 43.853842621038751 ], [ -79.069532059474199, 43.854062259077388 ], [ -79.069528180779514, 43.854152956317861 ], [ -79.069580984171949, 43.854213905747649 ], [ -79.06966830974882, 43.854249905377728 ], [ -79.069815483749849, 43.854255470425151 ], [ -79.069961061950352, 43.854273861761421 ], [ -79.07010293273035, 43.854312377095177 ], [ -79.070203109202509, 43.854345170269376 ], [ -79.070265599433156, 43.854372957352261 ], [ -79.070318421031672, 43.854412080391164 ], [ -79.070336041300891, 43.854457990805024 ], [ -79.070336345872548, 43.854507755756543 ], [ -79.070318395127345, 43.854562615366369 ], [ -79.070140731943241, 43.854709081810128 ], [ -79.070038982270773, 43.854868996050172 ], [ -79.070049065918752, 43.855024245885069 ], [ -79.070052342352952, 43.855203407531377 ], [ -79.070030647835353, 43.855314436279158 ], [ -79.069954794038765, 43.855420180613265 ], [ -79.069841409739396, 43.855472871354124 ], [ -79.069717438315152, 43.855479513719345 ], [ -79.069564564934353, 43.855446350956846 ], [ -79.069385424432767, 43.855350200176616 ], [ -79.069209169181661, 43.855235028406341 ], [ -79.069038070385801, 43.855112003309657 ], [ -79.068718456544303, 43.854914390470732 ], [ -79.06820430496704, 43.854665431815825 ], [ -79.067953150559532, 43.854591290103741 ], [ -79.067716092492333, 43.854547964955763 ], [ -79.067561180051797, 43.854578107547738 ], [ -79.06733011300895, 43.854688756848262 ], [ -79.067048436422425, 43.854856156640551 ], [ -79.066685062196882, 43.855092463701538 ], [ -79.066007106215082, 43.853519628803319 ], [ -79.065495293914765, 43.85233622556153 ], [ -79.065414473206431, 43.85215860019774 ], [ -79.065156502205539, 43.85221629354912 ], [ -79.06506419773946, 43.85199908478662 ], [ -79.064879428500333, 43.851563067076491 ], [ -79.064500488238636, 43.850684650851811 ], [ -79.064377561709534, 43.85071231578511 ], [ -79.064154225754933, 43.850182011111094 ], [ -79.063581552925257, 43.848836147550706 ], [ -79.063458914034157, 43.848547871494986 ], [ -79.062946955834988, 43.847344687206032 ], [ -79.062837321364484, 43.847091131584754 ], [ -79.062378340413602, 43.846016627366218 ], [ -79.061822278881763, 43.844714802179958 ], [ -79.061806597232604, 43.844677994354392 ], [ -79.06140982050448, 43.843744531909238 ], [ -79.061369152319799, 43.843650972946634 ], [ -79.061246259994022, 43.843361588878146 ], [ -79.057238605333865, 43.845213217079433 ], [ -79.056488866781365, 43.845556833699163 ], [ -79.055542143196831, 43.845976864037091 ], [ -79.055166257240444, 43.846126100691585 ], [ -79.054769074023895, 43.846264538362767 ], [ -79.054224963146112, 43.846438278068689 ], [ -79.053841563659844, 43.846544084358058 ], [ -79.053311376116568, 43.846680881283952 ], [ -79.053022114818631, 43.846752553886851 ], [ -79.052624317161914, 43.846836961381811 ], [ -79.052163851353882, 43.846930653052496 ], [ -79.050831951583064, 43.847197066358746 ], [ -79.049613361210262, 43.84742993373483 ], [ -79.048249342350317, 43.847692896357806 ], [ -79.041574761636042, 43.848996796052795 ], [ -79.040837167177983, 43.849140864364813 ], [ -79.040627851347466, 43.849181733901432 ], [ -79.040556440361868, 43.849195004754641 ], [ -79.040484517190265, 43.849208338805937 ], [ -79.040483242133604, 43.849208524016341 ], [ -79.040479083951467, 43.849209371051856 ], [ -79.040469205956313, 43.849211263424181 ], [ -79.040412616259644, 43.849222132373392 ], [ -79.040242847936014, 43.849254712054957 ], [ -79.039512184435225, 43.849396648810583 ], [ -79.038242374587981, 43.849655616198362 ], [ -79.037723348446889, 43.849753636983323 ], [ -79.03711287657363, 43.849876149403975 ], [ -79.036502402307036, 43.849998658512476 ], [ -79.035477346418716, 43.850198605812302 ], [ -79.034758251781611, 43.850343682191678 ], [ -79.033994266433666, 43.850493644704827 ], [ -79.033475294120862, 43.850598678820191 ], [ -79.032685012396456, 43.850768163206645 ], [ -79.03217669631141, 43.850877173506106 ], [ -79.032392526418704, 43.851386129365338 ], [ -79.032535617681773, 43.85172355199434 ], [ -79.032651136222242, 43.851994872897315 ], [ -79.032825801093011, 43.852427078763448 ], [ -79.033120595899064, 43.853121860671649 ], [ -79.03323764891239, 43.853374669096056 ], [ -79.033422001000318, 43.853821275316925 ], [ -79.033481378543357, 43.853968379621058 ], [ -79.033609017144471, 43.854258455365041 ], [ -79.033708752421447, 43.854510956170557 ], [ -79.033805227696291, 43.854724874703955 ], [ -79.033863369091605, 43.854866335717091 ], [ -79.033743108165055, 43.854893331918504 ], [ -79.033598289023871, 43.854925840389818 ], [ -79.033453469760744, 43.854958347774591 ], [ -79.033374854006468, 43.854975997245994 ], [ -79.033308650198208, 43.854990859471798 ], [ -79.03330583733252, 43.854991492612591 ], [ -79.03316382562835, 43.855023367297271 ], [ -79.033019005910688, 43.855055874121753 ], [ -79.033008860150034, 43.855058153787979 ], [ -79.032874185893576, 43.855088385258725 ], [ -79.03278316174088, 43.855108814323998 ], [ -79.032729365961671, 43.855120889010209 ], [ -79.032608303013461, 43.855148065578277 ], [ -79.032584544309188, 43.855153402451791 ], [ -79.032465750341416, 43.855180060627106 ], [ -79.032439719100182, 43.855185905744086 ], [ -79.032323207322804, 43.855212060165535 ], [ -79.032294898506564, 43.855218415234205 ], [ -79.032180659331289, 43.855244054938126 ], [ -79.032106334891324, 43.8552607375481 ], [ -79.032038106100458, 43.855276053043461 ], [ -79.03189555766734, 43.855308051953422 ], [ -79.031870457782176, 43.855313684296476 ], [ -79.03175301545312, 43.855340046290351 ], [ -79.03166937356103, 43.855358819860747 ], [ -79.031610461900343, 43.855372040253506 ], [ -79.031477834383452, 43.855401813747676 ], [ -79.031467913026844, 43.855404038620634 ], [ -79.031283781814906, 43.855445367233671 ], [ -79.031283003361679, 43.855445542892092 ], [ -79.031088168216655, 43.855489275233573 ], [ -79.031046199864946, 43.855498692554733 ], [ -79.030893332915895, 43.855533003637682 ], [ -79.0306985021966, 43.855576735388858 ], [ -79.030512590037631, 43.855618460621514 ], [ -79.030393797785663, 43.85564512386815 ], [ -79.030225705159111, 43.855682846779452 ], [ -79.030215610504598, 43.855685117174183 ], [ -79.030199922886567, 43.855688637154586 ], [ -79.030091341627923, 43.855713002887185 ], [ -79.030037413045861, 43.855725110025958 ], [ -79.029859214025336, 43.855765105273029 ], [ -79.029681016107901, 43.855805097559276 ], [ -79.029502821602819, 43.855845092326618 ], [ -79.029301936967471, 43.855890179435207 ], [ -79.029081448400234, 43.855939662017626 ], [ -79.02904271845847, 43.85594835386722 ], [ -79.028769600305068, 43.856009650677798 ], [ -79.028142359746369, 43.856150414189152 ], [ -79.027744063605994, 43.85623980048581 ], [ -79.027505080356107, 43.856293432759621 ], [ -79.027142995904725, 43.856374686282656 ], [ -79.027471871449592, 43.857151007060843 ], [ -79.026982459309238, 43.857260911969519 ], [ -79.026781350151026, 43.857306077178166 ], [ -79.026658639992661, 43.857333634025814 ], [ -79.026551726028856, 43.857357639828976 ], [ -79.026444816927082, 43.857381646516124 ], [ -79.02633790753481, 43.857405659400378 ], [ -79.02623099329351, 43.85742966579803 ], [ -79.026124083854796, 43.857453674879338 ], [ -79.026064688545219, 43.857467010092932 ], [ -79.025957780340377, 43.85749101543805 ], [ -79.025872962392199, 43.857510063341692 ], [ -79.025850864353913, 43.857515027751191 ], [ -79.025743954710634, 43.85753903377109 ], [ -79.025676957414007, 43.857554080423427 ], [ -79.025633988798219, 43.857563725157213 ], [ -79.025601404650445, 43.857571041874778 ], [ -79.025489109500057, 43.857596255583637 ], [ -79.025458860542471, 43.857603053504356 ], [ -79.025344229901648, 43.857628790322345 ], [ -79.0253163101886, 43.85763506124615 ], [ -79.025199426663193, 43.857661306389055 ], [ -79.025110799994863, 43.857681205342281 ], [ -79.025054556858649, 43.857693836426797 ], [ -79.024909691847014, 43.85772636726351 ], [ -79.024885809902798, 43.857731729210343 ], [ -79.024764823071877, 43.8577588942495 ], [ -79.024619952782629, 43.857791424626448 ], [ -79.024551885730361, 43.857806707818597 ], [ -79.024475865818772, 43.857823779291522 ], [ -79.024360807951638, 43.85785266796529 ], [ -79.02439055716107, 43.857918192329137 ], [ -79.024457300442279, 43.858037625737538 ], [ -79.024470654156971, 43.858063469865847 ], [ -79.024546512305903, 43.858210289273408 ], [ -79.024660420442444, 43.85846745459073 ], [ -79.024709055482631, 43.858613405191981 ], [ -79.024739677261053, 43.85868990632386 ], [ -79.024793297319334, 43.858824328547975 ], [ -79.024900482194212, 43.859052665152497 ], [ -79.025024956309665, 43.859266534793967 ], [ -79.025147015259009, 43.859528702401086 ], [ -79.025290538171461, 43.859824463859724 ], [ -79.025439523067263, 43.860088627174463 ], [ -79.025624870446777, 43.860516706435263 ], [ -79.02584810548889, 43.861064448527955 ], [ -79.025898323099042, 43.861209345498722 ], [ -79.026003065363042, 43.861392801305264 ], [ -79.026246470167848, 43.862057666601359 ], [ -79.026317289775434, 43.862276288918949 ], [ -79.026332227543691, 43.862414885914866 ], [ -79.02629821077943, 43.863681974105553 ], [ -79.026282312184449, 43.86427376100886 ], [ -79.026240145380086, 43.864774239624751 ], [ -79.026141258178825, 43.865270505880389 ], [ -79.02575628497091, 43.866270238019595 ], [ -79.02522376292066, 43.867520974733985 ], [ -79.024202664928083, 43.870102394745366 ], [ -79.024148000015842, 43.870207222342529 ], [ -79.02405961099636, 43.870415880142595 ] ] ] } },
{ "type": "Feature", "properties": { "OBJECTID": 3, "ID": 0, "YEAR": 2018, "WARD_NUM": 3, "SHAPEAREA": 24784199.831671201, "SHAPELEN": 22513.677352122002 }, "geometry": { "type": "Polygon", "coordinates": [ [ [ -79.061246259994022, 43.843361588878146 ], [ -79.060977137459076, 43.842727860018286 ], [ -79.060883422305793, 43.842507849662049 ], [ -79.060766579597328, 43.842232533116366 ], [ -79.060630107322083, 43.841912025745927 ], [ -79.059958941672264, 43.842362210180589 ], [ -79.058981094753747, 43.843018079327713 ], [ -79.058525244684489, 43.843227505897879 ], [ -79.056299689712247, 43.844236568341969 ], [ -79.054313149417581, 43.844869779040366 ], [ -79.052603803200611, 43.845247523337001 ], [ -79.051775318410222, 43.845458071825895 ], [ -79.05163605640773, 43.845494680313415 ], [ -79.051397520770337, 43.845547018098308 ], [ -79.049057467486577, 43.840031699273155 ], [ -79.048037132143037, 43.837626532992083 ], [ -79.047948245674149, 43.837593111937238 ], [ -79.045865827047805, 43.832678642559792 ], [ -79.04506714342547, 43.83079354755597 ], [ -79.044789758143153, 43.830138536598426 ], [ -79.042979825458204, 43.825865921656941 ], [ -79.042344027149497, 43.824365017707322 ], [ -79.040493426608094, 43.819995953390347 ], [ -79.040420180871536, 43.819822791864247 ], [ -79.038814187674447, 43.81599915928377 ], [ -79.038808711015221, 43.815986684449648 ], [ -79.038762639800964, 43.815988434357344 ], [ -79.038520200378244, 43.815978836650181 ], [ -79.038326765340983, 43.81599479200672 ], [ -79.03820229573769, 43.815990493818596 ], [ -79.03789803544916, 43.815991850255898 ], [ -79.037472655464825, 43.815972206985208 ], [ -79.037266223986435, 43.815946533439877 ], [ -79.037120358881126, 43.815940230540491 ], [ -79.036956906815803, 43.815950814887621 ], [ -79.036658988743397, 43.815972486426951 ], [ -79.036556979056499, 43.81597831970037 ], [ -79.036348432479258, 43.815967072389441 ], [ -79.036152368838685, 43.815959649713889 ], [ -79.036041993929842, 43.815945784762604 ], [ -79.035995373659148, 43.815946227599675 ], [ -79.03594508725682, 43.815957456699103 ], [ -79.035798809996422, 43.81603099503743 ], [ -79.035643464746414, 43.816139358859999 ], [ -79.035606358806973, 43.816170670024697 ], [ -79.035533932987931, 43.816304475583649 ], [ -79.035073046510078, 43.816391545333317 ], [ -79.034953347844308, 43.816413688126794 ], [ -79.034787482941425, 43.816434775549986 ], [ -79.034508891912338, 43.816500899552238 ], [ -79.034503657342285, 43.816502142023495 ], [ -79.034157324535883, 43.816545582042508 ], [ -79.034153818466265, 43.816545835036202 ], [ -79.033537552457673, 43.816590265110435 ], [ -79.033141840957157, 43.816575944992508 ], [ -79.032856289764126, 43.816551978712575 ], [ -79.032454380063754, 43.816521574444018 ], [ -79.032450264985215, 43.816521516177389 ], [ -79.032140063238032, 43.816514017867441 ], [ -79.031274162950155, 43.816485047431748 ], [ -79.030854651510978, 43.816460083886803 ], [ -79.030469867739143, 43.816442316222897 ], [ -79.029827990625165, 43.816422135172537 ], [ -79.029446110605448, 43.816404713953688 ], [ -79.028881452277716, 43.816359328653583 ], [ -79.028056883601892, 43.816304145155975 ], [ -79.0277376762008, 43.816278709085331 ], [ -79.027358428544005, 43.816235772386328 ], [ -79.026886759155047, 43.816175584620524 ], [ -79.026501373847424, 43.81612404780055 ], [ -79.025926369381921, 43.816015151532667 ], [ -79.025514067382716, 43.815919776955653 ], [ -79.0252027375723, 43.815815820133352 ], [ -79.024884279712651, 43.815753325833334 ], [ -79.02456102096734, 43.815737757088741 ], [ -79.024235077742162, 43.815754687119643 ], [ -79.023917092534731, 43.815809712035559 ], [ -79.023719038461891, 43.815861891253903 ], [ -79.023536676580804, 43.815944462164779 ], [ -79.023041494599582, 43.816288241797665 ], [ -79.022560412180468, 43.816606941661405 ], [ -79.022185655905929, 43.81682614868749 ], [ -79.022001961381406, 43.816950878487496 ], [ -79.021891359742526, 43.817027398088683 ], [ -79.021809551999127, 43.817061604190677 ], [ -79.021707045962998, 43.817092456324055 ], [ -79.021564305213815, 43.817132285931422 ], [ -79.021475523007354, 43.817150106959936 ], [ -79.021393129717666, 43.817176467714098 ], [ -79.021327959632899, 43.81721094811585 ], [ -79.021250802719806, 43.817256079168168 ], [ -79.020946410194, 43.817407742343612 ], [ -79.020525572430557, 43.817583397535344 ], [ -79.020223090425006, 43.817700740552681 ], [ -79.02000995711299, 43.817782193599832 ], [ -79.01966431286273, 43.817869294064771 ], [ -79.019452128069886, 43.817920629362654 ], [ -79.01927784976175, 43.817957525204811 ], [ -79.01915501616682, 43.81797297313355 ], [ -79.019052110429868, 43.817989954948892 ], [ -79.018980739994163, 43.818009869458642 ], [ -79.018903563337531, 43.818029083599534 ], [ -79.018814984134309, 43.818066792255941 ], [ -79.018696437091563, 43.818131124174776 ], [ -79.018576925116534, 43.818199658305936 ], [ -79.018118030161673, 43.818446134642357 ], [ -79.018076761545885, 43.818476472011852 ], [ -79.01782934827223, 43.818577665321008 ], [ -79.017799859919961, 43.818586365227688 ], [ -79.017707974353428, 43.818596900506137 ], [ -79.01761373656862, 43.818621585417162 ], [ -79.017544101762581, 43.818652515295668 ], [ -79.017369707032444, 43.818740159305904 ], [ -79.017185616557086, 43.818876928398112 ], [ -79.016632172112196, 43.819177672508282 ], [ -79.0162487106725, 43.819331816460505 ], [ -79.015892075625516, 43.819420907878829 ], [ -79.015671384222429, 43.819465970460215 ], [ -79.015328617909688, 43.819540449623638 ], [ -79.015030355424884, 43.819628920959424 ], [ -79.014853365647596, 43.81967239403869 ], [ -79.014651418699117, 43.819715453836984 ], [ -79.014327585565425, 43.819743840232633 ], [ -79.014035464337468, 43.819743220983732 ], [ -79.013737143660833, 43.819728035275617 ], [ -79.013501677212531, 43.819672909798264 ], [ -79.013276840421341, 43.819597471173516 ], [ -79.013151462495969, 43.819561647098972 ], [ -79.012984883487732, 43.81953899878382 ], [ -79.012812648130222, 43.819536171324501 ], [ -79.012662205740199, 43.819557154493978 ], [ -79.01247667931456, 43.819554682349711 ], [ -79.012215686863684, 43.819517210897516 ], [ -79.012025701926021, 43.819497790462876 ], [ -79.011808641245565, 43.819492383442899 ], [ -79.011631243182265, 43.819496071168935 ], [ -79.011460041521673, 43.819514324401474 ], [ -79.01135520074034, 43.819539704625726 ], [ -79.011235080214618, 43.819574473281889 ], [ -79.011110325957091, 43.819624230407285 ], [ -79.01093780299982, 43.819710559215423 ], [ -79.010794108510126, 43.81980640500187 ], [ -79.010403069036414, 43.820090991319177 ], [ -79.010280469861755, 43.820204060310232 ], [ -79.010101758576937, 43.820301736196456 ], [ -79.009926729768836, 43.820414537109926 ], [ -79.009620130767971, 43.820624242299985 ], [ -79.009316720656244, 43.820788636871384 ], [ -79.009019437742467, 43.820958692611534 ], [ -79.00869315601615, 43.821126261321503 ], [ -79.008539967952132, 43.821206277962688 ], [ -79.008442106421967, 43.821273956147657 ], [ -79.008298797309706, 43.821383666459433 ], [ -79.008040784632939, 43.821540886314594 ], [ -79.00784020726681, 43.821645426127525 ], [ -79.007669988208093, 43.821711298923951 ], [ -79.00746069834814, 43.821801831442357 ], [ -79.007286804264226, 43.821878489757793 ], [ -79.007147536133004, 43.821939452688923 ], [ -79.007041722614659, 43.821969030131967 ], [ -79.006948282657987, 43.821975913785892 ], [ -79.006826403682496, 43.821987145105687 ], [ -79.006724846225268, 43.822013781217521 ], [ -79.006574954427833, 43.8221209696394 ], [ -79.006427776237743, 43.822247486340054 ], [ -79.006289874978961, 43.822344025329357 ], [ -79.005918302538873, 43.822538524799825 ], [ -79.005574200287668, 43.822732875982133 ], [ -79.005324877063416, 43.822878182879165 ], [ -79.005009200917627, 43.82304227070717 ], [ -79.004689647971432, 43.823197254873001 ], [ -79.004316497608514, 43.823336279416921 ], [ -79.004072179408766, 43.823428633729364 ], [ -79.00364429194164, 43.823613750521751 ], [ -79.003388180326269, 43.823736640820101 ], [ -79.003232647245426, 43.823785275120386 ], [ -79.003134765433586, 43.823827035219729 ], [ -79.003054307175518, 43.823896804647852 ], [ -79.002963786643704, 43.823968819177239 ], [ -79.002859918084113, 43.824041815766563 ], [ -79.002725486206813, 43.824133587853346 ], [ -79.002581960261239, 43.824223400065662 ], [ -79.002450817084281, 43.82431643220076 ], [ -79.002313669896964, 43.824388873401816 ], [ -79.002178061345035, 43.824439042236534 ], [ -79.002028138636931, 43.824494396915199 ], [ -79.001886927273077, 43.824563757532673 ], [ -79.001407966602983, 43.82481008631413 ], [ -79.001192851272094, 43.824899907514926 ], [ -79.000977728586491, 43.824963815947569 ], [ -79.000743634068826, 43.824996069492542 ], [ -79.000508181866763, 43.825018659588011 ], [ -79.000353602943918, 43.825037172649004 ], [ -79.000204635644323, 43.825062408548405 ], [ -79.000074828017816, 43.825113275156248 ], [ -78.999862616684581, 43.825216401512961 ], [ -78.999679234346843, 43.825329047523098 ], [ -78.999520051289849, 43.825492117332644 ], [ -78.999344612199067, 43.825642861776657 ], [ -78.999245764499875, 43.825714732897964 ], [ -78.999185603239397, 43.825748079123038 ], [ -78.999134725770489, 43.825777361649571 ], [ -78.999037614037817, 43.825820938713903 ], [ -78.998877055600545, 43.825922513559625 ], [ -78.998751124997312, 43.826008396556603 ], [ -78.998635255324572, 43.826092036415091 ], [ -78.998567546760839, 43.826127064306618 ], [ -78.998447023193506, 43.826173864532699 ], [ -78.997831823842446, 43.826410672037518 ], [ -78.997510670914451, 43.826524896564898 ], [ -78.997139809660069, 43.826654628870706 ], [ -78.99672249629559, 43.826741666286487 ], [ -78.996175559985872, 43.826873540583854 ], [ -78.995644294235106, 43.82700989365604 ], [ -78.995139339940764, 43.827156326300141 ], [ -78.994688549815734, 43.827248821842922 ], [ -78.993935145838307, 43.827303106701073 ], [ -78.993379859943488, 43.827331174785911 ], [ -78.992916283104435, 43.827354749738575 ], [ -78.992223039245175, 43.827349767249849 ], [ -78.991556696552635, 43.827388619999127 ], [ -78.990977193973038, 43.827341250169219 ], [ -78.99069589263803, 43.82733923800955 ], [ -78.990364359163806, 43.827378349375209 ], [ -78.989827553836406, 43.827369271407065 ], [ -78.989164106549353, 43.827369591729841 ], [ -78.988466026379456, 43.827359684395503 ], [ -78.987906286073212, 43.827370776563377 ], [ -78.987449282302705, 43.827345022799058 ], [ -78.986923203033072, 43.827266883743235 ], [ -78.986678443104481, 43.82716393926043 ], [ -78.986570479080939, 43.827130185532333 ], [ -78.986449745861123, 43.827105257004433 ], [ -78.986297281924791, 43.82708341007077 ], [ -78.985981717181517, 43.827085941361666 ], [ -78.985661699535044, 43.8270715233148 ], [ -78.985267388819494, 43.827089601584717 ], [ -78.985006096301561, 43.827125886338919 ], [ -78.984840092300786, 43.827136955102283 ], [ -78.984256941462661, 43.827125338037341 ], [ -78.983835350565315, 43.827111616559392 ], [ -78.983646513133976, 43.827107836214289 ], [ -78.983531199989301, 43.827121564264111 ], [ -78.98343561995928, 43.827142855973023 ], [ -78.983312568155824, 43.827190201499562 ], [ -78.983120442993396, 43.82726289960496 ], [ -78.982106410014794, 43.827604395208382 ], [ -78.981747692727339, 43.827732139177897 ], [ -78.98156485180057, 43.827800772411422 ], [ -78.981406969628694, 43.827843912555736 ], [ -78.981242316202199, 43.827864641843611 ], [ -78.981094881582749, 43.827867581669125 ], [ -78.980829619018209, 43.827858892303887 ], [ -78.980734812107187, 43.827856090215278 ], [ -78.980641940616934, 43.827870795442195 ], [ -78.980520239125241, 43.827901889706816 ], [ -78.98041440293602, 43.827957355107067 ], [ -78.980301987975267, 43.828010301052352 ], [ -78.98010540422105, 43.828117871504986 ], [ -78.979800468741573, 43.828255554794147 ], [ -78.979486435687235, 43.828417190553417 ], [ -78.979280370532535, 43.828508931112239 ], [ -78.979131579659196, 43.828554029619184 ], [ -78.978646887842558, 43.828741710148101 ], [ -78.978384322712728, 43.828830085021266 ], [ -78.977921491238945, 43.829036812748242 ], [ -78.977564299474949, 43.829220012539686 ], [ -78.97746968084796, 43.829263009395966 ], [ -78.977259355126662, 43.829331774842522 ], [ -78.977169576293832, 43.829353760940265 ], [ -78.977090048501154, 43.829393398065712 ], [ -78.976703436948696, 43.829636963345635 ], [ -78.975979555459602, 43.830039348570253 ], [ -78.975750645179033, 43.830142148469044 ], [ -78.975498708593307, 43.830262033725205 ], [ -78.975152534291965, 43.83043878194762 ], [ -78.974757587464438, 43.830682200036556 ], [ -78.97460120974155, 43.830803653992703 ], [ -78.974434427436847, 43.830893683662438 ], [ -78.974290459782793, 43.830969592232634 ], [ -78.974087861205987, 43.831056561628507 ], [ -78.97375232293534, 43.831212995828636 ], [ -78.973596742348036, 43.831287501868069 ], [ -78.973350788058227, 43.831453886405512 ], [ -78.973083937572824, 43.831597017154209 ], [ -78.972911715954325, 43.831671241397309 ], [ -78.972635570007938, 43.831844345494247 ], [ -78.972450955088092, 43.83196717078463 ], [ -78.972140150285028, 43.832259611767668 ], [ -78.971873084837, 43.832486502959085 ], [ -78.971562472344502, 43.832747004801512 ], [ -78.971460871978636, 43.832825434840522 ], [ -78.971304113112282, 43.832961988989084 ], [ -78.971107349272231, 43.833130788074229 ], [ -78.970756439102388, 43.833375842197903 ], [ -78.970695904748155, 43.833407057174618 ], [ -78.970647673682507, 43.833431928000806 ], [ -78.97087356866173, 43.833946510458951 ], [ -78.971393285197721, 43.835141173067328 ], [ -78.973483669567273, 43.840010568779213 ], [ -78.978873224283106, 43.852682041101623 ], [ -78.978903921878384, 43.85280014306953 ], [ -78.982724623234063, 43.861736850205382 ], [ -78.982793561126769, 43.861907657489212 ], [ -78.983758605977542, 43.864165746435113 ], [ -78.984271709504029, 43.865376075069278 ], [ -78.984788959824385, 43.866594667535608 ], [ -78.98588112306561, 43.869180932947273 ], [ -78.986274475447431, 43.870100722533742 ], [ -78.986752340354371, 43.86999992049455 ], [ -78.987304743210814, 43.869883393367502 ], [ -78.988197117204308, 43.869669673217018 ], [ -78.988280131970086, 43.869649791513503 ], [ -78.988560035052643, 43.869588305285887 ], [ -78.993981029495771, 43.868397298589194 ], [ -78.996064914293513, 43.867939383097585 ], [ -78.999930441717368, 43.867067136157054 ], [ -79.003310032405963, 43.866304412040215 ], [ -79.007804676761253, 43.865289848175209 ], [ -79.010416043298591, 43.86470029711603 ], [ -79.012686169956723, 43.864181703200579 ], [ -79.012869621155076, 43.864146161419796 ], [ -79.013602760222611, 43.864004114819465 ], [ -79.013936602239411, 43.863928725787261 ], [ -79.014541030490818, 43.863763700277524 ], [ -79.016001287625571, 43.863448540231666 ], [ -79.016852474010889, 43.863271761542968 ], [ -79.017959402228968, 43.862992120132226 ], [ -79.017986785445828, 43.862985202460784 ], [ -79.018488701530003, 43.862872479409589 ], [ -79.018847027972001, 43.862792737827462 ], [ -79.018848603448788, 43.862792472536434 ], [ -79.019075875713568, 43.862754290905471 ], [ -79.019258385858805, 43.86272362042547 ], [ -79.020419397087167, 43.862470371862656 ], [ -79.020894154037634, 43.862362470637215 ], [ -79.021345783336415, 43.862231751713445 ], [ -79.021487407199601, 43.862190759129753 ], [ -79.021843893160565, 43.862114874761787 ], [ -79.02197753074887, 43.862089886565009 ], [ -79.022104922636231, 43.862066066770481 ], [ -79.02231247391164, 43.862027253620091 ], [ -79.023146799274443, 43.861845526194905 ], [ -79.023683626663313, 43.861706747502694 ], [ -79.024078554137461, 43.861604650209003 ], [ -79.025673351130365, 43.86124830527686 ], [ -79.025898323099042, 43.861209345498722 ], [ -79.02584810548889, 43.861064448527955 ], [ -79.025624870446777, 43.860516706435263 ], [ -79.025439523067263, 43.860088627174463 ], [ -79.025290538171461, 43.859824463859724 ], [ -79.025147015259009, 43.859528702401086 ], [ -79.025024956309665, 43.859266534793967 ], [ -79.024900482194212, 43.859052665152497 ], [ -79.024793297319334, 43.858824328547975 ], [ -79.024739677261053, 43.85868990632386 ], [ -79.024709055482631, 43.858613405191981 ], [ -79.024660420442444, 43.85846745459073 ], [ -79.024546512305903, 43.858210289273408 ], [ -79.024470654156971, 43.858063469865847 ], [ -79.024457300442279, 43.858037625737538 ], [ -79.02439055716107, 43.857918192329137 ], [ -79.024360807951638, 43.85785266796529 ], [ -79.024475865818772, 43.857823779291522 ], [ -79.024551885730361, 43.857806707818597 ], [ -79.024619952782629, 43.857791424626448 ], [ -79.024764823071877, 43.8577588942495 ], [ -79.024885809902798, 43.857731729210343 ], [ -79.024909691847014, 43.85772636726351 ], [ -79.025054556858649, 43.857693836426797 ], [ -79.025110799994863, 43.857681205342281 ], [ -79.025199426663193, 43.857661306389055 ], [ -79.0253163101886, 43.85763506124615 ], [ -79.025344229901648, 43.857628790322345 ], [ -79.025458860542471, 43.857603053504356 ], [ -79.025489109500057, 43.857596255583637 ], [ -79.025601404650445, 43.857571041874778 ], [ -79.025633988798219, 43.857563725157213 ], [ -79.025676957414007, 43.857554080423427 ], [ -79.025743954710634, 43.85753903377109 ], [ -79.025850864353913, 43.857515027751191 ], [ -79.025872962392199, 43.857510063341692 ], [ -79.025957780340377, 43.85749101543805 ], [ -79.026064688545219, 43.857467010092932 ], [ -79.026124083854796, 43.857453674879338 ], [ -79.02623099329351, 43.85742966579803 ], [ -79.02633790753481, 43.857405659400378 ], [ -79.026444816927082, 43.857381646516124 ], [ -79.026551726028856, 43.857357639828976 ], [ -79.026658639992661, 43.857333634025814 ], [ -79.026781350151026, 43.857306077178166 ], [ -79.026982459309238, 43.857260911969519 ], [ -79.027471871449592, 43.857151007060843 ], [ -79.027142995904725, 43.856374686282656 ], [ -79.027505080356107, 43.856293432759621 ], [ -79.027744063605994, 43.85623980048581 ], [ -79.028142359746369, 43.856150414189152 ], [ -79.028769600305068, 43.856009650677798 ], [ -79.02904271845847, 43.85594835386722 ], [ -79.029081448400234, 43.855939662017626 ], [ -79.029301936967471, 43.855890179435207 ], [ -79.029502821602819, 43.855845092326618 ], [ -79.029681016107901, 43.855805097559276 ], [ -79.029859214025336, 43.855765105273029 ], [ -79.030037413045861, 43.855725110025958 ], [ -79.030091341627923, 43.855713002887185 ], [ -79.030199922886567, 43.855688637154586 ], [ -79.030215610504598, 43.855685117174183 ], [ -79.030225705159111, 43.855682846779452 ], [ -79.030393797785663, 43.85564512386815 ], [ -79.030512590037631, 43.855618460621514 ], [ -79.0306985021966, 43.855576735388858 ], [ -79.030893332915895, 43.855533003637682 ], [ -79.031046199864946, 43.855498692554733 ], [ -79.031088168216655, 43.855489275233573 ], [ -79.031283003361679, 43.855445542892092 ], [ -79.031283781814906, 43.855445367233671 ], [ -79.031467913026844, 43.855404038620634 ], [ -79.031477834383452, 43.855401813747676 ], [ -79.031610461900343, 43.855372040253506 ], [ -79.03166937356103, 43.855358819860747 ], [ -79.03175301545312, 43.855340046290351 ], [ -79.031870457782176, 43.855313684296476 ], [ -79.03189555766734, 43.855308051953422 ], [ -79.032038106100458, 43.855276053043461 ], [ -79.032106334891324, 43.8552607375481 ], [ -79.032180659331289, 43.855244054938126 ], [ -79.032294898506564, 43.855218415234205 ], [ -79.032323207322804, 43.855212060165535 ], [ -79.032439719100182, 43.855185905744086 ], [ -79.032465750341416, 43.855180060627106 ], [ -79.032584544309188, 43.855153402451791 ], [ -79.032608303013461, 43.855148065578277 ], [ -79.032729365961671, 43.855120889010209 ], [ -79.03278316174088, 43.855108814323998 ], [ -79.032874185893576, 43.855088385258725 ], [ -79.033008860150034, 43.855058153787979 ], [ -79.033019005910688, 43.855055874121753 ], [ -79.03316382562835, 43.855023367297271 ], [ -79.03330583733252, 43.854991492612591 ], [ -79.033308650198208, 43.854990859471798 ], [ -79.033374854006468, 43.854975997245994 ], [ -79.033453469760744, 43.854958347774591 ], [ -79.033598289023871, 43.854925840389818 ], [ -79.033743108165055, 43.854893331918504 ], [ -79.033863369091605, 43.854866335717091 ], [ -79.033805227696291, 43.854724874703955 ], [ -79.033708752421447, 43.854510956170557 ], [ -79.033609017144471, 43.854258455365041 ], [ -79.033481378543357, 43.853968379621058 ], [ -79.033422001000318, 43.853821275316925 ], [ -79.03323764891239, 43.853374669096056 ], [ -79.033120595899064, 43.853121860671649 ], [ -79.032825801093011, 43.852427078763448 ], [ -79.032651136222242, 43.851994872897315 ], [ -79.032535617681773, 43.85172355199434 ], [ -79.032392526418704, 43.851386129365338 ], [ -79.03217669631141, 43.850877173506106 ], [ -79.032685012396456, 43.850768163206645 ], [ -79.033475294120862, 43.850598678820191 ], [ -79.033994266433666, 43.850493644704827 ], [ -79.034758251781611, 43.850343682191678 ], [ -79.035477346418716, 43.850198605812302 ], [ -79.036502402307036, 43.849998658512476 ], [ -79.03711287657363, 43.849876149403975 ], [ -79.037723348446889, 43.849753636983323 ], [ -79.038242374587981, 43.849655616198362 ], [ -79.039512184435225, 43.849396648810583 ], [ -79.040242847936014, 43.849254712054957 ], [ -79.040412616259644, 43.849222132373392 ], [ -79.040469205956313, 43.849211263424181 ], [ -79.040479083951467, 43.849209371051856 ], [ -79.040483242133604, 43.849208524016341 ], [ -79.040484517190265, 43.849208338805937 ], [ -79.040556440361868, 43.849195004754641 ], [ -79.040627851347466, 43.849181733901432 ], [ -79.040837167177983, 43.849140864364813 ], [ -79.041574761636042, 43.848996796052795 ], [ -79.048249342350317, 43.847692896357806 ], [ -79.049613361210262, 43.84742993373483 ], [ -79.050831951583064, 43.847197066358746 ], [ -79.052163851353882, 43.846930653052496 ], [ -79.052624317161914, 43.846836961381811 ], [ -79.053022114818631, 43.846752553886851 ], [ -79.053311376116568, 43.846680881283952 ], [ -79.053841563659844, 43.846544084358058 ], [ -79.054224963146112, 43.846438278068689 ], [ -79.054769074023895, 43.846264538362767 ], [ -79.055166257240444, 43.846126100691585 ], [ -79.055542143196831, 43.845976864037091 ], [ -79.056488866781365, 43.845556833699163 ], [ -79.057238605333865, 43.845213217079433 ], [ -79.061246259994022, 43.843361588878146 ] ] ] } }
]
}
