{"type": "FeatureCollection", "features": [{"type": "Feature", "properties": {"district_id": "Burnaby"}, "geometry": {"type": "Polygon", "coordinates": [[[-122.96029412, 49.29474696], [-122.94406195, 49.29778957], [-122.94110331, 49.29902043], [-122.91832379, 49.29207147], [-122.90616649, 49.29207107], [-122.8940048, 49.29415647], [-122.89412087, 49.29145814], [-122.89423598, 49.28892139], [-122.89438012, 49.28586327], [-122.89437191, 49.28569401], [-122.89355095, 49.27043514], [-122.89305804, 49.26126919], [-122.89291817, 49.25624973], [-122.89257806, 49.23806587], [-122.89257309, 49.23779119], [-122.89268162, 49.23779524], [-122.89323624, 49.23780225], [-122.89324009, 49.23762129], [-122.89338316, 49.23762075], [-122.89338551, 49.23753992], [-122.89346876, 49.23754092], [-122.89348547, 49.23754113], [-122.89403763, 49.2375478], [-122.89403218, 49.23768518], [-122.89402711, 49.23782266], [-122.89402251, 49.23793], [-122.89401891, 49.23802246], [-122.89401879, 49.23802415], [-122.89485286, 49.23803511], [-122.89492747, 49.23618092], [-122.89561678, 49.23618793], [-122.8956331, 49.2357147], [-122.8968337, 49.2354195], [-122.8969229, 49.2354203], [-122.8970418, 49.2353877], [-122.8973603, 49.2352869], [-122.8974792, 49.23522442], [-122.89769104, 49.23522656], [-122.91231623, 49.22731942], [-122.92767137, 49.21901292], [-122.9431221, 49.21064984], [-122.94469165, 49.2098], [-122.96007258, 49.2014693], [-122.95818889, 49.20000004], [-122.95604337, 49.19831491], [-122.95337255, 49.19623853], [-122.95221596, 49.19533787], [-122.9518081, 49.19502026], [-122.95091786, 49.19432954], [-122.95726187, 49.19124676], [-122.95835887, 49.19068203], [-122.95926725, 49.19019797], [-122.96296568, 49.18800611], [-122.96441768, 49.1870761], [-122.96645769, 49.18539981], [-122.9679626, 49.18385454], [-122.96966621, 49.18212811], [-122.97011996, 49.18170114], [-122.97073438, 49.18133767], [-122.97157212, 49.18101324], [-122.97230362, 49.18079819], [-122.97421762, 49.18035668], [-122.97612945, 49.18011546], [-122.97796597, 49.18002912], [-122.97880665, 49.18007896], [-122.9809472, 49.1804108], [-122.98353187, 49.1811756], [-122.98523702, 49.18182932], [-122.98999098, 49.18405251], [-122.9934651, 49.18577723], [-122.99485898, 49.18659045], [-122.99680053, 49.18782382], [-122.99859076, 49.18911984], [-123.00136621, 49.19152819], [-123.00392888, 49.19321444], [-123.00618313, 49.19413591], [-123.00800676, 49.19475972], [-123.01217047, 49.19607996], [-123.01310225, 49.1963591], [-123.0168799, 49.19740305], [-123.02090929, 49.19882179], [-123.02259924, 49.19924848], [-123.02270764, 49.19927409], [-123.02281578, 49.19930017], [-123.02292366, 49.1993267], [-123.02303128, 49.19935368], [-123.02313864, 49.19938112], [-123.02324573, 49.19940901], [-123.02335254, 49.19943735], [-123.02345908, 49.19946613], [-123.02342368, 49.20059846], [-123.02340286, 49.20126452], [-123.02338049, 49.20159492], [-123.02337227, 49.20682342], [-123.02324893, 49.20682296], [-123.02351263, 49.21110117], [-123.02357597, 49.23282797], [-123.02357787, 49.24441563], [-123.02357136, 49.2451462], [-123.02351358, 49.25455203], [-123.02344425, 49.26844725], [-123.02339657, 49.27662794], [-123.02329599, 49.29050091], [-123.02329161, 49.29328209], [-123.02328417, 49.29465247], [-122.99735921, 49.29609396], [-122.98707066, 49.29933172], [-122.96029412, 49.29474696]]]}}]}