{"type": "FeatureCollection", "features": [{"type": "Feature", "properties": {"district_id": "North Battleford"}, "geometry": {"type": "Polygon", "coordinates": [[[-108.28977513884746, 52.80563889504901], [-108.28975782264656, 52.806819800666894], [-108.28973741048048, 52.80821133484445], [-108.29186149980924, 52.80821461458733], [-108.29662780241242, 52.80822185899644], [-108.2983032740924, 52.80822436014613], [-108.30033426943739, 52.80822728066518], [-108.30033445586399, 52.808073113794514], [-108.30033478164181, 52.807813887172756], [-108.30033530609666, 52.807400457344805], [-108.30033573827951, 52.8070613813162], [-108.3003358286718, 52.806987000568434], [-108.30033634340147, 52.80657363392834], [-108.3003368737827, 52.80616027582673], [-108.30033723484448, 52.805874489647806], [-108.30032933965346, 52.805837880059144], [-108.30031567343106, 52.80576918855736], [-108.30031109605814, 52.805744043565866], [-108.3002848476913, 52.80557103314975], [-108.30028396587737, 52.80556429440329], [-108.30028368852719, 52.80556259331302], [-108.30027622891859, 52.80549354915683], [-108.30027025029847, 52.805424463773555], [-108.30026575946255, 52.80535542691149], [-108.30026274279831, 52.805286259074904], [-108.30026135519684, 52.8052170458895], [-108.30026129092153, 52.805186828705985], [-108.30026142338855, 52.804996697312596], [-108.30026187219914, 52.804448516220994], [-108.30026213277469, 52.80413397979337], [-108.30026232129948, 52.80390033508708], [-108.30026311687087, 52.80308260176866], [-108.3003397804241, 52.80308181667113], [-108.30063858592467, 52.8030788942993], [-108.30083739958623, 52.80307695649094], [-108.30130307959509, 52.80307244398981], [-108.30130303922087, 52.80281549376978], [-108.30130365470292, 52.801715721194704], [-108.30160162502162, 52.80171560759964], [-108.30421778290109, 52.801716738936804], [-108.30451621757922, 52.80171687487674], [-108.31361013936893, 52.801719543615675], [-108.32631705509944, 52.80172353338083], [-108.32745824759594, 52.801723795735455], [-108.32776648048359, 52.801723957805635], [-108.3284060854129, 52.80023308489648], [-108.32845733536635, 52.800111488589074], [-108.32849374361837, 52.80002286658381], [-108.32853344718748, 52.799922999707825], [-108.32855936634421, 52.79985634728279], [-108.32859742710984, 52.79975634662983], [-108.32863428255371, 52.79965610999048], [-108.32867022882728, 52.79955562905044], [-108.32869719445304, 52.79947743511744], [-108.32873120180592, 52.79937682872008], [-108.32875681400688, 52.79929840295811], [-108.3287885794611, 52.79919758967604], [-108.32880940171026, 52.79913027085798], [-108.32883292008306, 52.79905163405433], [-108.32886528095841, 52.798939201999325], [-108.32889330990078, 52.798838043911616], [-108.32892540124145, 52.798716265830976], [-108.32894263513128, 52.798648598055046], [-108.32897021612156, 52.798535760555815], [-108.32899389574843, 52.79843400506401], [-108.32901877697662, 52.798320793670904], [-108.32904232548353, 52.798207619695525], [-108.32905807492695, 52.79812830161544], [-108.3290792336042, 52.79801492492555], [-108.32909124354276, 52.797946864189825], [-108.32911210935568, 52.79782189368614], [-108.32912968676561, 52.79770825779989], [-108.32914427193842, 52.797605948216074], [-108.32915193637244, 52.79754898196578], [-108.32916202467179, 52.79746937315406], [-108.32917649590954, 52.797344222456644], [-108.32918825736158, 52.797230210255606], [-108.32919354581482, 52.79717322078714], [-108.32920050406943, 52.797093430056016], [-108.32920672198946, 52.79701366011501], [-108.32921143527874, 52.79694526464371], [-108.3292196704676, 52.79680841721947], [-108.3292247483521, 52.79669432289288], [-108.3292280083727, 52.79660303398655], [-108.32923037315953, 52.79651168028291], [-108.32923189069125, 52.79639759600357], [-108.32923231356133, 52.796317718989066], [-108.32923160333824, 52.79620360733414], [-108.32922956059238, 52.796089533101046], [-108.32922660552036, 52.795986816704854], [-108.3292195904924, 52.79582710355717], [-108.32921295115986, 52.79571306847407], [-108.32920656684807, 52.79562178059859], [-108.32919755867674, 52.79550781204028], [-108.32919246238247, 52.79545084439229], [-108.32918138149924, 52.795336934042204], [-108.32916867205974, 52.79522306942705], [-108.32915770505907, 52.79513200018528], [-108.32914584977414, 52.79504095588878], [-108.32913296501394, 52.794950030440724], [-108.32911742562565, 52.79484766744962], [-108.32910291238959, 52.79475678773164], [-108.32908325852142, 52.79464329800663], [-108.32906872825355, 52.79456384091798], [-108.32905361954548, 52.79448457994851], [-108.32903541210001, 52.79439389390595], [-108.32901632327417, 52.79430332255076], [-108.32898871278837, 52.79417890391529], [-108.32896476935785, 52.7940772266042], [-108.32893979653852, 52.79397566813462], [-108.32891966824621, 52.793896727987565], [-108.32889586282785, 52.793806558881634], [-108.32886470999998, 52.7936940216043], [-108.32884545304674, 52.793626479132435], [-108.32880533820385, 52.793491798889676], [-108.3287810855656, 52.793413244353346], [-108.32874890029261, 52.79331242801097], [-108.32871935592864, 52.79322286971922], [-108.32868893711036, 52.79313351585246], [-108.32866556275332, 52.793066448725874], [-108.32862146868912, 52.79294375201138], [-108.32857576692301, 52.79282137024051], [-108.32854152688034, 52.792732483391084], [-108.32851081593073, 52.792654829656], [-108.3284704029445, 52.792555053716384], [-108.3284382186393, 52.79247753127258], [-108.32839575390821, 52.792378082734714], [-108.32834256475068, 52.7922567205592], [-108.32830789840531, 52.79217971746476], [-108.32825178311425, 52.79205888710209], [-108.32821534740403, 52.79198202359992], [-108.32818362498874, 52.791916359971275], [-108.3281297273412, 52.79180706932362], [-108.32806891675992, 52.79168691033699], [-108.32803500154964, 52.791621667989176], [-108.32799491349563, 52.791545536533775], [-108.32794837028626, 52.79145870376731], [-108.32788274383795, 52.79133957927966], [-108.32782814479408, 52.791242449858274], [-108.32775974047946, 52.791123852984285], [-108.32772804983738, 52.79107024007443], [-108.32766391486975, 52.79096285551251], [-108.327611681596, 52.790877261617325], [-108.32755856713587, 52.79079178237545], [-108.32749783405073, 52.790695904265014], [-108.32742228719621, 52.790578946722], [-108.32738034814307, 52.7905154583852], [-108.32731669616663, 52.790420201751935], [-108.32726625731824, 52.7903464291922], [-108.32721552941872, 52.79027275466401], [-108.32715659086894, 52.790188697865915], [-108.32708168194672, 52.79008395381359], [-108.32703624577302, 52.79002128302586], [-108.32698260584957, 52.789948319705495], [-108.3269049398666, 52.78984437243716], [-108.32682596247474, 52.78974073174167], [-108.32677543616883, 52.78967550557247], [-108.32674205936452, 52.78963300214166], [-108.32671068743875, 52.7895930506437], [-108.32667738313421, 52.78955130064214], [-108.32665590787552, 52.789524382240366], [-108.32663686072324, 52.789500507554216], [-108.3265872218208, 52.78943912374879], [-108.32657475989171, 52.78942396812965], [-108.32656831523735, 52.7894161175081], [-108.32648636935286, 52.789316517188894], [-108.32647951447878, 52.789308345303446], [-108.32640947442718, 52.78922496844572], [-108.32638922269277, 52.789200857711045], [-108.3263638214234, 52.789171090465054], [-108.32634052310196, 52.78914380045888], [-108.3263346417454, 52.789136914344695], [-108.3263340061566, 52.789136167705685], [-108.32629754584116, 52.789093876599736], [-108.32627083486804, 52.78906288695225], [-108.32620459413714, 52.78898729094786], [-108.32620008404828, 52.78898223706335], [-108.32612887759491, 52.78890183375914], [-108.32611145973601, 52.788882581068556], [-108.32611022914395, 52.78888123055053], [-108.32603474252886, 52.78879780845071], [-108.32603519077136, 52.78859381599472], [-108.32603548231604, 52.78841303199194], [-108.32603555278827, 52.788252670165164], [-108.32603655516154, 52.787658743960144], [-108.32603737780758, 52.787188379904016], [-108.32603776430257, 52.78693888039608], [-108.32604413679178, 52.78285208707135], [-108.32604453470096, 52.78272904034103], [-108.32604462974365, 52.78260591216948], [-108.32604689464547, 52.781187593773765], [-108.3260477333404, 52.78066648573268], [-108.32604876278045, 52.78002096964357], [-108.32604939239897, 52.77962110424379], [-108.32605994106318, 52.772928927707206], [-108.32635607379225, 52.772929250729], [-108.3323604087105, 52.77293559737362], [-108.33713230478016, 52.77294046298372], [-108.33742981953317, 52.772940809324275], [-108.33743060085354, 52.77193023650783], [-108.33743107846959, 52.77096023447248], [-108.3374321600952, 52.76941119003282], [-108.33713469439202, 52.76918257821591], [-108.3369208922134, 52.76901825456181], [-108.33674285428772, 52.76887945549206], [-108.33643748825295, 52.768673459164155], [-108.3361889574961, 52.768444726535364], [-108.3359404362443, 52.76821608308096], [-108.33586134635358, 52.76808358122708], [-108.33552951327594, 52.76788813096908], [-108.3351501676823, 52.76787209547185], [-108.3351068838003, 52.76787034559855], [-108.33489046459812, 52.767735591944714], [-108.33463681279716, 52.76761420716291], [-108.33372030764154, 52.76720334029146], [-108.33350958221972, 52.7671371371298], [-108.33334892132982, 52.76707797965862], [-108.33273930659476, 52.766747692099536], [-108.33128345081307, 52.765958941762904], [-108.3309167362649, 52.76580133429586], [-108.33042561390982, 52.765750381547164], [-108.32998229470857, 52.76569241742245], [-108.32953187735325, 52.765669637167846], [-108.32908025770728, 52.76565246516748], [-108.32870943155038, 52.765629253684025], [-108.3286310643839, 52.76562434073742], [-108.32829915101406, 52.76548931169393], [-108.32821159624146, 52.76544949954482], [-108.32778985314638, 52.76528560334289], [-108.32733731034162, 52.765273757039836], [-108.32691008069585, 52.76513699334821], [-108.32669211114982, 52.76509022847448], [-108.32636682839436, 52.7649622930067], [-108.32606834080956, 52.764868770563396], [-108.32606930468475, 52.76408639578995], [-108.32607063925344, 52.7629959172927], [-108.32607133573396, 52.76268237219936], [-108.32607275826255, 52.76208521267831], [-108.32607276184002, 52.76208487081165], [-108.32607870747347, 52.75935605070354], [-108.32607883669539, 52.75930176018771], [-108.32607946505625, 52.759010440682644], [-108.3260801132711, 52.758715298223436], [-108.32583572994474, 52.758630438061694], [-108.32550148692957, 52.75854354831218], [-108.3253202591561, 52.758510203301874], [-108.32521874775392, 52.75848719453033], [-108.32511225212339, 52.75845792190935], [-108.32498203733856, 52.758415239356054], [-108.32481331365265, 52.7583590221282], [-108.32469157748656, 52.75831106481654], [-108.32456862818233, 52.75828355745516], [-108.32446670868319, 52.75825732171267], [-108.32425802989472, 52.75821272944213], [-108.32409353013284, 52.75817631408707], [-108.32397500498604, 52.75814051559932], [-108.32373254839507, 52.758106907028036], [-108.32353929963348, 52.75806187172303], [-108.32340828134029, 52.75801133139478], [-108.3232881109371, 52.75797279927437], [-108.32314457325, 52.757925074076915], [-108.3229858908534, 52.75788345751152], [-108.32286727047438, 52.75784813727769], [-108.32257060652401, 52.75779804070598], [-108.32226111204126, 52.7577211776841], [-108.3220370192768, 52.757655158659304], [-108.32186627836994, 52.75762628117614], [-108.3217983581562, 52.75760650999043], [-108.32174687660104, 52.757592942399555], [-108.32168967207986, 52.757564182719626], [-108.32162742710332, 52.757541455268026], [-108.32158533029579, 52.75751816302333], [-108.32148190412221, 52.75748435819259], [-108.32137663287637, 52.757426906214285], [-108.32126305316159, 52.75739019297312], [-108.32117678589857, 52.75735413516727], [-108.32111362688111, 52.75731920144493], [-108.32105139733969, 52.7572964732648], [-108.32099990813353, 52.757282213044235], [-108.32094994343305, 52.757269672869974], [-108.32088259922277, 52.75723837291018], [-108.32081297447641, 52.75719230597916], [-108.32074274234026, 52.757159288105214], [-108.32067181146243, 52.75713500480312], [-108.32057416384879, 52.75709296079601], [-108.32049931890548, 52.75705523335538], [-108.32041141034577, 52.75700421927157], [-108.32033863950247, 52.7569413497947], [-108.32025441886974, 52.75689476515773], [-108.32019219037161, 52.756872036507964], [-108.32015100928606, 52.7568609497325], [-108.32009231624265, 52.75684026250684], [-108.31969876217741, 52.756694615793016], [-108.31958159495802, 52.75665104024627], [-108.3191280005516, 52.756554021446746], [-108.31875576946392, 52.75639824093543], [-108.31840391835568, 52.756227768241814], [-108.31802889109579, 52.75607413238793], [-108.31766258046372, 52.75591422545947], [-108.31755579320436, 52.75582385921216], [-108.31724055289689, 52.75563176228453], [-108.31663635699296, 52.755228572829154], [-108.31650485699907, 52.75513287149255], [-108.31647412226354, 52.75511584296444], [-108.3164311025162, 52.75508034315915], [-108.31634874626882, 52.75505817586267], [-108.31628557961906, 52.75502323985317], [-108.31620230971744, 52.75498885742131], [-108.31603690292637, 52.75485562886941], [-108.3144680574709, 52.75467424405887], [-108.31432144237486, 52.754674117848516], [-108.31412798853118, 52.754674042324744], [-108.30383528456252, 52.75466889376264], [-108.3022022604004, 52.75466809497451], [-108.30190414751053, 52.754667948035774], [-108.3010882232976, 52.754667476788796], [-108.29209767403306, 52.75466256501621], [-108.29203235329244, 52.75460863632086], [-108.29181896816611, 52.754424372926465], [-108.29147436209793, 52.75420053904464], [-108.29114626695913, 52.754006491677444], [-108.2909105824835, 52.75380988602677], [-108.29070269417859, 52.7536038560131], [-108.29035777474596, 52.75337570170056], [-108.28998423431449, 52.753138879621105], [-108.28998383142427, 52.75324713982461], [-108.28971261866042, 52.75308424662524], [-108.28962560812256, 52.75302410152982], [-108.2895591593319, 52.752963394556744], [-108.28947309130757, 52.752915742515384], [-108.28940737408219, 52.75285568968506], [-108.28940665701226, 52.752855026064196], [-108.2893205745768, 52.75280737431582], [-108.28927565818341, 52.752758579805985], [-108.28919053149143, 52.75272340277491], [-108.28912503983787, 52.752675179332556], [-108.2890380168168, 52.752615043161626], [-108.28901367571109, 52.75256566846271], [-108.28851681874062, 52.752325618262], [-108.28788964273063, 52.75201431795266], [-108.28758015019588, 52.7518334063914], [-108.28741974427088, 52.75173667679136], [-108.28721834399337, 52.75158963989326], [-108.2869017809641, 52.75138562891259], [-108.28666158404818, 52.751241016332635], [-108.28655139434278, 52.751163488468], [-108.28622895227738, 52.750885674100616], [-108.28595602252656, 52.75067243714176], [-108.28563745047671, 52.75042150419554], [-108.28455453492738, 52.749702481398074], [-108.2844469647984, 52.7496429115261], [-108.28443888062996, 52.74953552526315], [-108.28443474633917, 52.74948060703867], [-108.28437302407723, 52.7494823178684], [-108.2843496151205, 52.74944542675824], [-108.28426355973058, 52.74939777070661], [-108.2842214718664, 52.74938642692944], [-108.28417750452819, 52.74935011458914], [-108.28400349983197, 52.749229825038945], [-108.28383139016955, 52.74913450336337], [-108.28370041492951, 52.74903805051401], [-108.28363587450322, 52.74900230810756], [-108.28361342080224, 52.748977900707075], [-108.28356945438685, 52.748941588124346], [-108.28344035934974, 52.74887010353264], [-108.28335242642493, 52.74879746923682], [-108.28328694716758, 52.74874924234302], [-108.28326355500627, 52.74871235955865], [-108.28321957436307, 52.7486760472456], [-108.2831540947621, 52.748627811297226], [-108.28310918967128, 52.74857901424157], [-108.2830652240839, 52.748542701456515], [-108.28300068491343, 52.748506958681496], [-108.2829351910206, 52.74845872301283], [-108.2829117993201, 52.74842184015024], [-108.28286783405792, 52.74838552728595], [-108.28282292886846, 52.74833672113596], [-108.28275745089742, 52.74828849392593], [-108.28266764242366, 52.748190899464895], [-108.28258157588652, 52.748143233548795], [-108.28257781889258, 52.74809329636268], [-108.28249176811357, 52.74804563894134], [-108.28240196007376, 52.74794803528298], [-108.28237957637957, 52.74788454784542], [-108.28237575156332, 52.747873699402255], [-108.28233271101382, 52.74784986205509], [-108.28226629517891, 52.74778915024932], [-108.28224384356196, 52.747764751537844], [-108.28219987953092, 52.747728438402824], [-108.28215779380086, 52.747717093855506], [-108.28209137774014, 52.74765637296833], [-108.28190849838802, 52.74743152203617], [-108.2818092976045, 52.74743147256447], [-108.2813536880835, 52.74743131948231], [-108.28130002602313, 52.747431186655135], [-108.28118677927785, 52.747340337947875], [-108.2809573615734, 52.74710790647908], [-108.28071074491108, 52.74688323572908], [-108.28046384176504, 52.746658662358065], [-108.280221821316, 52.74643197469928], [-108.27997149517773, 52.74620911398529], [-108.27971801232198, 52.7459875992678], [-108.27946940541189, 52.745763880514986], [-108.27921690177803, 52.74551489773284], [-108.27920785836585, 52.74550598337922], [-108.27901189260548, 52.745302301906506], [-108.27885979303923, 52.74512618625226], [-108.2786528636924, 52.74494025548232], [-108.27812363717092, 52.744327288430505], [-108.27812480213846, 52.74367111709686], [-108.27812492078515, 52.74360368766036], [-108.2781267129215, 52.74259303625695], [-108.27813095148466, 52.74020419599991], [-108.27783515978878, 52.7402040152999], [-108.27510543491516, 52.74020220973972], [-108.27405706001807, 52.74020150497149], [-108.27390857110943, 52.74020140802212], [-108.27384015074234, 52.74020136493454], [-108.27382437557402, 52.74019157493526], [-108.27380128119896, 52.74016579843128], [-108.27377758433434, 52.740132187031385], [-108.2737579947386, 52.74010631367938], [-108.27372779346746, 52.740080023024234], [-108.27369118693699, 52.74004676830709], [-108.27366777227462, 52.74001671960571], [-108.27364567131535, 52.7399887751138], [-108.27363585336364, 52.73995192020452], [-108.27361947061992, 52.739905974126586], [-108.27360698101958, 52.7398649120092], [-108.27359059070112, 52.73983466921451], [-108.27356850467567, 52.73980672429667], [-108.27354480819528, 52.73977311284251], [-108.27353899830626, 52.73975828079188], [-108.27352148603335, 52.73974449156377], [-108.27348387193221, 52.73971340513541], [-108.27344315877055, 52.73967241226715], [-108.27344233250601, 52.73967087917756], [-108.27319619362731, 52.73981187492688], [-108.27314585421995, 52.73984070550432], [-108.27298009029379, 52.739711008130776], [-108.27267667390267, 52.739508306246975], [-108.27235425919086, 52.73931701075777], [-108.27201226136884, 52.739137227595656], [-108.2717024749426, 52.73893838664924], [-108.27142954466385, 52.73872314798144], [-108.27149723772915, 52.73868426062795], [-108.27160244826922, 52.7386238045653], [-108.27189901603903, 52.73845342197253], [-108.27189710770256, 52.73845208064205], [-108.2718602824003, 52.73843168348274], [-108.27182847974025, 52.73841542863405], [-108.27178345586654, 52.73837955478067], [-108.27175582144913, 52.738356043778545], [-108.2717244927855, 52.738330494272624], [-108.2716908277709, 52.73830500927411], [-108.27166478884129, 52.738287165220065], [-108.2716226434792, 52.738242640786844], [-108.27158390288507, 52.73821230438532], [-108.271528374492, 52.73817743100331], [-108.27147842643134, 52.73815453606912], [-108.2714273102331, 52.738131673368486], [-108.2713700719718, 52.73810541816155], [-108.27131500938664, 52.738076953352014], [-108.27125722866228, 52.738059275110736], [-108.27122302152273, 52.73804236699305], [-108.27120679993186, 52.738029962811716], [-108.2711445473165, 52.73798385285819], [-108.27110147895057, 52.73795863631004], [-108.2710752413628, 52.737937937606105], [-108.27103382942992, 52.73790338476875], [-108.2709977608609, 52.737877255432714], [-108.27095343234735, 52.73785064361801], [-108.27090098852037, 52.73782567683902], [-108.27085328539914, 52.73780128966755], [-108.27080686612415, 52.73776259396996], [-108.27075917181709, 52.737722503448836], [-108.27073217322351, 52.737691842629], [-108.27069408271267, 52.73765434697177], [-108.27067289213937, 52.737638509376325], [-108.27063507476637, 52.73762027974487], [-108.2706022119063, 52.73760548384861], [-108.27054891449397, 52.73756911843257], [-108.27050030465658, 52.73753262359846], [-108.27045047360109, 52.737495451949584], [-108.27040955752089, 52.73746730674517], [-108.27036650420527, 52.737442080529725], [-108.27030268829444, 52.737406724844625], [-108.27024164993952, 52.73737699449143], [-108.27018610889644, 52.73734212085021], [-108.27011739198785, 52.73730404033275], [-108.27006563737007, 52.73727263264322], [-108.2700335840688, 52.737252813731146], [-108.26999029459073, 52.73722759390124], [-108.26991090748977, 52.73717267468871], [-108.26983524464107, 52.73713621571737], [-108.26973803931755, 52.73709464019576], [-108.26966921629025, 52.73705513235034], [-108.26960104887209, 52.737024177405765], [-108.2695183473228, 52.73698790348582], [-108.26944760111292, 52.73695416860381], [-108.26937289819121, 52.736920623807634], [-108.26936970892079, 52.73691919187218], [-108.2693028107385, 52.73687391968181], [-108.26926173112318, 52.73682794402585], [-108.26921626869806, 52.736786361317165], [-108.26915375310888, 52.73673668709754], [-108.269067314674, 52.73668196190346], [-108.26899156128816, 52.736644074902664], [-108.2689157011621, 52.73660476079564], [-108.26885445180054, 52.73657218455558], [-108.26878435068596, 52.73651558740081], [-108.26873228146435, 52.736448491688144], [-108.26870368950094, 52.73641215437027], [-108.26864094720102, 52.736359635130974], [-108.26855698220781, 52.73630626234977], [-108.26844825670504, 52.7362364485044], [-108.26830537636796, 52.736181849808446], [-108.26823708964012, 52.736149467389396], [-108.2681475661502, 52.73611624073149], [-108.26806670050605, 52.73607278315316], [-108.26798721176667, 52.73601644448872], [-108.26791817835053, 52.73597408145367], [-108.26784722134613, 52.735937491450954], [-108.26778171304555, 52.735910743163885], [-108.26770339806858, 52.735870075001706], [-108.26765367745867, 52.73583432018156], [-108.26756116869043, 52.73576119827802], [-108.26745544179568, 52.73566845676609], [-108.2673950376593, 52.73561586341454], [-108.2673052012744, 52.735546957631165], [-108.26722817165692, 52.73549197166977], [-108.26713726377665, 52.73544021938073], [-108.26705469485941, 52.735373973014184], [-108.26699920727832, 52.735324103900844], [-108.26691246873592, 52.735265095452405], [-108.26682796053653, 52.73520460443483], [-108.2667607479199, 52.73515505851276], [-108.26672480050165, 52.73511464253407], [-108.26666770949089, 52.73507481851335], [-108.26661458853602, 52.73502488397462], [-108.26653574230298, 52.734977079696904], [-108.26648057618361, 52.73493149149812], [-108.26639116845203, 52.734868275256524], [-108.26627796089495, 52.73480143406968], [-108.26615602524708, 52.73471199830787], [-108.26603856308557, 52.734619570104954], [-108.26595181313814, 52.734560570287044], [-108.26591266690679, 52.7345235249642], [-108.26584027910225, 52.73447627069978], [-108.26571923300928, 52.73437889550126], [-108.26562097085677, 52.734269380207024], [-108.26547949975831, 52.7341207818535], [-108.26532919898172, 52.73394940274462], [-108.26521589989042, 52.733828789589516], [-108.26511162060918, 52.733702180758726], [-108.26494864974863, 52.73351963839541], [-108.26476460367428, 52.73334055457301], [-108.26455627325895, 52.73315351464243], [-108.26439953756059, 52.733022594640936], [-108.26432451145249, 52.732967938394346], [-108.26425470966684, 52.73296789198308], [-108.26421231992659, 52.73293993821287], [-108.26407528150408, 52.732863975400576], [-108.26387630882238, 52.73276873631409], [-108.26364048657007, 52.73266612085888], [-108.26338978911204, 52.732549218933556], [-108.2631726325573, 52.732464975248014], [-108.26292144521652, 52.73236487713597], [-108.26273189472623, 52.73227987235531], [-108.26251143659104, 52.732197804952314], [-108.26228440319488, 52.73212012726601], [-108.26202820762082, 52.73204534763527], [-108.26181529777567, 52.73197147126825], [-108.2616517574563, 52.73191092211965], [-108.26152679753135, 52.731857710796845], [-108.26143994778504, 52.731805545764075], [-108.2613433775756, 52.73171587461603], [-108.2612435049251, 52.73162839883086], [-108.26115429993402, 52.731567898291985], [-108.26096303607676, 52.731459860020145], [-108.260725663063, 52.73133629023809], [-108.2605144837836, 52.73123928606948], [-108.2602768063362, 52.73113461959963], [-108.26004727985746, 52.7310234237746], [-108.25982919900815, 52.730926608326], [-108.2596170707549, 52.730817037500266], [-108.25938583256057, 52.73070588752235], [-108.25912715964998, 52.73057451846971], [-108.25895707214352, 52.73047218110777], [-108.25883493872031, 52.730410489134016], [-108.25871327456912, 52.73035507973291], [-108.25852891553735, 52.73026992559883], [-108.25832745580705, 52.7301642591604], [-108.25808635507646, 52.730036595683686], [-108.2579277002196, 52.7299486292199], [-108.257840843772, 52.72989646181203], [-108.25779586800566, 52.72984943829853], [-108.25775918422663, 52.72979798668915], [-108.2577179655298, 52.72975505090721], [-108.25761199588504, 52.72967822650064], [-108.25754223788563, 52.72962349319041], [-108.25748879611723, 52.72955572000922], [-108.25741591339818, 52.72945909887064], [-108.25725274332001, 52.72928732632471], [-108.25714365153674, 52.729168622678415], [-108.25699677306525, 52.729006888562765], [-108.25687718956651, 52.72886329971003], [-108.2567996147809, 52.72875001593541], [-108.25665588658772, 52.72858400374619], [-108.2562971619745, 52.72806088769212], [-108.25615295726027, 52.727911670297104], [-108.25608447749185, 52.72782752756513], [-108.25595798322334, 52.7277071966533], [-108.25578195674898, 52.72757144459621], [-108.2555966880544, 52.72742755513353], [-108.25543288611145, 52.727316649040546], [-108.2552562237985, 52.72717252256987], [-108.2551077880678, 52.727036011418164], [-108.25500153017161, 52.72693191476707], [-108.25494228435322, 52.726878986701635], [-108.25481531785402, 52.72679854572101], [-108.25469541163585, 52.72672000617668], [-108.25457550518095, 52.72664145752786], [-108.25446562180304, 52.72655845134064], [-108.25434008700014, 52.726450683615035], [-108.25422206665507, 52.72635110947359], [-108.25411377055566, 52.726242867985064], [-108.25398339329814, 52.726121778318856], [-108.25368559486587, 52.72583669069689], [-108.25355543260723, 52.72573734146955], [-108.25327797449518, 52.725556390033645], [-108.25324574021715, 52.72550826849814], [-108.25318000578605, 52.72542147657896], [-108.25308674709184, 52.725332679370545], [-108.25290477059373, 52.72518540376702], [-108.25276850605904, 52.72507010453969], [-108.25273070912144, 52.7250322085617], [-108.25265023358608, 52.724951532113295], [-108.2525452101205, 52.72482706468757], [-108.25246001842363, 52.72475465690718], [-108.25236966938468, 52.72464362777039], [-108.25227435592767, 52.724527194732644], [-108.2522150154976, 52.72446514833916], [-108.2521335680622, 52.72435110459675], [-108.25206080142559, 52.72423129137068], [-108.2519950700216, 52.72411404604819], [-108.25191341799734, 52.723997237717604], [-108.25183361836037, 52.72390530005405], [-108.25177698125574, 52.72381826667495], [-108.25172116639483, 52.72374227296267], [-108.25166617573348, 52.72367734584558], [-108.2515592641691, 52.72358891324699], [-108.25140441322228, 52.72343812985253], [-108.25130558043696, 52.72333563398699], [-108.25117802042881, 52.72321455399595], [-108.25109779745156, 52.72311708735642], [-108.25100786697232, 52.72301158587514], [-108.25095267187352, 52.72294388499852], [-108.25084370833035, 52.72285828715015], [-108.25074054580942, 52.72275867971247], [-108.25069189259888, 52.722700251593146], [-108.25065041119572, 52.722650413513335], [-108.25059562863925, 52.72258824128253], [-108.25051272043882, 52.72251576051741], [-108.25042194114526, 52.72246011603487], [-108.25032061674509, 52.7223853793755], [-108.2502153710929, 52.722319051408746], [-108.25012108245444, 52.72224689161092], [-108.25004293431445, 52.72217704999683], [-108.24997409791864, 52.72210972293379], [-108.24988249799472, 52.722043029313674], [-108.24981963941447, 52.721994919608285], [-108.24976941175808, 52.72193262205834], [-108.24972351663403, 52.72186743557567], [-108.2496728778811, 52.72179960914158], [-108.2496137506537, 52.72174032572228], [-108.2494650952925, 52.7216115124599], [-108.2492885525071, 52.72144471006222], [-108.24911673931528, 52.72128053876098], [-108.24893667398077, 52.72112767378851], [-108.24877891718643, 52.72099910931628], [-108.24859015925583, 52.720852013357], [-108.24840160887739, 52.72070769047192], [-108.24823248813634, 52.720579436915855], [-108.24805405736417, 52.72044866833479], [-108.24789341161616, 52.72034233343187], [-108.24763020282307, 52.720175134715525], [-108.24751196024219, 52.72009324189295], [-108.24741870372728, 52.72002866040742], [-108.24722062751864, 52.71990950940093], [-108.24693570227512, 52.71975674577992], [-108.24676219802596, 52.71965847843057], [-108.246707229238, 52.719627346851645], [-108.24652404688229, 52.71952439787935], [-108.24632144032108, 52.71937491690369], [-108.24614798373405, 52.71924954935813], [-108.24601692348975, 52.71914239227488], [-108.24588318048504, 52.71899932476903], [-108.24578294908916, 52.71887749039686], [-108.24569533473085, 52.71874146894681], [-108.24560111493757, 52.71857793681302], [-108.24557129117741, 52.71853316486669], [-108.24550874384889, 52.71843927550046], [-108.24542926368973, 52.71833536335806], [-108.24548401936804, 52.71833535616349], [-108.24542975065704, 52.718277331661824], [-108.2453046692535, 52.71814114025472], [-108.24520852088618, 52.718050689501105], [-108.24512243029902, 52.717966429616126], [-108.2450485922813, 52.71788959558981], [-108.24501268957617, 52.7178505031738], [-108.24498355019833, 52.71780216882325], [-108.2449580936422, 52.71774599000753], [-108.24491813572338, 52.717695370802964], [-108.24484303222108, 52.71763020017292], [-108.24473867977775, 52.717558078098335], [-108.24466898366708, 52.71750827337684], [-108.24459437499235, 52.71744955551098], [-108.24453617474555, 52.71738263561293], [-108.24446812822401, 52.717326319127416], [-108.24441185451242, 52.717270975256994], [-108.24434573062162, 52.71721202485472], [-108.24427730197905, 52.717150556347214], [-108.24416947107503, 52.717074643779405], [-108.24405372737905, 52.71699249033914], [-108.24397883314316, 52.71692990363795], [-108.24391030948611, 52.7168671424368], [-108.2438289345622, 52.71680343802223], [-108.24374360084457, 52.71672949920636], [-108.24364438137479, 52.71665464546326], [-108.24353597832817, 52.71657099544045], [-108.24343355291876, 52.716496238304124], [-108.24328018117761, 52.71638020087611], [-108.24316540990036, 52.71629673387798], [-108.24306125468469, 52.71622718617229], [-108.24287948036353, 52.716101592074345], [-108.2427276439134, 52.71600619742697], [-108.24259151408295, 52.71593623851371], [-108.2424656324051, 52.715875046588366], [-108.24234061953017, 52.715797021536964], [-108.24224815785168, 52.715727153070404], [-108.24209389831165, 52.71564217570013], [-108.24194542365213, 52.71556349728565], [-108.24183942046284, 52.71551210342214], [-108.24181271345675, 52.71549847138853], [-108.24181241798638, 52.71562021811221], [-108.24181233280214, 52.71565259774036], [-108.24098327096698, 52.71522148907406], [-108.24081849864153, 52.71515065699454], [-108.24032021577689, 52.714884449651926], [-108.24016733277875, 52.714771614698975], [-108.23987021813981, 52.71455233595089], [-108.23938406315898, 52.71421044395336], [-108.2388641267625, 52.71389100459715], [-108.23848808441664, 52.713599916473974], [-108.23765633217472, 52.7131383072181], [-108.23707222141621, 52.71266992507599], [-108.23663835598015, 52.71231583679659], [-108.23600598444791, 52.711913342926465], [-108.23550219977847, 52.711571926175104], [-108.23507522568863, 52.711360580744056], [-108.23482814183141, 52.71110412854099], [-108.2348120147005, 52.71110411927395], [-108.23480133207465, 52.71108984124101], [-108.234674576384, 52.71098789678734], [-108.23457667794615, 52.710895686807014], [-108.23443614065313, 52.71077559145958], [-108.23439467162407, 52.71072950697627], [-108.23431108811711, 52.7106466190837], [-108.23428313292591, 52.7106190522988], [-108.23419835964658, 52.71055409424164], [-108.2341700278352, 52.71053544145844], [-108.23408629735077, 52.71045255742734], [-108.23401873676507, 52.710352053932425], [-108.23397661616292, 52.710315160653735], [-108.23389199172232, 52.71025019832314], [-108.2338647027934, 52.7102136195737], [-108.23377940632126, 52.71015757925674], [-108.23376575860668, 52.71013924499077], [-108.2337106565226, 52.71007500548555], [-108.23368270208542, 52.71004743854489], [-108.23359793082602, 52.709982480021004], [-108.23355595872489, 52.709945582545224], [-108.23348706191172, 52.709863012664044], [-108.23343077008849, 52.70981670293561], [-108.2332499699448, 52.70963268101315], [-108.23320851656894, 52.709586775581045], [-108.23312374692324, 52.70952181668823], [-108.23299752454855, 52.709410952216885], [-108.2328416405129, 52.70929945818222], [-108.23281382827192, 52.709271797228034], [-108.232814353081, 52.70926287916248], [-108.23280070606224, 52.709244544772154], [-108.23270244516605, 52.70916133688358], [-108.2326466799373, 52.70910610868466], [-108.23249317303238, 52.70895866455761], [-108.23239580210547, 52.708857444781735], [-108.23232482954984, 52.70881081567971], [-108.23228389622521, 52.708755902069676], [-108.23224125373396, 52.70872792618357], [-108.23217132479344, 52.7086633710957], [-108.23212972572001, 52.7086174692797], [-108.23204495958764, 52.708552509550636], [-108.23197451288488, 52.70849696215724], [-108.23191874280688, 52.7084416438267], [-108.23187677363438, 52.70840474570191], [-108.23184948759166, 52.7083681664336], [-108.23177888702426, 52.70831253319013], [-108.23173691145814, 52.7082755452556], [-108.23165162817794, 52.708219593043445], [-108.2316390254394, 52.70818333261732], [-108.23156977111566, 52.70810985504401], [-108.23148500681582, 52.708044894880736], [-108.23141455501926, 52.70798925737035], [-108.2313724389399, 52.70795236308235], [-108.23127470884363, 52.70786023583933], [-108.23121775572288, 52.707822936820435], [-108.23117526260944, 52.707794956490375], [-108.23114678612204, 52.70777630695914], [-108.23111897594792, 52.707748645568664], [-108.23107804517336, 52.70769373149387], [-108.23104956879428, 52.70767508193728], [-108.23102228391782, 52.70763850245645], [-108.23100916335129, 52.707611249770295], [-108.23098083483096, 52.707592596164694], [-108.2309097180869, 52.70754597018084], [-108.2308244373046, 52.707490017327935], [-108.23072603641671, 52.70740681168769], [-108.23068458123097, 52.70736081552659], [-108.23065610523886, 52.70734216586843], [-108.23057187570402, 52.70726837668991], [-108.23052975440875, 52.7072313923204], [-108.2304587865124, 52.70718476201612], [-108.23041667203007, 52.70714786735898], [-108.23040250804476, 52.707138540481225], [-108.23037455098437, 52.70711088292977], [-108.23034674836812, 52.70708331109668], [-108.2303052938975, 52.70703731478953], [-108.23027801005794, 52.707000735117745], [-108.230250053167, 52.70697307753368], [-108.2302086055411, 52.70692717094451], [-108.230180796515, 52.70689950931246], [-108.23003856716488, 52.70680625626663], [-108.2300250765153, 52.70678800724563], [-108.2299705030415, 52.70671475799496], [-108.22994374507897, 52.70666926017189], [-108.2299359650705, 52.70666416605653], [-108.22995269816937, 52.71110127774582], [-108.22993418473641, 52.71550805028736], [-108.22992692799018, 52.71720661179749], [-108.22992232869055, 52.718334182823895], [-108.22990721109625, 52.72191507927577], [-108.2298963170394, 52.724499865662565], [-108.22989217379137, 52.725531371046486], [-108.22989176211959, 52.725712064798216], [-108.22988659493043, 52.72786867698289], [-108.22988595780991, 52.7281382431104], [-108.22988134451543, 52.73007157221514], [-108.22988069379139, 52.73034114763751], [-108.2298744523403, 52.73295413460448], [-108.22986632814137, 52.735649931611654], [-108.22986526741929, 52.73598900292859], [-108.2298630153121, 52.73671055240646], [-108.23001105296858, 52.73671074377154], [-108.23000795173483, 52.73775013371451], [-108.23000681719209, 52.738089224961875], [-108.22985881312287, 52.73802346897274], [-108.22985786875945, 52.73835913742643], [-108.23398678045115, 52.74019435660615], [-108.23965937263965, 52.74271329667858], [-108.24175300019574, 52.74364287391028], [-108.24174943747472, 52.74457503872703], [-108.24173857218807, 52.74742415032222], [-108.24173856558328, 52.747425058862596], [-108.2417341506524, 52.74857452439256], [-108.24172919037451, 52.74986305563031], [-108.2417251406034, 52.75091307697273], [-108.2417248562565, 52.75098944089653], [-108.24172416432211, 52.75117023232163], [-108.24172192078757, 52.751754431662], [-108.24171783916911, 52.75281417578246], [-108.24171713937822, 52.75299505732018], [-108.24171185531257, 52.75436753450894], [-108.24457033188706, 52.754357116164506], [-108.24770837494455, 52.75434549654822], [-108.25365126688551, 52.754323251107294], [-108.25365067082933, 52.75464417102071], [-108.25365036916409, 52.75482495229523], [-108.25365027987435, 52.754871452077936], [-108.25365027483268, 52.754907157130035], [-108.25365032174489, 52.75498926814915], [-108.2536500794943, 52.755071477043735], [-108.25365013311422, 52.75515367781396], [-108.25364989087574, 52.75523588670664], [-108.25364994450882, 52.75531808747494], [-108.25364985021564, 52.75540029230398], [-108.25364548673103, 52.759613500709065], [-108.25364410767992, 52.761024826112184], [-108.2536430784714, 52.76202450124857], [-108.24942952632841, 52.76203229170401], [-108.24764313538387, 52.76203555351769], [-108.24408274781668, 52.7620420526906], [-108.2416729757327, 52.762046296347854], [-108.23662229735608, 52.76205474351817], [-108.22968051587476, 52.762066140963476], [-108.2296717842601, 52.76361184182127], [-108.22964743880057, 52.76793546497855], [-108.22963984744405, 52.7692982936181], [-108.22963945556023, 52.76945875027595], [-108.22963762251375, 52.7702210984578], [-108.22963707594805, 52.77040188486653], [-108.2296222196529, 52.77652864306612], [-108.23083877571516, 52.77652453784971], [-108.23113695229553, 52.776523604678545], [-108.23235617820757, 52.77651950101935], [-108.2326543545577, 52.77651856403156], [-108.23387343151009, 52.77651444880475], [-108.23417160762966, 52.77651350800071], [-108.23539067696693, 52.7765092874173], [-108.23568884619218, 52.776508253042756], [-108.23690806923946, 52.77650410256956], [-108.23720609688849, 52.77650315817507], [-108.23842531231135, 52.77649890234367], [-108.23872348773531, 52.776497950090615], [-108.23994270886655, 52.776493768407676], [-108.24024073605187, 52.77649281638418], [-108.24145979486852, 52.77648844363724], [-108.24160880835024, 52.77648796581218], [-108.24190695658376, 52.776486646537094], [-108.2431687881162, 52.77648108627931], [-108.24328428528236, 52.77648062405661], [-108.24358243323401, 52.7764793005681], [-108.24475708241211, 52.77647404061283], [-108.24505523011491, 52.77647271342062], [-108.24623018100647, 52.776467520519574], [-108.24652848315138, 52.77646627532219], [-108.2477029823622, 52.77646099023392], [-108.24800128426098, 52.776459741330854], [-108.24917608519053, 52.77645452329096], [-108.2494743734611, 52.77645309117534], [-108.25064902540184, 52.77644786259776], [-108.25094717210823, 52.7764465205888], [-108.2521219643751, 52.7764411836054], [-108.25242011083095, 52.77643983789236], [-108.25359476080378, 52.77643458012932], [-108.25389291370968, 52.776433320465216], [-108.2538862948779, 52.77901666060072], [-108.25388371681193, 52.78004812384967], [-108.25387480283345, 52.783618489304374], [-108.25389993417652, 52.78366303749514], [-108.25400230957992, 52.78384414732696], [-108.2540272797579, 52.78388852004381], [-108.25402151007752, 52.78521362312472], [-108.25386719979007, 52.78539386481952], [-108.25386696432926, 52.785462223022215], [-108.25386659424181, 52.78553076479288], [-108.25386652022897, 52.785599298435706], [-108.25386614344649, 52.78566775045257], [-108.25386591470351, 52.78573619840516], [-108.25386554463061, 52.78580474017319], [-108.25386530919276, 52.78587309837197], [-108.25386493242455, 52.78594155038624], [-108.25386471039923, 52.78601008808872], [-108.25386432693561, 52.78607845034915], [-108.25386410491792, 52.786146988050334], [-108.25386372816396, 52.78621544006196], [-108.25386366089434, 52.78628406345072], [-108.25386327744519, 52.78635242570855], [-108.25386305544298, 52.786420963407075], [-108.25386267870356, 52.78648941541613], [-108.25386230196752, 52.78655786742451], [-108.253862073274, 52.78662631536858], [-108.25386170324778, 52.786694857128175], [-108.2538614678592, 52.78676321531845], [-108.25386072176049, 52.78694391819527], [-108.25386012978545, 52.78708099764405], [-108.2538595244197, 52.787217897585236], [-108.25385906711014, 52.787354793460125], [-108.25385846847712, 52.787491783148575], [-108.25385771511354, 52.787628687145634], [-108.25385711650955, 52.78776567682885], [-108.25385651792033, 52.78790266650948], [-108.25385613026756, 52.7880087122515], [-108.25385606068676, 52.788039562371296], [-108.25385546212753, 52.78817655204667], [-108.25385485688003, 52.78831345196697], [-108.2538543410977, 52.78844360419424], [-108.2535561060086, 52.78844486505955], [-108.25355649683432, 52.788364280257504], [-108.24156229345289, 52.78841253430721], [-108.24156185181336, 52.78849492791822], [-108.24154827411984, 52.79110983326342], [-108.24224262786953, 52.79110640338085], [-108.24520574466204, 52.791091723631574], [-108.25354489320111, 52.791050002115064], [-108.25384312601355, 52.79104847173904], [-108.25747721329031, 52.79105927849653], [-108.26546996932507, 52.79108266121138], [-108.26576808620197, 52.791083532278456], [-108.26606619700249, 52.791084321819326], [-108.26667622576288, 52.79108583294506], [-108.26676644480659, 52.79108606283446], [-108.26738968107486, 52.79108781788436], [-108.26768777695261, 52.791088603754], [-108.26822968864647, 52.791090032913154], [-108.2683200563814, 52.79109026651305], [-108.26886195318653, 52.791091693189095], [-108.26915991503698, 52.79109247005476], [-108.26970181173101, 52.7910938928902], [-108.26979218010696, 52.79109413434259], [-108.27033392799179, 52.791095549396125], [-108.27063203846039, 52.791096327450944], [-108.27117408301098, 52.79109773946906], [-108.27126431743405, 52.79109797450069], [-108.27180621317488, 52.79109937873789], [-108.27191033689297, 52.79109965263008], [-108.2721041754842, 52.791100157175606], [-108.27264621983878, 52.79110156245999], [-108.27273643942407, 52.791101796779394], [-108.27327849849941, 52.791103198762926], [-108.27357659394715, 52.7911039698191], [-108.27411850485896, 52.79110537204872], [-108.27420885765768, 52.79110560156686], [-108.27475076848495, 52.79110700090515], [-108.27504865587808, 52.79110776500919], [-108.2755905073725, 52.7911091621435], [-108.2756808749433, 52.79110939013018], [-108.27622281518359, 52.79111078191861], [-108.27652092521953, 52.79111154515906], [-108.277062865347, 52.791112933105715], [-108.27715323288469, 52.791113159969626], [-108.27764991480159, 52.79111442936714], [-108.2776951729271, 52.791114545024584], [-108.27799329568548, 52.791115475086634], [-108.27803929343816, 52.79111575902762], [-108.27803563023495, 52.79204479280585], [-108.27802538629642, 52.79475361874677], [-108.27802464771544, 52.7950099595742], [-108.27802400996252, 52.795190750542424], [-108.27801563867739, 52.797557673346006], [-108.27801265345057, 52.798385445658816], [-108.27799724931616, 52.802003125871074], [-108.28388868755157, 52.80201429940121], [-108.28982555706868, 52.80202540307918], [-108.28981112510796, 52.803060063274636], [-108.28977513884746, 52.80563889504901]]]}}]}