{"type":"FeatureCollection","crs":{"type":"name","properties":{"name":"EPSG:4326"}},"features":[{"type":"Feature","id":1,"geometry":{"type":"Polygon","coordinates":[[[-79.997374988769423,43.566282769871052],[-79.998499227988091,43.567086187663548],[-80.001398679090784,43.569159618917311],[-80.004801456730121,43.571596153226501],[-80.011210522478279,43.576180323970981],[-80.016396107352065,43.579873225669495],[-80.019938033963541,43.582416187066251],[-80.023983565434278,43.585351175917879],[-80.026303461540238,43.587018881499191],[-80.028828106488405,43.588826897320793],[-80.030912403213904,43.590326683827968],[-80.03126511366402,43.590714222842635],[-80.035468332769611,43.593775382385481],[-80.042292953677801,43.598652619812512],[-80.044034555259302,43.599887598040532],[-80.045437615662706,43.600854283735501],[-80.050869541670167,43.604719094958703],[-80.05163616309548,43.605251851025685],[-80.052312105508989,43.605709400019308],[-80.054116035900236,43.606938632740345],[-80.057469113682671,43.609307804574364],[-80.058796959009285,43.610200214610728],[-80.062581847594373,43.612806035758837],[-80.065953643330161,43.615185595590056],[-80.070225567121526,43.618181762955992],[-80.074710784262066,43.621299721876198],[-80.077963091976727,43.6235505412048],[-80.082058262325617,43.626386609080129],[-80.085646903114636,43.628884711399863],[-80.086421815326887,43.628183116581262],[-80.086839394141208,43.627805038294802],[-80.087396258704757,43.627300838893767],[-80.088093214269009,43.626667458650964],[-80.0954674850543,43.619933637457507],[-80.098576252156235,43.617171277019025],[-80.10166462250514,43.614460964903984],[-80.103276255638718,43.613046486680112],[-80.1065445295107,43.610151884799173],[-80.110428977750573,43.606707325050728],[-80.113805496654351,43.603699611828851],[-80.117431477805468,43.600463802051124],[-80.128997012460147,43.590239735105669],[-80.13437155927393,43.585271185045364],[-80.128043176385688,43.580809339172205],[-80.13320767542335,43.576261314930534],[-80.13893930482233,43.571265979395847],[-80.138146378452518,43.570710649355163],[-80.14361293354537,43.566008004287163],[-80.150828862367533,43.570968472771803],[-80.152927811586792,43.569046268617662],[-80.152972839731319,43.568808005081486],[-80.153127445511274,43.568457253265457],[-80.153300860361554,43.568259739776188],[-80.153482256815622,43.568191902465571],[-80.153889506076965,43.568032411400516],[-80.15420605409966,43.567906838196443],[-80.159653212718752,43.562779466179123],[-80.159579313241565,43.562431822760956],[-80.159658437451085,43.562163534974907],[-80.159845725051738,43.561922364799948],[-80.160030675263698,43.561881934655482],[-80.160320621450609,43.561917257523042],[-80.160495170672107,43.562022597718581],[-80.161012933127353,43.561537483826264],[-80.155780861570648,43.557760338831322],[-80.149253875669757,43.553090128483092],[-80.14442107161392,43.549665452410053],[-80.137335137165024,43.544682537274163],[-80.130791768958559,43.540075547901523],[-80.123617503192733,43.534875182193588],[-80.096690799514178,43.515667980197648],[-80.09115099668125,43.511804620226556],[-80.085173619806213,43.507557215699798],[-80.07968278641988,43.503627620971145],[-80.074167049571571,43.499631740564084],[-80.068603680930806,43.495576046057884],[-80.062800103362477,43.491296393788936],[-80.042479171853103,43.476895437189974],[-80.013925792436382,43.456351815642591],[-80.00286284026528,43.448465470905553],[-79.986520112832466,43.436640284599392],[-79.969269766221259,43.424264052862632],[-79.959315359408194,43.417251849371283],[-79.954070227369698,43.421922897481124],[-79.953465518443338,43.422316296473639],[-79.952384764862757,43.423294949392151],[-79.947757333532692,43.427430449587284],[-79.94654365255704,43.427885538481675],[-79.946224094443295,43.42805917066763],[-79.946070543632317,43.42827003344518],[-79.945782397594527,43.428766546588392],[-79.94543114751869,43.429364110631774],[-79.944893616546196,43.430064100626943],[-79.94369650441584,43.431174942908804],[-79.943546409731979,43.431413227048246],[-79.943299336127836,43.431934627369586],[-79.943094668717379,43.432266473799118],[-79.942826604073716,43.432547267191808],[-79.938054941892275,43.436783328385388],[-79.931424230062476,43.442696837425181],[-79.926263525063462,43.447465879829807],[-79.922232498617575,43.451028751769677],[-79.921079630039529,43.452082588536065],[-79.919055788388732,43.454368998544908],[-79.915783428640154,43.457386145807973],[-79.912618031829709,43.460241671415972],[-79.909320557319418,43.463373400839338],[-79.905279995090552,43.467211550088123],[-79.90048396990511,43.471534289813555],[-79.899315793767244,43.472435169265722],[-79.898306771539836,43.473318484857678],[-79.894735180402975,43.47653965206694],[-79.891790800002639,43.479200948359107],[-79.891418987792662,43.479536991080884],[-79.889635469859186,43.481265184920424],[-79.889522758086855,43.481374488517766],[-79.888591529429462,43.482277531513574],[-79.88827510759053,43.482584367528773],[-79.887999415544428,43.482838691702078],[-79.887899677801826,43.482930697551375],[-79.887874950552401,43.482953507874306],[-79.8863633263,43.484347910094378],[-79.886163333573165,43.484532387374493],[-79.885885326010225,43.484751926546345],[-79.885492344981358,43.485062255034919],[-79.884999170498475,43.485451697721899],[-79.884107022448319,43.486156178377307],[-79.883034493626695,43.486978420115257],[-79.881302844601848,43.488518669975491],[-79.878854580152989,43.490664675753862],[-79.878839224350173,43.490677533572416],[-79.878751095400176,43.490751327834751],[-79.878618785402878,43.490862114750712],[-79.878397936824442,43.491047038140664],[-79.878267920628659,43.491155904034869],[-79.87699193742138,43.49222428779116],[-79.876610563196039,43.492543602625084],[-79.876416039127903,43.492706471021599],[-79.875736283383247,43.493330159644465],[-79.875198579913572,43.493815771843011],[-79.8751042667527,43.493900945862663],[-79.874709632029237,43.494257342699889],[-79.873929485064778,43.494961879651406],[-79.873505451908997,43.495344806249726],[-79.873382505272929,43.495455833225513],[-79.873259559438139,43.495566859173941],[-79.872783172277281,43.496013186186978],[-79.872674194906324,43.496113418096748],[-79.871569151727698,43.497129752384282],[-79.871124039832154,43.497539119792407],[-79.868271038356525,43.500075379243142],[-79.868075040387055,43.500249606214616],[-79.867519038189442,43.500779238972733],[-79.867520704050236,43.500779255473915],[-79.867410029164361,43.500883076136098],[-79.865210217985933,43.502979009909559],[-79.864529018675796,43.503627697411709],[-79.86203812597283,43.505999549309408],[-79.861996070798085,43.506039595564445],[-79.861518488706622,43.50649441314124],[-79.861516325430756,43.506496368920544],[-79.863374342361439,43.507879331234562],[-79.867199283673472,43.510670086822266],[-79.868693327194379,43.511778170410736],[-79.869906427066326,43.51270519627861],[-79.870447419168983,43.513118598895588],[-79.871634284499734,43.514000113640648],[-79.872545855113614,43.514677134721921],[-79.873739102269809,43.515561242167713],[-79.874475606296187,43.516106917638069],[-79.874890066955416,43.516417785049647],[-79.875050650297297,43.516544735927553],[-79.875863751030479,43.517163839626484],[-79.876664851515528,43.517767146004758],[-79.877519597394468,43.518338302674174],[-79.880558224196136,43.520619904883098],[-79.881474191799171,43.521276407367687],[-79.882343104664102,43.52196056609904],[-79.883119942245955,43.522539382859023],[-79.885607706871625,43.524346678897238],[-79.886288093353926,43.524862044790439],[-79.888478168822729,43.526502815804314],[-79.888479919287462,43.526504126722536],[-79.888480942530322,43.526504943444721],[-79.889091154435945,43.525968945106158],[-79.889176593888607,43.526115467293721],[-79.889315696279851,43.526358307946161],[-79.889743269100904,43.526975905319055],[-79.890462053359471,43.527753352277706],[-79.891042094478095,43.528239230155613],[-79.892239699774507,43.529147800880864],[-79.899639946708959,43.534829015285474],[-79.914636487081097,43.546198778517919],[-79.914881168443941,43.545978806942962],[-79.915936891067119,43.545030640388937],[-79.916257100618566,43.54509025301585],[-79.916598197942207,43.54495395869256],[-79.917119066634143,43.544483276636505],[-79.919229313397267,43.542576252708955],[-79.921646044455599,43.540388235264189],[-79.921859717993456,43.540194293145589],[-79.921833182329024,43.540174536291715],[-79.926643846984732,43.535836552735766],[-79.927070977084,43.535314296789984],[-79.926964556603991,43.535233864155032],[-79.927101194100302,43.535106657142251],[-79.931392001113778,43.53118600013282],[-79.934337046485027,43.528549230203197],[-79.938346920969593,43.525017519988275],[-79.939056588975205,43.524505125851235],[-79.948003927765427,43.530895478408851],[-79.950208550509188,43.532486426058753],[-79.958970926135436,43.538821540908728],[-79.965792050452663,43.543777721786675],[-79.973596723166125,43.54935099960219],[-79.976224350868264,43.551235191271267],[-79.979269840908785,43.553401471800349],[-79.981881286812552,43.555255920132645],[-79.982432502928035,43.555656292370422],[-79.984198781469743,43.556907507822622],[-79.986734396378225,43.55871327403046],[-79.991283505183617,43.561994140519765],[-79.992782243850044,43.563014485085958],[-79.995789488878202,43.565149663878273],[-79.997374988769423,43.566282769871052]]]},"properties":{"OBJECTID":1,"WARD_NUM":1,"Name":"NORTH-WEST","Shape_Length":72841.747655213869,"Shape_Area":236919854.80663499}},{"type":"Feature","id":2,"geometry":{"type":"Polygon","coordinates":[[[-79.737130104179442,43.534113707697763],[-79.738553472175553,43.534866423552842],[-79.740211322834639,43.535747038871797],[-79.742773229769796,43.53711734314728],[-79.744104740484374,43.537916577024966],[-79.746113306799032,43.539224873194392],[-79.749145048199367,43.541424034235519],[-79.751413338179091,43.543074489629191],[-79.756358041816895,43.546736774182079],[-79.759015218269795,43.549084777602182],[-79.760361900025487,43.550305058554351],[-79.761362310861173,43.551147650229929],[-79.762619336102958,43.552129984231073],[-79.763731056739132,43.552911255054418],[-79.765035082176055,43.553751901097435],[-79.766661954808313,43.554705239230238],[-79.768455484822326,43.555739870331848],[-79.770295999981442,43.55689750646463],[-79.771750395728958,43.557941338072538],[-79.776416260148281,43.561364218469059],[-79.777865637148963,43.56241363289795],[-79.77941411813336,43.563540891079086],[-79.783218187909299,43.566321622050992],[-79.785623728045593,43.568142553751485],[-79.786749989901423,43.569084898084213],[-79.787910914853583,43.570056574808596],[-79.789247079746616,43.571118366481478],[-79.789929996153447,43.571622158519965],[-79.793539259059813,43.568443967275648],[-79.797405458447003,43.564886660630322],[-79.802349620795439,43.560378482014954],[-79.805215366612501,43.55787546683419],[-79.808095601273223,43.555254546838867],[-79.811478289995421,43.552197509379297],[-79.812517391258609,43.551275687338311],[-79.815542065030868,43.548659963401242],[-79.818241422635452,43.54622786887051],[-79.819865692375586,43.544758988284919],[-79.821395003707195,43.543360506177066],[-79.823306508039437,43.541606728557021],[-79.824993436545782,43.539891884370626],[-79.82744305808815,43.537603463216783],[-79.82954194874597,43.53567190431626],[-79.835048405267614,43.530756218699452],[-79.838001658645638,43.528119365590264],[-79.840340954286376,43.525994100103915],[-79.842211361504681,43.524305747442327],[-79.845686837835913,43.5210591325705],[-79.847177107023981,43.519729728080506],[-79.850958702208672,43.516309580406407],[-79.850958965309232,43.516309342639154],[-79.850962546826324,43.516306102014788],[-79.850992726308107,43.516241157447141],[-79.856040975414686,43.511448782377521],[-79.856359515344252,43.511160694604499],[-79.856812550752863,43.510750963558827],[-79.857449183614847,43.510175172638689],[-79.85761092796885,43.510028882533554],[-79.857688086940058,43.509959096672929],[-79.8580137878442,43.509666602467199],[-79.858112566402582,43.509577894759559],[-79.858192575562882,43.50950280563778],[-79.858831086319256,43.508925283313161],[-79.859255368119378,43.508541519709887],[-79.859523953714188,43.508298580250717],[-79.860526553904293,43.50739169111668],[-79.861297707156396,43.506701036072883],[-79.861516325430756,43.506496368920544],[-79.860524129546775,43.505752421586678],[-79.859018818189384,43.504643428246901],[-79.855647910564741,43.502355841824226],[-79.852973354730523,43.500601899679452],[-79.85180949100976,43.499771822173564],[-79.850526283745467,43.498597833721661],[-79.849762213004979,43.497953536378454],[-79.84895778804993,43.497284753952961],[-79.84811949059204,43.496608819163818],[-79.848088380946933,43.496607131682559],[-79.844773150127935,43.49415297583996],[-79.834745941311454,43.486728381776288],[-79.832115604359629,43.484878066512046],[-79.830328651326937,43.483603141368299],[-79.829075511003055,43.482709024618778],[-79.826826129433769,43.481103987425413],[-79.82647619574783,43.480854281767797],[-79.826077798465974,43.480564816289963],[-79.824581283190525,43.479477447493863],[-79.823039676134741,43.478357255190282],[-79.822585017848681,43.478027687703452],[-79.821634009905608,43.477336105729769],[-79.821085282697609,43.476936867573585],[-79.819364300018904,43.47568467883687],[-79.817086703196779,43.474026930045675],[-79.815554086879729,43.472911339272947],[-79.811094565728837,43.4696264420419],[-79.8107141052907,43.469346169228253],[-79.810098032614889,43.468892320332145],[-79.809839164673349,43.468701614595282],[-79.809339260588644,43.468229849367766],[-79.809189941103554,43.468088932861789],[-79.808825266769745,43.467686964569324],[-79.808738285674963,43.467589881278315],[-79.808709856585963,43.467558150343642],[-79.808653375320517,43.467482931033892],[-79.808134833958121,43.466792357558184],[-79.806699114581761,43.468103566879748],[-79.804194770051197,43.470396129925582],[-79.803789829211311,43.470716638171588],[-79.803377850426898,43.47122487092475],[-79.802045011362992,43.472328777938863],[-79.800173222950065,43.474157249008897],[-79.799939607352144,43.474272059293234],[-79.799542315495799,43.474304041410591],[-79.798777546196263,43.474091405736964],[-79.797825553245602,43.474299045538871],[-79.797638128851531,43.474520342732554],[-79.797600329228658,43.475670225112339],[-79.796987682471126,43.477086391187605],[-79.796741765642949,43.477229400830581],[-79.786181620464532,43.486827134950452],[-79.779636146940973,43.48609879049031],[-79.773053717348489,43.485168003723359],[-79.772921683390678,43.484907132997172],[-79.773040388936479,43.484509378060366],[-79.773235525655096,43.483957490483959],[-79.767002219432911,43.489695467275915],[-79.763366224824651,43.493180551400116],[-79.756303631108565,43.499541781880538],[-79.750563816414214,43.504777731883024],[-79.748064183779618,43.507058182169352],[-79.744495405867823,43.51029362345777],[-79.739040498386913,43.515297696082435],[-79.733503890614898,43.520326990017857],[-79.724902475358164,43.528444042361549],[-79.727555991960486,43.530403371701759],[-79.72823157629297,43.530494677401784],[-79.729102369777507,43.530711724010587],[-79.730235962214209,43.531103752291664],[-79.731795589670938,43.531732072828909],[-79.734873415832254,43.533193011228178],[-79.735117103408427,43.533320888649243],[-79.735289123356765,43.533165354570308],[-79.737130104179442,43.534113707697763]]]},"properties":{"OBJECTID":2,"WARD_NUM":3,"Name":"SOUTH-EAST","Shape_Length":33100.376078104971,"Shape_Area":63197237.679872006}},{"type":"Feature","id":3,"geometry":{"type":"Polygon","coordinates":[[[-79.855647910564741,43.502355841824226],[-79.859018818189384,43.504643428246901],[-79.860524129546775,43.505752421586678],[-79.861516325430756,43.506496368920544],[-79.861518488706622,43.50649441314124],[-79.861996070798085,43.506039595564445],[-79.86203812597283,43.505999549309408],[-79.864529018675796,43.503627697411709],[-79.865210217985933,43.502979009909559],[-79.867410029164361,43.500883076136098],[-79.867520704050236,43.500779255473915],[-79.867519038189442,43.500779238972733],[-79.868075040387055,43.500249606214616],[-79.868271038356525,43.500075379243142],[-79.871124039832154,43.497539119792407],[-79.871569151727698,43.497129752384282],[-79.872674194906324,43.496113418096748],[-79.872783172277281,43.496013186186978],[-79.873259559438139,43.495566859173941],[-79.873382505272929,43.495455833225513],[-79.873505451908997,43.495344806249726],[-79.873929485064778,43.494961879651406],[-79.874709632029237,43.494257342699889],[-79.8751042667527,43.493900945862663],[-79.875198579913572,43.493815771843011],[-79.875736283383247,43.493330159644465],[-79.876416039127903,43.492706471021599],[-79.876610563196039,43.492543602625084],[-79.87699193742138,43.49222428779116],[-79.878267920628659,43.491155904034869],[-79.878397936824442,43.491047038140664],[-79.878618785402878,43.490862114750712],[-79.878751095400176,43.490751327834751],[-79.878839224350173,43.490677533572416],[-79.878854580152989,43.490664675753862],[-79.881302844601848,43.488518669975491],[-79.883034493626695,43.486978420115257],[-79.884107022448319,43.486156178377307],[-79.884999170498475,43.485451697721899],[-79.885492344981358,43.485062255034919],[-79.885885326010225,43.484751926546345],[-79.886163333573165,43.484532387374493],[-79.8863633263,43.484347910094378],[-79.887874950552401,43.482953507874306],[-79.887899677801826,43.482930697551375],[-79.887999415544428,43.482838691702078],[-79.88827510759053,43.482584367528773],[-79.888591529429462,43.482277531513574],[-79.889522758086855,43.481374488517766],[-79.889635469859186,43.481265184920424],[-79.891418987792662,43.479536991080884],[-79.891790800002639,43.479200948359107],[-79.894697118985036,43.476529865678692],[-79.888418828938185,43.472106793046009],[-79.881331007747931,43.467128780055724],[-79.875645695129606,43.463170924516405],[-79.869727870852643,43.459033483827604],[-79.866283297989611,43.45653215825854],[-79.859167415400378,43.451787244252898],[-79.850394735153188,43.445789846229111],[-79.839313268749194,43.438227138084599],[-79.838316580583992,43.439121972147809],[-79.837415980424041,43.438575111827191],[-79.835283518422514,43.43704283897349],[-79.828248587754146,43.431932416028189],[-79.820452295647442,43.42611645046437],[-79.810283096925019,43.435454062232616],[-79.802436689703754,43.442620895779932],[-79.795214132768564,43.44924930287042],[-79.799584801774188,43.452464701948479],[-79.801260664578592,43.453721187867941],[-79.801965960009753,43.454395137197153],[-79.802754828889235,43.455390335270465],[-79.803662418211857,43.457153448683627],[-79.806048724035932,43.462316609962116],[-79.808134833958121,43.466792357558184],[-79.808653375320517,43.467482931033892],[-79.808709856585963,43.467558150343642],[-79.808738285674963,43.467589881278315],[-79.808825266769745,43.467686964569324],[-79.809189941103554,43.468088932861789],[-79.809339260588644,43.468229849367766],[-79.809839164673349,43.468701614595282],[-79.810098032614889,43.468892320332145],[-79.8107141052907,43.469346169228253],[-79.811094565728837,43.4696264420419],[-79.815554086879729,43.472911339272947],[-79.817086703196779,43.474026930045675],[-79.819364300018904,43.47568467883687],[-79.821085282697609,43.476936867573585],[-79.821634009905608,43.477336105729769],[-79.822585017848681,43.478027687703452],[-79.823039676134741,43.478357255190282],[-79.824581283190525,43.479477447493863],[-79.826077798465974,43.480564816289963],[-79.82647619574783,43.480854281767797],[-79.826826129433769,43.481103987425413],[-79.829075511003055,43.482709024618778],[-79.830328651326937,43.483603141368299],[-79.832115604359629,43.484878066512046],[-79.834745941311454,43.486728381776288],[-79.844773150127935,43.49415297583996],[-79.848088380946933,43.496607131682559],[-79.84811949059204,43.496608819163818],[-79.84895778804993,43.497284753952961],[-79.849762213004979,43.497953536378454],[-79.850526283745467,43.498597833721661],[-79.85180949100976,43.499771822173564],[-79.852973354730523,43.500601899679452],[-79.855647910564741,43.502355841824226]]]},"properties":{"OBJECTID":3,"WARD_NUM":4,"Name":"SOUTH-WEST","Shape_Length":24349.409224246636,"Shape_Area":32812299.03485148}},{"type":"Feature","id":4,"geometry":{"type":"Polygon","coordinates":[[[-79.861872891871698,43.542502549722577],[-79.862725649531768,43.542062508434725],[-79.867139462951528,43.543842291315997],[-79.868346029113383,43.544275275065608],[-79.86853677565199,43.544347699736399],[-79.895114015642221,43.564276740246363],[-79.914825672724049,43.546532131387437],[-79.91480969866366,43.546330063626918],[-79.899639946708959,43.534829015285474],[-79.892239699774507,43.529147800880864],[-79.891042094478095,43.528239230155613],[-79.890462053359471,43.527753352277706],[-79.889743269100904,43.526975905319055],[-79.889315696279851,43.526358307946161],[-79.889176593888607,43.526115467293721],[-79.889091154435945,43.525968945106158],[-79.888480942530322,43.526504943444721],[-79.888479919287462,43.526504126722536],[-79.888478168822729,43.526502815804314],[-79.886288093353926,43.524862044790439],[-79.885607706871625,43.524346678897238],[-79.883119942245955,43.522539382859023],[-79.882343104664102,43.52196056609904],[-79.881474191799171,43.521276407367687],[-79.880558224196136,43.520619904883098],[-79.877519597394468,43.518338302674174],[-79.876664851515528,43.517767146004758],[-79.875863751030479,43.517163839626484],[-79.875050650297297,43.516544735927553],[-79.874890066955416,43.516417785049647],[-79.874475606296187,43.516106917638069],[-79.873739102269809,43.515561242167713],[-79.872545855113614,43.514677134721921],[-79.871634284499734,43.514000113640648],[-79.870447419168983,43.513118598895588],[-79.869906427066326,43.51270519627861],[-79.868693327194379,43.511778170410736],[-79.867199283673472,43.510670086822266],[-79.863374342361439,43.507879331234562],[-79.861516325430756,43.506496368920544],[-79.861297707156396,43.506701036072883],[-79.860526553904293,43.50739169111668],[-79.859523953714188,43.508298580250717],[-79.859255368119378,43.508541519709887],[-79.858831086319256,43.508925283313161],[-79.858192575562882,43.50950280563778],[-79.858112566402582,43.509577894759559],[-79.8580137878442,43.509666602467199],[-79.857688086940058,43.509959096672929],[-79.85761092796885,43.510028882533554],[-79.857449183614847,43.510175172638689],[-79.856812550752863,43.510750963558827],[-79.856359515344252,43.511160694604499],[-79.856040975414686,43.511448782377521],[-79.850992726308107,43.516241157447141],[-79.850962546826324,43.516306102014788],[-79.850958965309232,43.516309342639154],[-79.850958702208672,43.516309580406407],[-79.847177107023981,43.519729728080506],[-79.845686837835913,43.5210591325705],[-79.842211361504681,43.524305747442327],[-79.840340954286376,43.525994100103915],[-79.838001658645638,43.528119365590264],[-79.835048405267614,43.530756218699452],[-79.82954194874597,43.53567190431626],[-79.82744305808815,43.537603463216783],[-79.824993436545782,43.539891884370626],[-79.823306508039437,43.541606728557021],[-79.821395003707195,43.543360506177066],[-79.819865692375586,43.544758988284919],[-79.818241422635452,43.54622786887051],[-79.815542065030868,43.548659963401242],[-79.812517391258609,43.551275687338311],[-79.811478289995421,43.552197509379297],[-79.808095601273223,43.555254546838867],[-79.805215366612501,43.55787546683419],[-79.802349620795439,43.560378482014954],[-79.797405458447003,43.564886660630322],[-79.793539259059813,43.568443967275648],[-79.789929996153447,43.571622158519965],[-79.790191397571334,43.571814992548383],[-79.791429484726194,43.572639382155714],[-79.792723540318661,43.573479651820151],[-79.79373978058473,43.574146195972929],[-79.795282104943524,43.5751740422117],[-79.796863707313292,43.576312079371746],[-79.798795150627939,43.577732488829],[-79.800965125138163,43.579328559244097],[-79.803288917877168,43.581032325072947],[-79.805341237694122,43.582569809602155],[-79.807139393613625,43.5838809655407],[-79.808133884035058,43.58463652922206],[-79.808805873044946,43.585262274430285],[-79.809335423193644,43.585907923939189],[-79.809751190775728,43.586553904328035],[-79.810317920121079,43.588174026595823],[-79.810637679296434,43.587882443026665],[-79.811461040500944,43.587139555521645],[-79.81284355126293,43.585892113467054],[-79.814191151357008,43.584686415058954],[-79.814897464494976,43.584056184131384],[-79.816025175867878,43.583057223214034],[-79.816574561339408,43.58255506350735],[-79.817729138146859,43.581522205726074],[-79.818216121302697,43.581078538526498],[-79.819267135273932,43.580133958752256],[-79.820244522995083,43.579252084446516],[-79.821273206499455,43.578338802095146],[-79.822454730911858,43.577267614441816],[-79.82957290629507,43.570909535151394],[-79.830712089302864,43.569872664676737],[-79.831069202282194,43.569561986666436],[-79.832268803474747,43.568480216871755],[-79.83319345045841,43.567662834659991],[-79.834512280868154,43.566474604764018],[-79.836742017555039,43.564481508237577],[-79.840217452152615,43.561366578366922],[-79.840775016434051,43.560865506733478],[-79.84141408931572,43.560285897104286],[-79.841947991663574,43.559798233656345],[-79.842119686699661,43.559641393315992],[-79.842650702560547,43.55916485608045],[-79.843323853146529,43.558567394956562],[-79.844238004346209,43.557746567702615],[-79.845130252689216,43.556952479957694],[-79.845621225326354,43.556523685338462],[-79.846325847139539,43.555883374457231],[-79.846662887203621,43.55558764678657],[-79.847635180839887,43.554704551272906],[-79.848179497520505,43.554224749888462],[-79.848859918291524,43.553604478126793],[-79.849289518340584,43.553224769298289],[-79.850423820548372,43.552194614962701],[-79.851023490970903,43.551662943384592],[-79.851280047946787,43.551434383054513],[-79.851909929672004,43.550873228261665],[-79.8527694881423,43.550107432276207],[-79.853383940676423,43.549559990628282],[-79.854086880990266,43.548928901859455],[-79.855055269510601,43.548059664651781],[-79.856177532391925,43.547055405688823],[-79.857477880315045,43.545883836680147],[-79.858666165968472,43.544814540965035],[-79.859415404542688,43.544176330142882],[-79.859960510057547,43.543753295577993],[-79.860493581949427,43.543365247370382],[-79.861210051278135,43.542912150835612],[-79.861833115831544,43.542527380624236],[-79.861872891871698,43.542502549722577]]]},"properties":{"OBJECTID":4,"WARD_NUM":2,"Name":"NORTH-EAST","Shape_Length":30855.047932122616,"Shape_Area":32089189.627839603}}]}