{
"type": "FeatureCollection",
"name": "wards",
"crs": { "type": "name", "properties": { "name": "urn:ogc:def:crs:OGC:1.3:CRS84" } },
"features": [
{ "type": "Feature", "properties": { "WARD": "1", "COUNCILOR": "CAROL DAVIDSON" }, "geometry": { "type": "Polygon", "coordinates": [ [ [ -79.393016300798806, 43.977092361365401 ], [ -79.392856797532801, 43.975755115671397 ], [ -79.392813015621499, 43.975258540178103 ], [ -79.392765398673902, 43.974545527830003 ], [ -79.392748051537495, 43.973726048628301 ], [ -79.392754656181793, 43.973221127151497 ], [ -79.392811078583605, 43.971692655279497 ], [ -79.392859920825501, 43.970192511047301 ], [ -79.392893820781296, 43.969363699525502 ], [ -79.392932267629305, 43.968449787772698 ], [ -79.392955583164607, 43.967649741213101 ], [ -79.392976796979895, 43.9668398191153 ], [ -79.393011261596698, 43.965959264763299 ], [ -79.393036060549704, 43.965325754121601 ], [ -79.393050423066995, 43.964568657654603 ], [ -79.393073359655205, 43.963406341575499 ], [ -79.393096100678306, 43.962253825175303 ], [ -79.393108319043705, 43.9616346014475 ], [ -79.393150050218495, 43.959796146197498 ], [ -79.393155492357195, 43.959505107070598 ], [ -79.393142514093796, 43.959335027711397 ], [ -79.393142858635699, 43.959203051613002 ], [ -79.393150678491295, 43.959119722606303 ], [ -79.393149246080199, 43.9590050444193 ], [ -79.393147644380804, 43.958876760440397 ], [ -79.393145621853293, 43.958714876319398 ], [ -79.393143036188505, 43.958507833377297 ], [ -79.393140015559197, 43.958266027851003 ], [ -79.393128212638402, 43.958097304700999 ], [ -79.393104960100999, 43.957461285528296 ], [ -79.393065882457293, 43.956575556919702 ], [ -79.393045032900801, 43.956123610464402 ], [ -79.393017155113299, 43.9556441548702 ], [ -79.392990401590197, 43.9551840207439 ], [ -79.392965687731703, 43.954759285423798 ], [ -79.392942465465197, 43.954360540167599 ], [ -79.392902989793299, 43.9537633134467 ], [ -79.392883608293303, 43.953534045465901 ], [ -79.392859848878899, 43.9532529908467 ], [ -79.392829559341706, 43.952894685489298 ], [ -79.392751127649703, 43.952238841856101 ], [ -79.392632305549498, 43.951510501872498 ], [ -79.392547430845497, 43.950965765860403 ], [ -79.392468696613406, 43.950509809821 ], [ -79.392278264251701, 43.949548564261796 ], [ -79.392217081552602, 43.949278555484902 ], [ -79.392150710665305, 43.948985642607198 ], [ -79.391844887384295, 43.947628683286403 ], [ -79.391521998957003, 43.946339696262001 ], [ -79.391136714690603, 43.944844816059501 ], [ -79.390666410568997, 43.943062364147202 ], [ -79.390286472294804, 43.941564048754003 ], [ -79.390113480934602, 43.940863216293799 ], [ -79.389998627165298, 43.940134298976602 ], [ -79.389995341562596, 43.940111760998697 ], [ -79.392914766182201, 43.939878329880599 ], [ -79.394194747497096, 43.939782973318401 ], [ -79.3955788611636, 43.939659604395104 ], [ -79.396937286666699, 43.939451671592003 ], [ -79.398292967580005, 43.939193754477103 ], [ -79.399272601438298, 43.9389228233089 ], [ -79.400449009296906, 43.938553026832402 ], [ -79.402896681704405, 43.937726291849799 ], [ -79.403539056407794, 43.937455232166499 ], [ -79.404352603788396, 43.937050283192903 ], [ -79.405508341449007, 43.9363968810435 ], [ -79.405925150391994, 43.936153782298099 ], [ -79.406343193324403, 43.935934061023701 ], [ -79.4068738259555, 43.935705811776998 ], [ -79.407231948388201, 43.9355682132583 ], [ -79.407638293520606, 43.935446716439998 ], [ -79.408801284833402, 43.935166611628397 ], [ -79.410711112145407, 43.9347684879273 ], [ -79.413857694858507, 43.934117549096499 ], [ -79.415450612353297, 43.933782965788602 ], [ -79.416507748225101, 43.933523693981201 ], [ -79.418086085822296, 43.933188139946701 ], [ -79.419727326248804, 43.932848132931198 ], [ -79.420651865143498, 43.932611819620803 ], [ -79.423247934206302, 43.9320738880064 ], [ -79.424302944968701, 43.931829853038401 ], [ -79.425646471295394, 43.931507960929402 ], [ -79.427663808519299, 43.931164853945504 ], [ -79.428695582112994, 43.9309501270846 ], [ -79.429323622136096, 43.930927596088999 ], [ -79.429746225536206, 43.9308450237708 ], [ -79.431316465011093, 43.930426864036001 ], [ -79.432501929629495, 43.930165829788301 ], [ -79.434362823549705, 43.929686739827801 ], [ -79.435188038398394, 43.929455688023999 ], [ -79.436412758581397, 43.929168884200799 ], [ -79.438681147512895, 43.928690793482403 ], [ -79.441527516504706, 43.9280734677467 ], [ -79.442579954916297, 43.927744404904999 ], [ -79.443725601935, 43.927493365467399 ], [ -79.445176185431393, 43.927320258517902 ], [ -79.4463781930842, 43.927035273090901 ], [ -79.448991963921699, 43.926463910825802 ], [ -79.450379872528401, 43.926125183546397 ], [ -79.450238331072299, 43.925480405047999 ], [ -79.449998014362293, 43.9246796622609 ], [ -79.449777520865794, 43.923848492973498 ], [ -79.449453142014093, 43.922516371761802 ], [ -79.450555547742596, 43.922357947685398 ], [ -79.451150593315404, 43.922237712565 ], [ -79.454480215425207, 43.921523968775702 ], [ -79.455069247926403, 43.9214196687578 ], [ -79.458430004336705, 43.9206811953906 ], [ -79.459484014483607, 43.920455170902599 ], [ -79.4604196759107, 43.920267051853799 ], [ -79.460862422007594, 43.920160510744097 ], [ -79.464871816951103, 43.919270798202 ], [ -79.466828202930003, 43.9188361316547 ], [ -79.469788130092297, 43.918200214522599 ], [ -79.475026156634598, 43.917071697849998 ], [ -79.4753389769336, 43.917015228732097 ], [ -79.475427538781702, 43.917331101500501 ], [ -79.475626353732906, 43.917861187601098 ], [ -79.4765075493263, 43.920210543371397 ], [ -79.476779362513, 43.920913472936903 ], [ -79.477173732279795, 43.922000722946201 ], [ -79.477567392509101, 43.923322827043798 ], [ -79.477935423812994, 43.924872471564399 ], [ -79.478986097771298, 43.9293068530569 ], [ -79.479490030955503, 43.9313642306536 ], [ -79.479777278404498, 43.932540491127703 ], [ -79.480434571539405, 43.935109789876797 ], [ -79.480939641583007, 43.936919916376397 ], [ -79.481201889229197, 43.937814804852302 ], [ -79.481467747941707, 43.938915220605601 ], [ -79.481808844936893, 43.940428114512798 ], [ -79.482078226202702, 43.941425552902899 ], [ -79.482345995793395, 43.942307644445101 ], [ -79.482506019874606, 43.9429848692617 ], [ -79.482648974708894, 43.943714876101701 ], [ -79.482797912799896, 43.944445718143697 ], [ -79.482922958227903, 43.945180668596699 ], [ -79.483157364223104, 43.946817484663299 ], [ -79.483424559064503, 43.948528349792703 ], [ -79.483837947669201, 43.9506423907754 ], [ -79.484368417119896, 43.953160205314198 ], [ -79.484781437625898, 43.954798393242598 ], [ -79.4855362776335, 43.957472310104698 ], [ -79.484561809627095, 43.957736664907799 ], [ -79.483519258941598, 43.957893464635603 ], [ -79.482183013758601, 43.958022732716898 ], [ -79.481287536511601, 43.958166607534302 ], [ -79.480134412850703, 43.958410434083497 ], [ -79.476336487289899, 43.959293766556897 ], [ -79.4713286057967, 43.960425845348801 ], [ -79.467823330090596, 43.961244889984002 ], [ -79.465715236578106, 43.961711509149197 ], [ -79.461274507800496, 43.962647188178501 ], [ -79.458934337850195, 43.963007526422899 ], [ -79.457114769253394, 43.963307266871801 ], [ -79.456063146519497, 43.963524033150499 ], [ -79.452768182057994, 43.964259386874303 ], [ -79.4487541000519, 43.965141767980001 ], [ -79.444780189631501, 43.966050062720797 ], [ -79.442281613356798, 43.966586082536701 ], [ -79.435297575773106, 43.967978633804599 ], [ -79.429964008025905, 43.969165217546198 ], [ -79.423600347059306, 43.970469289155602 ], [ -79.416081248567096, 43.971864822425701 ], [ -79.412793517066802, 43.972590890690803 ], [ -79.410477245032695, 43.973242091896502 ], [ -79.407970240982294, 43.973852697052699 ], [ -79.404019515556499, 43.974909906498503 ], [ -79.400646350541805, 43.975818647819501 ], [ -79.398201534517, 43.9764267042843 ], [ -79.393140945269394, 43.977701390869498 ], [ -79.393016300798806, 43.977092361365401 ] ] ] } },
{ "type": "Feature", "properties": { "WARD": "2", "COUNCILOR": "SCOTT THOMPSON" }, "geometry": { "type": "Polygon", "coordinates": [ [ [ -79.428362869964602, 43.929464854110002 ], [ -79.428113439025907, 43.928327407738401 ], [ -79.427876781161004, 43.927194932880198 ], [ -79.427519432956501, 43.925543834166298 ], [ -79.427299996021802, 43.924658817744799 ], [ -79.426730675201696, 43.922373172010602 ], [ -79.426636730778498, 43.921940861488203 ], [ -79.426469168139405, 43.921230724014897 ], [ -79.426402338154404, 43.920983348983199 ], [ -79.426268853707896, 43.920322293079799 ], [ -79.426112225660802, 43.919593828897497 ], [ -79.425804012115606, 43.918197562006398 ], [ -79.425702455511399, 43.917737497720402 ], [ -79.425337785074106, 43.916107489904199 ], [ -79.425092003289393, 43.915088289900297 ], [ -79.424641448613102, 43.913261272111598 ], [ -79.424434648111799, 43.912335575901402 ], [ -79.424153887205705, 43.911078769654303 ], [ -79.424127770518197, 43.910717820414398 ], [ -79.424017081699901, 43.910304401481298 ], [ -79.423770270516002, 43.909382555795503 ], [ -79.423486530929196, 43.908322767243703 ], [ -79.423295323579296, 43.907620621497301 ], [ -79.422682290747304, 43.904990717058901 ], [ -79.422591155410402, 43.904603514359401 ], [ -79.422505036159606, 43.904123120420898 ], [ -79.422005160147094, 43.902099072984697 ], [ -79.421157562518502, 43.899120059626199 ], [ -79.420969394378304, 43.898424444493997 ], [ -79.420474049402102, 43.896347448183803 ], [ -79.419973507678804, 43.894286732810301 ], [ -79.419778239154795, 43.8936114292596 ], [ -79.419667917556197, 43.893192782582801 ], [ -79.419398949013697, 43.892047445907103 ], [ -79.419351832211504, 43.891853174340397 ], [ -79.419382648643705, 43.891782029856003 ], [ -79.419154951463597, 43.890840904817402 ], [ -79.418792750810894, 43.889343811469701 ], [ -79.418321568242604, 43.887396155196697 ], [ -79.418034900542906, 43.886211146665197 ], [ -79.417785280851604, 43.885256094250501 ], [ -79.417122345587302, 43.882602422849999 ], [ -79.417034267759007, 43.882466696588899 ], [ -79.4163647460487, 43.879809265901301 ], [ -79.415448879659493, 43.876049049962198 ], [ -79.418361096071195, 43.8754186152415 ], [ -79.419887003806807, 43.875080980228098 ], [ -79.421928917665596, 43.874629108124502 ], [ -79.422847690443902, 43.874425768483199 ], [ -79.423244358475003, 43.874337976890999 ], [ -79.424012595402004, 43.874167943928498 ], [ -79.424609362148303, 43.874037303130201 ], [ -79.425672517768305, 43.873812066992897 ], [ -79.428188455556395, 43.873277975226699 ], [ -79.429097558360496, 43.873077331008801 ], [ -79.429950126850102, 43.872871898442398 ], [ -79.430500818917295, 43.872739201458401 ], [ -79.431268651364405, 43.872564190732 ], [ -79.431726557271901, 43.8724716832429 ], [ -79.4326041308654, 43.872277911928201 ], [ -79.432940278040206, 43.872203690833302 ], [ -79.434163315352194, 43.8719335099969 ], [ -79.435243091722199, 43.871694044111997 ], [ -79.435729407658997, 43.871586187804901 ], [ -79.435819098682799, 43.871558433181299 ], [ -79.435904307098298, 43.871532065183999 ], [ -79.436931724620706, 43.871309380403702 ], [ -79.437056955016502, 43.871282237204397 ], [ -79.437225867819393, 43.871231871224197 ], [ -79.437267345842102, 43.871423983411802 ], [ -79.437314347745399, 43.8716416790582 ], [ -79.437511484689793, 43.872551320908201 ], [ -79.437706150839105, 43.873489613748603 ], [ -79.437899242943999, 43.874321663756703 ], [ -79.438038206153294, 43.874904210250797 ], [ -79.438179631490499, 43.875505245630301 ], [ -79.438272307960204, 43.875889499341099 ], [ -79.438392993583193, 43.876400719364902 ], [ -79.438501262757498, 43.876805567737101 ], [ -79.438676019750901, 43.877494324784301 ], [ -79.438789863594096, 43.877942996830598 ], [ -79.438912196105804, 43.878420899807402 ], [ -79.438964855591394, 43.8786885518929 ], [ -79.4390292795009, 43.878974625926901 ], [ -79.439087642119603, 43.879285634627003 ], [ -79.439179857516706, 43.8795698968419 ], [ -79.439218607881898, 43.879742242485797 ], [ -79.439273411576593, 43.879985987148203 ], [ -79.439301624454998, 43.880111464191998 ], [ -79.439448574969504, 43.880768007291103 ], [ -79.439566642752297, 43.8812967896679 ], [ -79.439668917564205, 43.881754836834602 ], [ -79.439746307612396, 43.882090398117903 ], [ -79.439776234103704, 43.8822201596113 ], [ -79.4398300905018, 43.8822883016419 ], [ -79.439920273663901, 43.8826716575307 ], [ -79.440030736690304, 43.883142560517904 ], [ -79.440135436493307, 43.883588889233202 ], [ -79.4402109548395, 43.883910811746802 ], [ -79.440348795479593, 43.884497997471399 ], [ -79.440452922530497, 43.884941471418799 ], [ -79.440576716466893, 43.885468697546202 ], [ -79.440626112120796, 43.885846351981002 ], [ -79.440648269619402, 43.885953444940597 ], [ -79.440922951802904, 43.887121017184398 ], [ -79.4412936559348, 43.888696673102501 ], [ -79.441690066479197, 43.890381503760501 ], [ -79.442151527141505, 43.892393942087402 ], [ -79.442191480089605, 43.892570463715401 ], [ -79.442268577265096, 43.892906781661999 ], [ -79.442376477862197, 43.893371018938502 ], [ -79.442433985388803, 43.893615822390601 ], [ -79.442540931365698, 43.894063096156401 ], [ -79.442626601388497, 43.894416196859602 ], [ -79.442731779153405, 43.894833891038701 ], [ -79.442792181041895, 43.895107129587203 ], [ -79.442852442333006, 43.895379728869102 ], [ -79.442902567955201, 43.895606475020102 ], [ -79.442978711821894, 43.895950915658602 ], [ -79.443055634979402, 43.896296245593597 ], [ -79.443184874607098, 43.896873985640099 ], [ -79.443292735931095, 43.897356146488796 ], [ -79.443352635804203, 43.8976127179317 ], [ -79.443478553783905, 43.898135010395997 ], [ -79.443609320741402, 43.898674943643996 ], [ -79.443641339187593, 43.898797717887099 ], [ -79.443805858427197, 43.899428568970002 ], [ -79.443846288240294, 43.899593647281201 ], [ -79.443925110010596, 43.899923711554798 ], [ -79.444323562345602, 43.901577557576303 ], [ -79.444586621909295, 43.902647977628398 ], [ -79.444792306814307, 43.903581427757103 ], [ -79.444876988882498, 43.903963804102098 ], [ -79.445058714610894, 43.904809161309203 ], [ -79.4452761018985, 43.905824296260903 ], [ -79.445353001508195, 43.906187785862599 ], [ -79.445468388154595, 43.906634901205798 ], [ -79.445653083575905, 43.907353712846501 ], [ -79.445773061413703, 43.907887181206398 ], [ -79.445823294306706, 43.908035953400102 ], [ -79.445898035060694, 43.908257308997698 ], [ -79.445991219616502, 43.908630448911403 ], [ -79.446067332667596, 43.908936732758498 ], [ -79.446189047331501, 43.909427779405803 ], [ -79.446245283348603, 43.909659532853901 ], [ -79.446381941347099, 43.910222695977701 ], [ -79.446581023288303, 43.911043091667601 ], [ -79.446694371223202, 43.9115101773464 ], [ -79.446924829641404, 43.912467572311002 ], [ -79.447168361360895, 43.913473191164996 ], [ -79.447319200291105, 43.914091247780398 ], [ -79.447509437650993, 43.914885350173002 ], [ -79.4475986295421, 43.915253003794597 ], [ -79.447885805160993, 43.916321831502103 ], [ -79.448116982720705, 43.917252745222001 ], [ -79.448414842149703, 43.918452134479701 ], [ -79.448910706675306, 43.920284417003799 ], [ -79.448973660093898, 43.920527375292401 ], [ -79.448924008806998, 43.9206398728412 ], [ -79.449195263521005, 43.921569456291898 ], [ -79.449453142014093, 43.922516371761802 ], [ -79.449777520865794, 43.923848492973498 ], [ -79.449998014362293, 43.9246796622609 ], [ -79.450238331072299, 43.925480405047999 ], [ -79.450379872528401, 43.926125183546397 ], [ -79.448991963921699, 43.926463910825802 ], [ -79.4463781930842, 43.927035273090901 ], [ -79.445176185431393, 43.927320258517902 ], [ -79.443725601935, 43.927493365467399 ], [ -79.442579954916297, 43.927744404904999 ], [ -79.441527516504706, 43.9280734677467 ], [ -79.438681147512895, 43.928690793482403 ], [ -79.436412758581397, 43.929168884200799 ], [ -79.435188038398394, 43.929455688023999 ], [ -79.434362823549705, 43.929686739827801 ], [ -79.432501929629495, 43.930165829788301 ], [ -79.431316465011093, 43.930426864036001 ], [ -79.429746225536206, 43.9308450237708 ], [ -79.429323622136096, 43.930927596088999 ], [ -79.428695582112994, 43.9309501270846 ], [ -79.428362869964602, 43.929464854110002 ] ] ] } },
{ "type": "Feature", "properties": { "WARD": "3", "COUNCILOR": "CASTRO LIU" }, "geometry": { "type": "Polygon", "coordinates": [ [ [ -79.389847574614095, 43.9391717934677 ], [ -79.389822944052497, 43.938937712187297 ], [ -79.389770094760806, 43.938435439093602 ], [ -79.389752039785805, 43.938256262436298 ], [ -79.389737053401404, 43.937923829140303 ], [ -79.3897228425474, 43.937543705350002 ], [ -79.389725542718807, 43.937038053627603 ], [ -79.389781423582804, 43.9359662327726 ], [ -79.3899429290352, 43.934528988954597 ], [ -79.390143783328995, 43.932960651198101 ], [ -79.390167876651503, 43.931720093320301 ], [ -79.390485521835402, 43.930216189783501 ], [ -79.390548678913106, 43.929670989027201 ], [ -79.390601079077001, 43.9284851065064 ], [ -79.390585240929695, 43.927384824984699 ], [ -79.390493619355894, 43.926303236041299 ], [ -79.390230548411793, 43.924830154109202 ], [ -79.389691379783002, 43.922636769676799 ], [ -79.389353856008199, 43.921296753807397 ], [ -79.3888662736952, 43.9193194961804 ], [ -79.388429419071599, 43.917526413162101 ], [ -79.3876596302525, 43.914392201296202 ], [ -79.386825062573493, 43.9110243752827 ], [ -79.386060535209097, 43.907922599601299 ], [ -79.385677600971803, 43.906351265433599 ], [ -79.3851660739343, 43.904226881115797 ], [ -79.384707829533298, 43.902417651938002 ], [ -79.384455877605703, 43.901413046788498 ], [ -79.384181351593398, 43.900254362757501 ], [ -79.383666750161794, 43.898110845701503 ], [ -79.383300966022105, 43.896587111932099 ], [ -79.382779425519004, 43.894443733499898 ], [ -79.382253206147695, 43.892301830596203 ], [ -79.381976041846698, 43.891188188561401 ], [ -79.381618226197403, 43.889750440887703 ], [ -79.381260605868704, 43.888178725284803 ], [ -79.380411955281005, 43.884668416217799 ], [ -79.380069507587805, 43.883251822523199 ], [ -79.379901177856098, 43.882554075737403 ], [ -79.379543096268506, 43.881067187907703 ], [ -79.379228383509798, 43.879760322312201 ], [ -79.378925169941397, 43.878515683654001 ], [ -79.3784980676906, 43.876688989195998 ], [ -79.377985921038999, 43.874631580590602 ], [ -79.377604272254302, 43.873150139088899 ], [ -79.377121831730506, 43.871215622934997 ], [ -79.376800198744206, 43.869907548066998 ], [ -79.376539171972595, 43.868848792608603 ], [ -79.376239234066603, 43.867654861389099 ], [ -79.376017417558501, 43.8667774505099 ], [ -79.375860793410794, 43.8662037988382 ], [ -79.375710627585704, 43.8656004632494 ], [ -79.375609762555598, 43.865148976649202 ], [ -79.3771354464414, 43.864743786810898 ], [ -79.378618146295906, 43.864413226648402 ], [ -79.384440018160305, 43.863089964508099 ], [ -79.385946861018198, 43.862700473953304 ], [ -79.386879180509894, 43.862454184234899 ], [ -79.387908015349794, 43.862218122691502 ], [ -79.389313505928698, 43.861856294506602 ], [ -79.393677861898297, 43.8608802767451 ], [ -79.395039541403705, 43.860563855702303 ], [ -79.396065620139794, 43.860324984461201 ], [ -79.399301312434304, 43.859603937404998 ], [ -79.402824895622999, 43.858839811669696 ], [ -79.405032526982893, 43.858346448423802 ], [ -79.405520001051201, 43.858254294272101 ], [ -79.406090325350405, 43.858180531227603 ], [ -79.406661533707805, 43.8581428882569 ], [ -79.407470468614804, 43.858149117082597 ], [ -79.408122756500006, 43.858187102280397 ], [ -79.408689956097206, 43.858207008227303 ], [ -79.408945644426595, 43.858199136184901 ], [ -79.409150205503906, 43.858183401827901 ], [ -79.409368573811307, 43.85815475471 ], [ -79.409561913512803, 43.858117921467603 ], [ -79.411036283780206, 43.857802653256499 ], [ -79.411350358210797, 43.859118233017703 ], [ -79.411867232295094, 43.861017187360197 ], [ -79.412301408314804, 43.862786847728799 ], [ -79.4132408508179, 43.866905251302803 ], [ -79.4136759552824, 43.868820012770598 ], [ -79.414398571652498, 43.871685652671097 ], [ -79.414993712923007, 43.8741553181763 ], [ -79.4152043850073, 43.875052724037097 ], [ -79.415448879659493, 43.876049049962198 ], [ -79.4163647460487, 43.879809265901301 ], [ -79.417034267759007, 43.882466696588899 ], [ -79.417122345587302, 43.882602422849999 ], [ -79.417785280851604, 43.885256094250501 ], [ -79.418034900542906, 43.886211146665197 ], [ -79.418321568242604, 43.887396155196697 ], [ -79.418792750810894, 43.889343811469701 ], [ -79.419154951463597, 43.890840904817402 ], [ -79.419382648643705, 43.891782029856003 ], [ -79.419351832211504, 43.891853174340397 ], [ -79.419398949013697, 43.892047445907103 ], [ -79.419667917556197, 43.893192782582801 ], [ -79.419778239154795, 43.8936114292596 ], [ -79.419973507678804, 43.894286732810301 ], [ -79.420474049402102, 43.896347448183803 ], [ -79.420969394378304, 43.898424444493997 ], [ -79.421157562518502, 43.899120059626199 ], [ -79.422005160147094, 43.902099072984697 ], [ -79.422505036159606, 43.904123120420898 ], [ -79.422591155410402, 43.904603514359401 ], [ -79.422682290747304, 43.904990717058901 ], [ -79.423295323579296, 43.907620621497301 ], [ -79.423486530929196, 43.908322767243703 ], [ -79.423770270516002, 43.909382555795503 ], [ -79.424017081699901, 43.910304401481298 ], [ -79.424127770518197, 43.910717820414398 ], [ -79.424153887205705, 43.911078769654303 ], [ -79.424434648111799, 43.912335575901402 ], [ -79.424641448613102, 43.913261272111598 ], [ -79.425092003289393, 43.915088289900297 ], [ -79.425337785074106, 43.916107489904199 ], [ -79.425702455511399, 43.917737497720402 ], [ -79.425804012115606, 43.918197562006398 ], [ -79.426112225660802, 43.919593828897497 ], [ -79.426268853707896, 43.920322293079799 ], [ -79.426402338154404, 43.920983348983199 ], [ -79.426469168139405, 43.921230724014897 ], [ -79.426636730778498, 43.921940861488203 ], [ -79.426730675201696, 43.922373172010602 ], [ -79.427299996021802, 43.924658817744799 ], [ -79.427519432956501, 43.925543834166298 ], [ -79.427876781161004, 43.927194932880198 ], [ -79.428113439025907, 43.928327407738401 ], [ -79.428362869964602, 43.929464854110002 ], [ -79.428695582112994, 43.9309501270846 ], [ -79.427663808519299, 43.931164853945504 ], [ -79.425646471295394, 43.931507960929402 ], [ -79.424302944968701, 43.931829853038401 ], [ -79.423247934206302, 43.9320738880064 ], [ -79.420651865143498, 43.932611819620803 ], [ -79.419727326248804, 43.932848132931198 ], [ -79.418086085822296, 43.933188139946701 ], [ -79.416507748225101, 43.933523693981201 ], [ -79.415450612353297, 43.933782965788602 ], [ -79.413857694858507, 43.934117549096499 ], [ -79.410711112145407, 43.9347684879273 ], [ -79.408801284833402, 43.935166611628397 ], [ -79.407638293520606, 43.935446716439998 ], [ -79.407231948388201, 43.9355682132583 ], [ -79.4068738259555, 43.935705811776998 ], [ -79.406343193324403, 43.935934061023701 ], [ -79.405925150391994, 43.936153782298099 ], [ -79.405508341449007, 43.9363968810435 ], [ -79.404352603788396, 43.937050283192903 ], [ -79.403539056407794, 43.937455232166499 ], [ -79.402896681704405, 43.937726291849799 ], [ -79.400449009296906, 43.938553026832402 ], [ -79.399272601438298, 43.9389228233089 ], [ -79.398292967580005, 43.939193754477103 ], [ -79.396937286666699, 43.939451671592003 ], [ -79.3955788611636, 43.939659604395104 ], [ -79.394194747497096, 43.939782973318401 ], [ -79.392914766182201, 43.939878329880599 ], [ -79.389995341562596, 43.940111760998697 ], [ -79.389847574614095, 43.9391717934677 ] ] ] } },
{ "type": "Feature", "properties": { "WARD": "4", "COUNCILOR": "SIMON CUI" }, "geometry": { "type": "Polygon", "coordinates": [ [ [ -79.449195263521005, 43.921569456291898 ], [ -79.448924008806998, 43.9206398728412 ], [ -79.448973660093898, 43.920527375292401 ], [ -79.448910706675306, 43.920284417003799 ], [ -79.448414842149703, 43.918452134479701 ], [ -79.448116982720705, 43.917252745222001 ], [ -79.447885805160993, 43.916321831502103 ], [ -79.4475986295421, 43.915253003794597 ], [ -79.447509437650993, 43.914885350173002 ], [ -79.447319200291105, 43.914091247780398 ], [ -79.447168361360895, 43.913473191164996 ], [ -79.446924829641404, 43.912467572311002 ], [ -79.446694371223202, 43.9115101773464 ], [ -79.446581023288303, 43.911043091667601 ], [ -79.446381941347099, 43.910222695977701 ], [ -79.446245283348603, 43.909659532853901 ], [ -79.446189047331501, 43.909427779405803 ], [ -79.446067332667596, 43.908936732758498 ], [ -79.445991219616502, 43.908630448911403 ], [ -79.445898035060694, 43.908257308997698 ], [ -79.445823294306706, 43.908035953400102 ], [ -79.445773061413703, 43.907887181206398 ], [ -79.445653083575905, 43.907353712846501 ], [ -79.445468388154595, 43.906634901205798 ], [ -79.445353001508195, 43.906187785862599 ], [ -79.4452761018985, 43.905824296260903 ], [ -79.445058714610894, 43.904809161309203 ], [ -79.444876988882498, 43.903963804102098 ], [ -79.444792306814307, 43.903581427757103 ], [ -79.444586621909295, 43.902647977628398 ], [ -79.444323562345602, 43.901577557576303 ], [ -79.443925110010596, 43.899923711554798 ], [ -79.443846288240294, 43.899593647281201 ], [ -79.443805858427197, 43.899428568970002 ], [ -79.443641339187593, 43.898797717887099 ], [ -79.443609320741402, 43.898674943643996 ], [ -79.443478553783905, 43.898135010395997 ], [ -79.443352635804203, 43.8976127179317 ], [ -79.443292735931095, 43.897356146488796 ], [ -79.443184874607098, 43.896873985640099 ], [ -79.443055634979402, 43.896296245593597 ], [ -79.442978711821894, 43.895950915658602 ], [ -79.442902567955201, 43.895606475020102 ], [ -79.442852442333006, 43.895379728869102 ], [ -79.442792181041895, 43.895107129587203 ], [ -79.442731779153405, 43.894833891038701 ], [ -79.442626601388497, 43.894416196859602 ], [ -79.442540931365698, 43.894063096156401 ], [ -79.442433985388803, 43.893615822390601 ], [ -79.442376477862197, 43.893371018938502 ], [ -79.442268577265096, 43.892906781661999 ], [ -79.442191480089605, 43.892570463715401 ], [ -79.442151527141505, 43.892393942087402 ], [ -79.441690066479197, 43.890381503760501 ], [ -79.4412936559348, 43.888696673102501 ], [ -79.440922951802904, 43.887121017184398 ], [ -79.440648269619402, 43.885953444940597 ], [ -79.440626112120796, 43.885846351981002 ], [ -79.440576716466893, 43.885468697546202 ], [ -79.440452922530497, 43.884941471418799 ], [ -79.440348795479593, 43.884497997471399 ], [ -79.4402109548395, 43.883910811746802 ], [ -79.440135436493307, 43.883588889233202 ], [ -79.440030736690304, 43.883142560517904 ], [ -79.439920273663901, 43.8826716575307 ], [ -79.4398300905018, 43.8822883016419 ], [ -79.439776234103704, 43.8822201596113 ], [ -79.439746307612396, 43.882090398117903 ], [ -79.439668917564205, 43.881754836834602 ], [ -79.439566642752297, 43.8812967896679 ], [ -79.439448574969504, 43.880768007291103 ], [ -79.439301624454998, 43.880111464191998 ], [ -79.439273411576593, 43.879985987148203 ], [ -79.439218607881898, 43.879742242485797 ], [ -79.439179857516706, 43.8795698968419 ], [ -79.439087642119603, 43.879285634627003 ], [ -79.4390292795009, 43.878974625926901 ], [ -79.438964855591394, 43.8786885518929 ], [ -79.438912196105804, 43.878420899807402 ], [ -79.438789863594096, 43.877942996830598 ], [ -79.438676019750901, 43.877494324784301 ], [ -79.438501262757498, 43.876805567737101 ], [ -79.438392993583193, 43.876400719364902 ], [ -79.438272307960204, 43.875889499341099 ], [ -79.438179631490499, 43.875505245630301 ], [ -79.438038206153294, 43.874904210250797 ], [ -79.437899242943999, 43.874321663756703 ], [ -79.437706150839105, 43.873489613748603 ], [ -79.437511484689793, 43.872551320908201 ], [ -79.437314347745399, 43.8716416790582 ], [ -79.437267345842102, 43.871423983411802 ], [ -79.437225867819393, 43.871231871224197 ], [ -79.437387755953793, 43.871183600316897 ], [ -79.438550490785005, 43.870931854762503 ], [ -79.439952443621493, 43.870628109954602 ], [ -79.440563601392498, 43.870494306835802 ], [ -79.441389321558503, 43.870311893770001 ], [ -79.441978055076603, 43.870184993850003 ], [ -79.443031249555801, 43.869954638076997 ], [ -79.443463022877793, 43.869866684041 ], [ -79.444255343742498, 43.869699978583199 ], [ -79.445895385690505, 43.869345244372902 ], [ -79.4488370043468, 43.868722079783701 ], [ -79.451202826972406, 43.868229314247998 ], [ -79.453875079808896, 43.867666562681798 ], [ -79.456055099918999, 43.867203261199101 ], [ -79.457680432142396, 43.866857810495297 ], [ -79.459298299591893, 43.866510930218801 ], [ -79.461153067352299, 43.866105916918698 ], [ -79.462200871705804, 43.865964844276398 ], [ -79.4627347576684, 43.865889380244397 ], [ -79.463468547255999, 43.868642333314803 ], [ -79.464141877925599, 43.871228514926003 ], [ -79.464639468980195, 43.873171272898198 ], [ -79.465326197673804, 43.875852459794103 ], [ -79.465933556694694, 43.8782235708833 ], [ -79.466782359768501, 43.8815371070949 ], [ -79.467054111250704, 43.882597902570403 ], [ -79.467437924439807, 43.884096079588701 ], [ -79.468016889602794, 43.8865788219085 ], [ -79.468522076878799, 43.8887450239543 ], [ -79.468794942030598, 43.8899150126392 ], [ -79.469360963925894, 43.892341858175101 ], [ -79.469787988184095, 43.8941726208717 ], [ -79.470162123936703, 43.895584094469399 ], [ -79.470716720506402, 43.897671687692302 ], [ -79.470987486011893, 43.8987198760654 ], [ -79.471149095167902, 43.899353130370699 ], [ -79.471276288570806, 43.900010029752103 ], [ -79.471737349540206, 43.9024153869968 ], [ -79.472205962025797, 43.904128232358602 ], [ -79.472598119842004, 43.905625248821003 ], [ -79.472747172602496, 43.906232852756901 ], [ -79.473559938641003, 43.909767519493499 ], [ -79.474418384370097, 43.913347373361098 ], [ -79.475042094891805, 43.915893222494503 ], [ -79.4753389769336, 43.917015228732097 ], [ -79.475026156634598, 43.917071697849998 ], [ -79.469788130092297, 43.918200214522599 ], [ -79.466828202930003, 43.9188361316547 ], [ -79.464871816951103, 43.919270798202 ], [ -79.460862422007594, 43.920160510744097 ], [ -79.4604196759107, 43.920267051853799 ], [ -79.459484014483607, 43.920455170902599 ], [ -79.458430004336705, 43.9206811953906 ], [ -79.455069247926403, 43.9214196687578 ], [ -79.454480215425207, 43.921523968775702 ], [ -79.451150593315404, 43.922237712565 ], [ -79.450555547742596, 43.922357947685398 ], [ -79.449453142014093, 43.922516371761802 ], [ -79.449195263521005, 43.921569456291898 ] ] ] } },
{ "type": "Feature", "properties": { "WARD": "5", "COUNCILOR": "KAREN CILEVITZ" }, "geometry": { "type": "Polygon", "coordinates": [ [ [ -79.4152043850073, 43.875052724037097 ], [ -79.414993712923007, 43.8741553181763 ], [ -79.414398571652498, 43.871685652671097 ], [ -79.4136759552824, 43.868820012770598 ], [ -79.415757574748994, 43.868359533584602 ], [ -79.416528665642701, 43.868194382812398 ], [ -79.416808420583195, 43.868111166751 ], [ -79.417015575078096, 43.868049549594097 ], [ -79.418024406344799, 43.867843864219097 ], [ -79.419080562926297, 43.867628517763599 ], [ -79.420039088410604, 43.867420130468702 ], [ -79.420898986329703, 43.867230157983101 ], [ -79.421634905665101, 43.867067569948901 ], [ -79.422416141119001, 43.866898125743496 ], [ -79.423245513036704, 43.866718234266102 ], [ -79.423943224920606, 43.866566894835898 ], [ -79.424866373928296, 43.866366647729798 ], [ -79.425574564256095, 43.866213023186901 ], [ -79.426626764908505, 43.8659815573251 ], [ -79.427944444597202, 43.8656710310172 ], [ -79.4290363721489, 43.865413692455 ], [ -79.429261622316304, 43.865359626870699 ], [ -79.429355538772001, 43.865338986699001 ], [ -79.429535706134502, 43.865287406105097 ], [ -79.429768048049596, 43.865205421875999 ], [ -79.429931941167794, 43.865136292649701 ], [ -79.430118221519805, 43.865043244384204 ], [ -79.430291234339904, 43.864941447304403 ], [ -79.430468615795405, 43.864821868756003 ], [ -79.430627508091305, 43.8646950900932 ], [ -79.430819001360405, 43.864517309732797 ], [ -79.430979025055905, 43.864339087661001 ], [ -79.4310829202132, 43.8642009550545 ], [ -79.431137470233097, 43.8641183219748 ], [ -79.431195424174604, 43.864016586345599 ], [ -79.431248386222606, 43.863905424751501 ], [ -79.431289365799003, 43.863799788300902 ], [ -79.431353619181806, 43.863516120241698 ], [ -79.431376813708297, 43.863411288307503 ], [ -79.431410585326006, 43.863265465698902 ], [ -79.431536044812205, 43.862791770934102 ], [ -79.431694534644805, 43.8621911272989 ], [ -79.431742336584307, 43.862044364281402 ], [ -79.431802006888105, 43.861899310742402 ], [ -79.431885743946793, 43.861734187797801 ], [ -79.432006706246398, 43.861536788765903 ], [ -79.432062970665797, 43.861461827606803 ], [ -79.432170128626694, 43.861340143977898 ], [ -79.432272293259501, 43.861235213031499 ], [ -79.432404072506202, 43.861114684686498 ], [ -79.4325654573327, 43.860984150449902 ], [ -79.432654594918702, 43.860917542388201 ], [ -79.432787384191798, 43.860827132003401 ], [ -79.432898049548399, 43.860767810441203 ], [ -79.433034614524701, 43.8607008107616 ], [ -79.433231402436704, 43.860613731731803 ], [ -79.433402554404495, 43.860547651325298 ], [ -79.4335781725147, 43.860488003266802 ], [ -79.433757787394597, 43.860434952817897 ], [ -79.433983234148499, 43.860378547965198 ], [ -79.434132848580404, 43.860348190235399 ], [ -79.434327324684105, 43.860314702737902 ], [ -79.434672424770497, 43.860318642438898 ], [ -79.434451763093904, 43.859339443930303 ], [ -79.434248940982698, 43.858454991068399 ], [ -79.434045493616793, 43.857590957669998 ], [ -79.433848575507199, 43.856754629708497 ], [ -79.433627371605994, 43.855815130249702 ], [ -79.433414418328795, 43.854935696676797 ], [ -79.433216013614, 43.854116324380797 ], [ -79.432954782917605, 43.853037455197502 ], [ -79.432935867363, 43.852730896330101 ], [ -79.432230461056704, 43.849981519505199 ], [ -79.432181907843798, 43.8497383597348 ], [ -79.431864697339705, 43.848305354694098 ], [ -79.431520118644698, 43.846931227182402 ], [ -79.431395797681702, 43.846432288818697 ], [ -79.431128759100105, 43.845339206989799 ], [ -79.431028623817696, 43.844928419591298 ], [ -79.4308942743844, 43.844377267631202 ], [ -79.430621733019606, 43.8432591774692 ], [ -79.430435963666596, 43.842497042409903 ], [ -79.430196340751607, 43.8415139837536 ], [ -79.429965647744694, 43.840557347526499 ], [ -79.429889293372995, 43.840237755633702 ], [ -79.429661485522601, 43.8392648693304 ], [ -79.429465160616004, 43.838406372548903 ], [ -79.429366844503505, 43.837976441635 ], [ -79.428911050497206, 43.836029760263003 ], [ -79.428680607998302, 43.835068196143602 ], [ -79.428495864889001, 43.834308155319498 ], [ -79.428744657860193, 43.834258410898201 ], [ -79.434040290405306, 43.833052611944403 ], [ -79.440575288140295, 43.8317065939545 ], [ -79.442710126914207, 43.831261416597698 ], [ -79.444822562624495, 43.830820864918202 ], [ -79.446950248406395, 43.830441484277799 ], [ -79.451074720440502, 43.829885072951299 ], [ -79.453075586054297, 43.829559348849003 ], [ -79.454263880500406, 43.8292875516061 ], [ -79.454476322160801, 43.830827519516198 ], [ -79.4545519207404, 43.831284388430902 ], [ -79.454724299865106, 43.832054082872297 ], [ -79.454978093503001, 43.8330691129987 ], [ -79.455249651762699, 43.834015892141402 ], [ -79.455523725200194, 43.834868329704697 ], [ -79.455615418017402, 43.835169569053903 ], [ -79.456648927331102, 43.839000251867397 ], [ -79.457689626585093, 43.843396636644002 ], [ -79.458065323870599, 43.845118719538497 ], [ -79.458612000617293, 43.847686335793497 ], [ -79.458883995507406, 43.848768037521502 ], [ -79.459634837901902, 43.851766096511298 ], [ -79.459928185657006, 43.853118804886599 ], [ -79.460307273947194, 43.854866797444501 ], [ -79.460776175539294, 43.857028808697102 ], [ -79.4612774610722, 43.859143804322699 ], [ -79.461855719677303, 43.861698640091603 ], [ -79.4627347576684, 43.865889380244397 ], [ -79.462200871705804, 43.865964844276398 ], [ -79.461153067352299, 43.866105916918698 ], [ -79.459298299591893, 43.866510930218801 ], [ -79.457680432142396, 43.866857810495297 ], [ -79.456055099918999, 43.867203261199101 ], [ -79.453875079808896, 43.867666562681798 ], [ -79.451202826972406, 43.868229314247998 ], [ -79.4488370043468, 43.868722079783701 ], [ -79.445895385690505, 43.869345244372902 ], [ -79.444255343742498, 43.869699978583199 ], [ -79.443463022877793, 43.869866684041 ], [ -79.443031249555801, 43.869954638076997 ], [ -79.441978055076603, 43.870184993850003 ], [ -79.441389321558503, 43.870311893770001 ], [ -79.440563601392498, 43.870494306835802 ], [ -79.439952443621493, 43.870628109954602 ], [ -79.438550490785005, 43.870931854762503 ], [ -79.437387755953793, 43.871183600316897 ], [ -79.437225867819393, 43.871231871224197 ], [ -79.437056955016502, 43.871282237204397 ], [ -79.436931724620706, 43.871309380403702 ], [ -79.435904307098298, 43.871532065183999 ], [ -79.435819098682799, 43.871558433181299 ], [ -79.435729407658997, 43.871586187804901 ], [ -79.435243091722199, 43.871694044111997 ], [ -79.434163315352194, 43.8719335099969 ], [ -79.432940278040206, 43.872203690833302 ], [ -79.4326041308654, 43.872277911928201 ], [ -79.431726557271901, 43.8724716832429 ], [ -79.431268651364405, 43.872564190732 ], [ -79.430500818917295, 43.872739201458401 ], [ -79.429950126850102, 43.872871898442398 ], [ -79.429097558360496, 43.873077331008801 ], [ -79.428188455556395, 43.873277975226699 ], [ -79.425672517768305, 43.873812066992897 ], [ -79.424609362148303, 43.874037303130201 ], [ -79.424012595402004, 43.874167943928498 ], [ -79.423244358475003, 43.874337976890999 ], [ -79.422847690443902, 43.874425768483199 ], [ -79.421928917665596, 43.874629108124502 ], [ -79.419887003806807, 43.875080980228098 ], [ -79.418361096071195, 43.8754186152415 ], [ -79.415448879659493, 43.876049049962198 ], [ -79.4152043850073, 43.875052724037097 ] ] ] } },
{ "type": "Feature", "properties": { "WARD": "6", "COUNCILOR": "MICHAEL SHIU" }, "geometry": { "type": "Polygon", "coordinates": [ [ [ -79.4132408508179, 43.866905251302803 ], [ -79.412301408314804, 43.862786847728799 ], [ -79.411867232295094, 43.861017187360197 ], [ -79.411350358210797, 43.859118233017703 ], [ -79.411036283780206, 43.857802653256499 ], [ -79.409561913512803, 43.858117921467603 ], [ -79.409368573811307, 43.85815475471 ], [ -79.409150205503906, 43.858183401827901 ], [ -79.408945644426595, 43.858199136184901 ], [ -79.408689956097206, 43.858207008227303 ], [ -79.408122756500006, 43.858187102280397 ], [ -79.407470468614804, 43.858149117082597 ], [ -79.406661533707805, 43.8581428882569 ], [ -79.406090325350405, 43.858180531227603 ], [ -79.405520001051201, 43.858254294272101 ], [ -79.405032526982893, 43.858346448423802 ], [ -79.402824895622999, 43.858839811669696 ], [ -79.399301312434304, 43.859603937404998 ], [ -79.396065620139794, 43.860324984461201 ], [ -79.395039541403705, 43.860563855702303 ], [ -79.393677861898297, 43.8608802767451 ], [ -79.389313505928698, 43.861856294506602 ], [ -79.387908015349794, 43.862218122691502 ], [ -79.386879180509894, 43.862454184234899 ], [ -79.385946861018198, 43.862700473953304 ], [ -79.384440018160305, 43.863089964508099 ], [ -79.378618146295906, 43.864413226648402 ], [ -79.3771354464414, 43.864743786810898 ], [ -79.375609762555598, 43.865148976649202 ], [ -79.375339865096194, 43.864004771650499 ], [ -79.375084625067899, 43.862954839635599 ], [ -79.374791279067907, 43.861833570477103 ], [ -79.374424265491598, 43.8603122509478 ], [ -79.374104629956804, 43.859046825923301 ], [ -79.3737806574063, 43.857764179644299 ], [ -79.373622244245794, 43.857136981913499 ], [ -79.373395767599803, 43.856240285558499 ], [ -79.372984172830996, 43.854610574465099 ], [ -79.372396547200907, 43.852508439564801 ], [ -79.3719300305454, 43.850620787120903 ], [ -79.371454491857506, 43.848833066026202 ], [ -79.370961817790501, 43.846974095033801 ], [ -79.3745591256382, 43.846153231520297 ], [ -79.376111371243894, 43.845798989318098 ], [ -79.377971669148806, 43.8453744121624 ], [ -79.378825884570304, 43.8451781318347 ], [ -79.382272057474793, 43.844384183885303 ], [ -79.385633635176902, 43.843593922577398 ], [ -79.386512087161805, 43.8433893302931 ], [ -79.388686189786, 43.842892849443402 ], [ -79.391828931011105, 43.842175081225101 ], [ -79.393643152855901, 43.841760699055698 ], [ -79.396008147071697, 43.841240150103197 ], [ -79.398307909817902, 43.840734825133602 ], [ -79.408301868777201, 43.8384365717313 ], [ -79.413181701617106, 43.837368904207501 ], [ -79.428495864889001, 43.834308155319498 ], [ -79.428680607998302, 43.835068196143602 ], [ -79.428911050497206, 43.836029760263003 ], [ -79.429366844503505, 43.837976441635 ], [ -79.429465160616004, 43.838406372548903 ], [ -79.429661485522601, 43.8392648693304 ], [ -79.429889293372995, 43.840237755633702 ], [ -79.429965647744694, 43.840557347526499 ], [ -79.430196340751607, 43.8415139837536 ], [ -79.430435963666596, 43.842497042409903 ], [ -79.430621733019606, 43.8432591774692 ], [ -79.4308942743844, 43.844377267631202 ], [ -79.431028623817696, 43.844928419591298 ], [ -79.431128759100105, 43.845339206989799 ], [ -79.431395797681702, 43.846432288818697 ], [ -79.431520118644698, 43.846931227182402 ], [ -79.431864697339705, 43.848305354694098 ], [ -79.432181907843798, 43.8497383597348 ], [ -79.432230461056704, 43.849981519505199 ], [ -79.432935867363, 43.852730896330101 ], [ -79.432954782917605, 43.853037455197502 ], [ -79.433216013614, 43.854116324380797 ], [ -79.433414418328795, 43.854935696676797 ], [ -79.433627371605994, 43.855815130249702 ], [ -79.433848575507199, 43.856754629708497 ], [ -79.434045493616793, 43.857590957669998 ], [ -79.434248940982698, 43.858454991068399 ], [ -79.434451763093904, 43.859339443930303 ], [ -79.434672424770497, 43.860318642438898 ], [ -79.434327324684105, 43.860314702737902 ], [ -79.434132848580404, 43.860348190235399 ], [ -79.433983234148499, 43.860378547965198 ], [ -79.433757787394597, 43.860434952817897 ], [ -79.4335781725147, 43.860488003266802 ], [ -79.433402554404495, 43.860547651325298 ], [ -79.433231402436704, 43.860613731731803 ], [ -79.433034614524701, 43.8607008107616 ], [ -79.432898049548399, 43.860767810441203 ], [ -79.432787384191798, 43.860827132003401 ], [ -79.432654594918702, 43.860917542388201 ], [ -79.4325654573327, 43.860984150449902 ], [ -79.432404072506202, 43.861114684686498 ], [ -79.432272293259501, 43.861235213031499 ], [ -79.432170128626694, 43.861340143977898 ], [ -79.432062970665797, 43.861461827606803 ], [ -79.432006706246398, 43.861536788765903 ], [ -79.431885743946793, 43.861734187797801 ], [ -79.431802006888105, 43.861899310742402 ], [ -79.431742336584307, 43.862044364281402 ], [ -79.431694534644805, 43.8621911272989 ], [ -79.431536044812205, 43.862791770934102 ], [ -79.431410585326006, 43.863265465698902 ], [ -79.431376813708297, 43.863411288307503 ], [ -79.431353619181806, 43.863516120241698 ], [ -79.431289365799003, 43.863799788300902 ], [ -79.431248386222606, 43.863905424751501 ], [ -79.431195424174604, 43.864016586345599 ], [ -79.431137470233097, 43.8641183219748 ], [ -79.4310829202132, 43.8642009550545 ], [ -79.430979025055905, 43.864339087661001 ], [ -79.430819001360405, 43.864517309732797 ], [ -79.430627508091305, 43.8646950900932 ], [ -79.430468615795405, 43.864821868756003 ], [ -79.430291234339904, 43.864941447304403 ], [ -79.430118221519805, 43.865043244384204 ], [ -79.429931941167794, 43.865136292649701 ], [ -79.429768048049596, 43.865205421875999 ], [ -79.429535706134502, 43.865287406105097 ], [ -79.429355538772001, 43.865338986699001 ], [ -79.429261622316304, 43.865359626870699 ], [ -79.4290363721489, 43.865413692455 ], [ -79.427944444597202, 43.8656710310172 ], [ -79.426626764908505, 43.8659815573251 ], [ -79.425574564256095, 43.866213023186901 ], [ -79.424866373928296, 43.866366647729798 ], [ -79.423943224920606, 43.866566894835898 ], [ -79.423245513036704, 43.866718234266102 ], [ -79.422416141119001, 43.866898125743496 ], [ -79.421634905665101, 43.867067569948901 ], [ -79.420898986329703, 43.867230157983101 ], [ -79.420039088410604, 43.867420130468702 ], [ -79.419080562926297, 43.867628517763599 ], [ -79.418024406344799, 43.867843864219097 ], [ -79.417015575078096, 43.868049549594097 ], [ -79.416808420583195, 43.868111166751 ], [ -79.416528665642701, 43.868194382812398 ], [ -79.415757574748994, 43.868359533584602 ], [ -79.4136759552824, 43.868820012770598 ], [ -79.4132408508179, 43.866905251302803 ] ] ] } }
]
}
