{"type": "FeatureCollection", "features": [{"type": "Feature", "properties": {"district_id": "Warman"}, "geometry": {"type": "Polygon", "coordinates": [[[-106.57604160626491, 52.304490711846775], [-106.57593845615983, 52.30456815522491], [-106.5758340990272, 52.304645075135824], [-106.57572844434671, 52.30472140085336], [-106.57562187233914, 52.30479710032702], [-106.57551395815948, 52.30487218821366], [-106.57540499502215, 52.30494666059804], [-106.5753962414402, 52.304952531835404], [-106.5752737353518, 52.30503473749237], [-106.57515922229602, 52.305110317679954], [-106.57486377805917, 52.30530030694408], [-106.57477392739763, 52.30535583084248], [-106.56998968473958, 52.308345106121436], [-106.56988633417205, 52.308410381447985], [-106.569777176378, 52.308480688098825], [-106.56966919530048, 52.30855150949478], [-106.56956242725973, 52.30862304296572], [-106.56945669249646, 52.3086951830078], [-106.56939948865072, 52.30873473182261], [-106.56939719674855, 52.308736290806614], [-106.56930738826571, 52.308799614358556], [-106.56921861060627, 52.308863472614505], [-106.56913101261847, 52.30892792653849], [-106.56904462458186, 52.30899300270478], [-106.56895944586272, 52.30905868314178], [-106.56887557623887, 52.309124885604625], [-106.56879276994977, 52.30919171226538], [-106.56871114048234, 52.309259053722826], [-106.56863085262005, 52.30932700669532], [-106.5685517680502, 52.30939539319601], [-106.56847384914303, 52.30946439355371], [-106.56839728301763, 52.30953390638103], [-106.56832190934406, 52.309603960783754], [-106.56824784415434, 52.309674519258074], [-106.56817500074794, 52.30974561892298], [-106.56810346265638, 52.30981713279299], [-106.5680332633382, 52.30988917731355], [-106.56796440247983, 52.309961743499876], [-106.56789686256465, 52.31003475066492], [-106.56783052566125, 52.31010818239385], [-106.56776567099887, 52.310182052964656], [-106.56770212231366, 52.310256355728214], [-106.56763992677394, 52.31033117997387], [-106.5675790490259, 52.31040635533774], [-106.56751950627778, 52.31048195352415], [-106.56746128450705, 52.310557992703856], [-106.56740455617971, 52.31063437168529], [-106.56734929546909, 52.31071118971798], [-106.56729522029511, 52.310788351642856], [-106.56724275588564, 52.31086585181858], [-106.56719149549689, 52.31094380354082], [-106.56714184239367, 52.311021994659335], [-106.56709353931728, 52.31110061740782], [-106.56704653625344, 52.31117950161623], [-106.56700103017565, 52.311258824499234], [-106.56696335248054, 52.31132678635253], [-106.56679578013718, 52.311947846716734], [-106.56654243691541, 52.31288662007714], [-106.5663573730197, 52.313770476270236], [-106.56628295906621, 52.314125622429], [-106.56622652660276, 52.31439505853771], [-106.5661864446325, 52.314587006351886], [-106.56541911735593, 52.318268523998505], [-106.56537160401462, 52.318356522361675], [-106.56534422166162, 52.31840712875366], [-106.56524762494534, 52.3185852231925], [-106.5652229924068, 52.31863060512132], [-106.56517544262819, 52.31871842405293], [-106.56513951171686, 52.31889060736198], [-106.56511083121264, 52.31902793415056], [-106.5644640229501, 52.32209304626942], [-106.56434354328493, 52.32266305465709], [-106.56433410070328, 52.32270735402197], [-106.56430721613093, 52.32282833749409], [-106.56427885839129, 52.322949160641265], [-106.56424889895739, 52.323069924068996], [-106.56421759516441, 52.32319043555048], [-106.56418468933587, 52.32331087832331], [-106.5641503106092, 52.32343116975407], [-106.56411429700097, 52.32355129400388], [-106.56407698330604, 52.32367117470737], [-106.56403803850927, 52.32379099607262], [-106.56399776363543, 52.32391055630319], [-106.56395588063089, 52.32402987706202], [-106.56391252465819, 52.32414904647077], [-106.56386769507195, 52.32426804655372], [-106.56382124265183, 52.324386807354315], [-106.56377346073323, 52.32450532498702], [-106.56372422015158, 52.324623682081906], [-106.56367348522262, 52.32474169928343], [-106.56362129192534, 52.32485956493076], [-106.56356747541976, 52.3249771822996], [-106.56351232936242, 52.32509455649185], [-106.56345568891417, 52.32521159078313], [-106.56339758656824, 52.32532837465424], [-106.5633381546402, 52.32544491534302], [-106.56327708478098, 52.32556120793715], [-106.56325642390159, 52.32559994618316], [-106.56330443707712, 52.32559988616668], [-106.56378083907325, 52.325599217421065], [-106.5591240333005, 52.33283921239048], [-106.5593922583354, 52.33283888166709], [-106.55594493670993, 52.3381848181619], [-106.55594252782707, 52.33884208533263], [-106.55593800666244, 52.34007975813753], [-106.55635156247574, 52.34007915670207], [-106.56187156114339, 52.34007098682201], [-106.56781325370822, 52.34006190826792], [-106.57377415331969, 52.34005254461703], [-106.57966316337215, 52.34004300521696], [-106.57973809714304, 52.3400428753276], [-106.5800330024239, 52.34004234796407], [-106.58010969687753, 52.34004219428934], [-106.59182978149495, 52.3400116415504], [-106.59772681289326, 52.34000136296174], [-106.60362522969704, 52.33999078906086], [-106.60392052949179, 52.33999061028665], [-106.60391992599926, 52.33983480775003], [-106.60391118749668, 52.33760171377058], [-106.6039055780199, 52.33617015397707], [-106.60389215685493, 52.332738163385365], [-106.60391958012166, 52.33053802369657], [-106.60392075571109, 52.33044394930756], [-106.60395536852292, 52.32766686781696], [-106.60395738565052, 52.32750506363475], [-106.60398169647056, 52.32555456330234], [-106.60398991953817, 52.3241767232943], [-106.60399165893485, 52.32388553455379], [-106.60400245441626, 52.322078458789505], [-106.60400668824195, 52.32136996440119], [-106.6040076549766, 52.321208205790285], [-106.60401641402834, 52.319741937446935], [-106.60401886679031, 52.31933167345861], [-106.60402058359101, 52.31904240715333], [-106.60402224149388, 52.31876571155371], [-106.60402326169532, 52.318594718024464], [-106.60400723822823, 52.31840643180332], [-106.60371750467613, 52.3184064370951], [-106.6026263415289, 52.31840644868429], [-106.60112602675639, 52.318406449933015], [-106.59899850002176, 52.318406410523366], [-106.59899838911718, 52.31814815337711], [-106.59899831003888, 52.31796444310579], [-106.59899765902789, 52.316438475104256], [-106.59899751111683, 52.31609493536222], [-106.59899696636697, 52.31481689319624], [-106.59899619404426, 52.31303636267716], [-106.59899542909048, 52.311227499774255], [-106.5989984093106, 52.30759842719294], [-106.59900129100598, 52.304113404671], [-106.59900140203337, 52.303976455555585], [-106.59870634889359, 52.30397926346135], [-106.59870623751227, 52.30411663517078], [-106.598670117639, 52.30397960109732], [-106.59281393018264, 52.304034080108835], [-106.59281410009808, 52.303897013419146], [-106.59281526925022, 52.30297743249192], [-106.59281876407005, 52.30205889003526], [-106.5928231147403, 52.301140893366025], [-106.59282481338059, 52.300676987626595], [-106.59282590296402, 52.30037796485963], [-106.59864536961503, 52.300354082864956], [-106.59871869424185, 52.30035389041856], [-106.59901374049983, 52.30035278181306], [-106.59908743256837, 52.30035261113624], [-106.59909220166847, 52.29899104483215], [-106.59909275620713, 52.298811857081816], [-106.59909652587999, 52.29763787321985], [-106.59902299146574, 52.29763781700751], [-106.59872795997033, 52.297637612793054], [-106.59865468972454, 52.297637561766116], [-106.59283399174419, 52.2976347763689], [-106.59283711292535, 52.29672335035516], [-106.59283988175389, 52.29581967053985], [-106.59284312295043, 52.29491566053385], [-106.5928462729207, 52.29401155272398], [-106.59284876718677, 52.293279207013185], [-106.59284935019652, 52.29310745475678], [-106.59285036513084, 52.2927989737041], [-106.5928523173503, 52.292201505920794], [-106.59285902310272, 52.28953562250845], [-106.59285909993852, 52.28948912700749], [-106.59285940634412, 52.289308431948854], [-106.59285948286178, 52.28926192745913], [-106.59271233050937, 52.289261979331336], [-106.58998120016727, 52.28926293911758], [-106.58784703558874, 52.28926364089155], [-106.58781720733415, 52.28931025771423], [-106.58770120859533, 52.28949101578698], [-106.58767130547542, 52.28953759761062], [-106.58764742897226, 52.28957475634686], [-106.58751861324473, 52.289775188867104], [-106.58696311280575, 52.29063953470162], [-106.58339645420806, 52.29618956979584], [-106.58317009381122, 52.296541739664484], [-106.58306228976866, 52.29670947129891], [-106.58135094958284, 52.29935884155353], [-106.58126750500143, 52.29948905692332], [-106.58080876210033, 52.300204985842015], [-106.5805829005238, 52.30055746731779], [-106.5799740592933, 52.30150758547647], [-106.57993820362582, 52.30155632181102], [-106.57940622001206, 52.30227936578319], [-106.57893770954243, 52.30291614067475], [-106.57887416030253, 52.303002399208665], [-106.57881626369442, 52.30308099343135], [-106.57869545775769, 52.30324489340725], [-106.5781904669824, 52.304036003810054], [-106.57800513495394, 52.304170653308056], [-106.57789995901936, 52.30417161809661], [-106.57758130783485, 52.304174535642204], [-106.57710262707772, 52.304178915253374], [-106.57695758321891, 52.3041802497807], [-106.57643017781423, 52.304185070503195], [-106.57634420578582, 52.304254696235255], [-106.5762444928636, 52.30433390126958], [-106.57614371920837, 52.30441257190179], [-106.57604160626491, 52.304490711846775]]]}}]}