{"type": "FeatureCollection", "features": [{"type": "Feature", "properties": {"district_id": "Grande Prairie"}, "geometry": {"type": "Polygon", "coordinates": [[[-118.795151924238, 55.1198775471615], [-118.79518230075992, 55.11266299988246], [-118.795182335583, 55.1126544926527], [-118.79518233657923, 55.11265449265207], [-118.795182357401, 55.1126495473955], [-118.79999084177, 55.1126514420528], [-118.799980132789, 55.1147580836649], [-118.807693677086, 55.1147628153762], [-118.807669483364, 55.1198556272914], [-118.819372887485, 55.1198326580743], [-118.81941967335752, 55.119923772319844], [-118.82002402850321, 55.11992311482006], [-118.820024577769, 55.1199231133254], [-118.82002457776416, 55.1199231142225], [-118.820024577855, 55.1199231142224], [-118.819986490557, 55.1269695314204], [-118.820228319458, 55.1269689576526], [-118.820227825876, 55.127057829661], [-118.8333484091, 55.1270138390694], [-118.83334607494227, 55.13175988190905], [-118.8336606576654, 55.131940248334814], [-118.833660659143, 55.1319402483344], [-118.836072039583, 55.13193944532], [-118.8370370621575, 55.131939178394], [-118.84092025256317, 55.131937946827385], [-118.8410151084271, 55.131847794580985], [-118.841015915502, 55.1317576711791], [-118.84638516364, 55.1317561870223], [-118.84634438427277, 55.13681323283533], [-118.84634436888425, 55.136815187450686], [-118.846422431712, 55.1368151225407], [-118.846404049794, 55.1392020904338], [-118.846402612918, 55.1393817255045], [-118.84638705210436, 55.14127755494384], [-118.848231419887, 55.1412823785993], [-118.850161868584, 55.1412876074264], [-118.850161814706, 55.1411505239867], [-118.850947520234, 55.1411525688614], [-118.850947134957, 55.1413345866719], [-118.855495881704, 55.1413470210499], [-118.855495808886, 55.1413914949281], [-118.855495577029, 55.1415277060186], [-118.8546478808978, 55.14152545036634], [-118.854656891489, 55.1415657678598], [-118.854727581194, 55.141884320814], [-118.854773535417, 55.142198170827], [-118.854855572798, 55.1426103367009], [-118.854929966067, 55.1428609646179], [-118.85499249465, 55.1431925514897], [-118.855055788079, 55.1435421366527], [-118.85514424295, 55.1437564836505], [-118.85512546156271, 55.14402629182621], [-118.855154988357, 55.1443223706563], [-118.855229415823, 55.1445729694604], [-118.855270804979, 55.1447880423722], [-118.855404559491, 55.1451199470941], [-118.855588810394, 55.1454914668804], [-118.855967956849, 55.145585150943], [-118.856327593164, 55.1457547666358], [-118.856634724872, 55.1459428132738], [-118.856660408627, 55.1459615227298], [-118.85669193295, 55.1459758104939], [-118.856741031496, 55.1459814433199], [-118.856814032576, 55.1459746588048], [-118.856858381402, 55.1459660830611], [-118.856899929018, 55.1459459082142], [-118.856998075329, 55.1458538731048], [-118.857039913842, 55.1458022367935], [-118.857072785239, 55.145778757852], [-118.857102027164, 55.1457697430378], [-118.857133911164, 55.1457675900854], [-118.85716705751, 55.1457742770445], [-118.85720258308, 55.1457881940673], [-118.857249627317, 55.1458159791285], [-118.857292428935, 55.1458517169099], [-118.857359505683, 55.1458740177863], [-118.857396906406, 55.1458987255705], [-118.857466354952, 55.1459073650348], [-118.857535382954, 55.1459308374524], [-118.857555005387, 55.1459412718529], [-118.857571288395, 55.1459303104335], [-118.85757441964796, 55.14591315137975], [-118.857566022143, 55.1459037664861], [-118.857542060413, 55.1459058124306], [-118.857534423919, 55.1458934318176], [-118.857530828795, 55.1458806082358], [-118.85753082915222, 55.145880603045356], [-118.857530827842, 55.1458805983695], [-118.857534200816, 55.1458316123111], [-118.857541854729, 55.145821247353], [-118.857556602592, 55.1458135824606], [-118.85759859774, 55.1458071503167], [-118.857628362746, 55.1458108673798], [-118.85774314856, 55.1458371000347], [-118.857819899546, 55.1458697823489], [-118.857915852651, 55.1459277310495], [-118.857957301052, 55.1459406765066], [-118.857983895984, 55.1459556411], [-118.858012190587, 55.1459625095011], [-118.858022345588, 55.1459593347204], [-118.858047704269, 55.1459510995318], [-118.858076329739, 55.1459314787002], [-118.858107005886, 55.1459234897121], [-118.858132812432, 55.1459226537425], [-118.858271856954, 55.1459354385781], [-118.858366599328, 55.1458953421663], [-118.858397543428, 55.1458940283962], [-118.85844031014, 55.1458949309556], [-118.858450900671, 55.1458975642172], [-118.858485535685, 55.1459261551346], [-118.858500947103, 55.1459331610061], [-118.858513855307, 55.1459337693685], [-118.858524940524, 55.1459299802599], [-118.858557513966, 55.1459052138983], [-118.858585734545, 55.1458929472364], [-118.858619571277, 55.1458944207159], [-118.858733815232, 55.145951771865], [-118.858795165669, 55.145969098281], [-118.858848217582, 55.1459753246818], [-118.858894073839, 55.1459758493339], [-118.858905958176, 55.1459736650918], [-118.858912170762, 55.145969194613], [-118.858878209119, 55.1459394479564], [-118.858879440801, 55.1459300872337], [-118.858905883765, 55.1459109681414], [-118.858923714209, 55.1459145594248], [-118.858962927899, 55.1459399740023], [-118.858986104497, 55.1459437826517], [-118.85900634238261, 55.14594715168079], [-118.859014840909, 55.1459485567347], [-118.859031773392, 55.1459475700648], [-118.859078403658, 55.1459266854041], [-118.859294197054, 55.1458516831918], [-118.859526448348, 55.1458128840398], [-118.860653163473, 55.14576924545], [-118.861012664023, 55.1457997941216], [-118.861252847604, 55.1458410922039], [-118.861453488603, 55.1459099493998], [-118.861620993452, 55.1460061743584], [-118.861735702383, 55.1461301651263], [-118.861953997611, 55.1461796498146], [-118.862121799901, 55.1460872905736], [-118.862322688104, 55.146039314687], [-118.862497728537, 55.1461174405198], [-118.862913930758, 55.1462636479001], [-118.863058694817, 55.1463601976868], [-118.86386131418, 55.1464390054547], [-118.864174471098, 55.1464522214758], [-118.864471723887, 55.1464389068199], [-118.864704069137, 55.1463816151166], [-118.864726090347, 55.1463811057645], [-118.86473719262472, 55.14869372681292], [-118.864737203232, 55.1486957472631], [-118.864741522632, 55.1489242395174], [-118.865989803009, 55.1489250415817], [-118.866124467687, 55.1489247411835], [-118.866526606674, 55.1489238260426], [-118.866892145983, 55.1489229476423], [-118.871680306344, 55.148917664163], [-118.871995271026, 55.1489173713709], [-118.871995131313, 55.1490979982504], [-118.871996009772, 55.1559806131851], [-118.87199612974, 55.1561161210944], [-118.871996632188, 55.1570195675547], [-118.871997119952, 55.1579230144087], [-118.87215410738, 55.1579228255496], [-118.872154197307, 55.1584826654405], [-118.872154386817, 55.1590425561174], [-118.872154583663, 55.1596025185081], [-118.872154604209, 55.1601624414934], [-118.872155921455, 55.161282633658], [-118.872077422005, 55.1612827371847], [-118.871998904614, 55.1612379555802], [-118.871999078969, 55.1615523295286], [-118.871999263765, 55.1618846250067], [-118.871999529584, 55.1623627040327], [-118.872000024006, 55.1632693981305], [-118.872122609577, 55.1633590071132], [-118.87221338019764, 55.16335886630104], [-118.874893843312, 55.163354681618], [-118.87511916776262, 55.163354358562366], [-118.875126798067, 55.1633543467255], [-118.884688973598, 55.1633397421063], [-118.88471700792779, 55.163339695623755], [-118.897293963302, 55.1633184398631], [-118.897372211856, 55.163318454108], [-118.8975335821141, 55.1633184449992], [-118.897533885058, 55.1633184444969], [-118.89773221162808, 55.163318358232516], [-118.897766009869, 55.1633182988161], [-118.90334142318068, 55.163315918442414], [-118.903453259591, 55.1633158697979], [-118.905530407965, 55.1633149223039], [-118.907332358718, 55.1633132801307], [-118.90768836650872, 55.16331295966834], [-118.909823672531, 55.1633110049939], [-118.910106106912, 55.163310634371], [-118.910114005627, 55.1633107315686], [-118.910239871654, 55.1633105757133], [-118.91039596618823, 55.16331052240765], [-118.910397571521, 55.1633105209626], [-118.91046079052853, 55.16331047183082], [-118.910632767559, 55.163310335736], [-118.91069019538223, 55.16331029354474], [-118.910711307991, 55.1633102771367], [-118.91075505597433, 55.1633102447221], [-118.923104426805, 55.1633008413888], [-118.92325796536633, 55.163300980824886], [-118.923258355924, 55.1633009805355], [-118.936051457557, 55.1633099038828], [-118.93607514484083, 55.16330991841373], [-118.948537293738, 55.1633170914568], [-118.948615719255, 55.1633171299567], [-118.948694648151, 55.1633173320228], [-118.94886180359545, 55.16331776055788], [-118.9550757501946, 55.16331853974097], [-118.95534968496, 55.1633185447272], [-118.96148874499332, 55.16331934388323], [-118.961676240579, 55.1633193673938], [-118.96167624057931, 55.16331936829059], [-118.961676240668, 55.1633193682906], [-118.961676264706, 55.1633642458314], [-118.961678554545, 55.1692128104182], [-118.961678495364, 55.1697641010422], [-118.96167847992157, 55.16988291769978], [-118.961678659633, 55.170409654882], [-118.961678703756, 55.1705493114983], [-118.96167848981, 55.1707299562955], [-118.961678369817, 55.1709256324408], [-118.961677916828, 55.1778247020582], [-118.961677922933, 55.1779591207251], [-118.961677780568, 55.1784514366882], [-118.961677780569, 55.181040879859], [-118.96167782017, 55.1851859892211], [-118.9616763573, 55.190028125972], [-118.961676464158, 55.1904932094725], [-118.961676003101, 55.1911927983039], [-118.961675961766, 55.1913306418067], [-118.961675902612, 55.1915417548795], [-118.961675865254, 55.1916793688192], [-118.961675669752, 55.1924136125885], [-118.961674525302, 55.1967523948058], [-118.961673765581, 55.1996410254677], [-118.961673797428, 55.1998217067976], [-118.961675099575, 55.2070425867264], [-118.961676036876, 55.2121856652198], [-118.961676412439, 55.2141730847391], [-118.961676432624, 55.2142634521439], [-118.961676371717, 55.2143537951936], [-118.96167561805, 55.2157037352606], [-118.961672416536, 55.2214882838188], [-118.94902417886, 55.2214829143491], [-118.948708194721, 55.2214829443403], [-118.936035412095, 55.2214832819568], [-118.923364083062, 55.2214818747236], [-118.92336062995211, 55.22669653868968], [-118.92357353455765, 55.22731743744158], [-118.923595190483, 55.2273777203135], [-118.9236011909417, 55.22739809241047], [-118.923603830134, 55.2274057891496], [-118.9236070171576, 55.22741787293748], [-118.92365023853, 55.2275646133843], [-118.923693058541, 55.2277441033529], [-118.923725895951, 55.2279242800567], [-118.923748713762, 55.2281049611528], [-118.923758347475, 55.2282256056434], [-118.92376035954123, 55.22826424249199], [-118.92376035954123, 55.22826424249203], [-118.923760566609, 55.2282658428249], [-118.92376059003098, 55.22826866848804], [-118.923761490754, 55.2282859646876], [-118.923763516436, 55.2283463399277], [-118.923764478009, 55.2284268515732], [-118.92376421076777, 55.228705479781425], [-118.923764212174, 55.2287056494324], [-118.92376421060504, 55.2287056494319], [-118.923764210605, 55.228705649483], [-118.92335929862, 55.2287055289068], [-118.923359259689, 55.2288862361406], [-118.923438266614, 55.2288862383276], [-118.92343823145, 55.2289313957126], [-118.92343818743, 55.2290211788082], [-118.923437392963, 55.2305158681435], [-118.923436602299, 55.2318986247438], [-118.923436487993, 55.2322331390853], [-118.923434401312, 55.2361109290675], [-118.923431363207, 55.2433310900294], [-118.923352307477, 55.2433310439442], [-118.923036077242, 55.2433312641925], [-118.922957015532, 55.2433313170106], [-118.919781733937, 55.2433333012916], [-118.910366969994, 55.2433386981155], [-118.897697544331, 55.2433449761324], [-118.897381304572, 55.2433450670354], [-118.894536001414, 55.2433459108388], [-118.884712670103, 55.2433483034159], [-118.872040098165, 55.243349734264], [-118.87172382294, 55.2433497506221], [-118.85904815631, 55.2433481284466], [-118.85904815629935, 55.24334811834955], [-118.859046690858, 55.2433481181684], [-118.859040578975, 55.2361289210217], [-118.8590381222554, 55.23319682570396], [-118.859034653233, 55.2301889072302], [-118.85903437965, 55.229873856274], [-118.8590345808995, 55.228970216773156], [-118.85903437975728, 55.228730153485756], [-118.85899317742417, 55.22873013444922], [-118.855923793795, 55.2287294512686], [-118.853652236292, 55.2287288951884], [-118.85173845197279, 55.228728392603095], [-118.85173845196418, 55.228728392603095], [-118.851561678753, 55.2287283552993], [-118.848869388435, 55.2283627119554], [-118.848852758187, 55.2283604158487], [-118.848836157531, 55.2283580513293], [-118.848819586466, 55.2283556183971], [-118.848803048044, 55.2283531160561], [-118.84878654087, 55.2283505461497], [-118.848770066339, 55.2283479068345], [-118.848753626195, 55.2283451998548], [-118.848737221919, 55.2283424242642], [-118.848720852029, 55.228339581009], [-118.848704519665, 55.2283366699904], [-118.848688223257, 55.2283336912577], [-118.848671965943, 55.2283306447119], [-118.848655749292, 55.2283275303034], [-118.848639570341, 55.2283243499253], [-118.848623433623, 55.228321101635], [-118.848607337742, 55.2283177872759], [-118.848591284182, 55.2283144059016], [-118.848575274511, 55.2283109574626], [-118.848559308816, 55.2283074428557], [-118.848543388754, 55.2283038629284], [-118.848527514151, 55.2283002158868], [-118.848511686749, 55.2282965034752], [-118.84849590655, 55.2282927256936], [-118.848480173552, 55.2282888825422], [-118.848464490982, 55.2282849748187], [-118.848448858752, 55.2282810016261], [-118.848433276863, 55.2282769629646], [-118.848417747057, 55.2282728605784], [-118.848402269249, 55.2282686935706], [-118.848386845093, 55.2282644627886], [-118.84837147459, 55.2282601682324], [-118.848356160878, 55.228255809803], [-118.84834090082, 55.2282513875994], [-118.84832569764, 55.2282469024196], [-118.848310552908, 55.2282423542139], [-118.848295465141, 55.228237743929], [-118.848280437391, 55.2282330705686], [-118.848265468176, 55.2282283350795], [-118.848250560634, 55.2282235373624], [-118.84824079703317, 55.228220342090616], [-118.848168067796, 55.2282033447088], [-118.8480951979094, 55.228168445797834], [-118.848090789391, 55.228166749041], [-118.848076668386, 55.2281612292141], [-118.848062617161, 55.2281556496026], [-118.848048637546, 55.2281500128478], [-118.848034729454, 55.2281443180528], [-118.848020894455, 55.228138565168], [-118.848007132721, 55.2281327559873], [-118.847993445649, 55.2281268886673], [-118.847979833499, 55.2281209658989], [-118.847966296098, 55.2281149858883], [-118.847952835188, 55.2281089503797], [-118.847939452338, 55.2281028593236], [-118.847926145893, 55.2280967118727], [-118.847912919251, 55.2280905106187], [-118.84789977067, 55.2280842538173], [-118.847886701892, 55.2280779432128], [-118.847873712918, 55.2280715788053], [-118.847860806798, 55.2280651595988], [-118.847847980569, 55.2280586874863], [-118.847835239025, 55.228052163216], [-118.847822578853, 55.2280455850933], [-118.847810003365, 55.2280389548129], [-118.847797512649, 55.2280322732718], [-118.847785106618, 55.228025539573], [-118.847772786927, 55.2280187545641], [-118.847760553577, 55.2280119182449], [-118.847748406654, 55.2280050315126], [-118.847736349384, 55.2279980951648], [-118.847724378542, 55.227991108404], [-118.84772212000726, 55.22798977099677], [-118.847628554454, 55.2279449604987], [-118.84756327432966, 55.227885982766644], [-118.847555853237, 55.2278805854715], [-118.847545379753, 55.2278728532641], [-118.847535006031, 55.22786507832], [-118.847524730415, 55.2278572597918], [-118.84751455456, 55.227849398527], [-118.84750447864, 55.2278414963195], [-118.847494502482, 55.2278335513754], [-118.847484629484, 55.2278255662865], [-118.847474856421, 55.227817540255], [-118.847465186431, 55.2278094731817], [-118.847455618118, 55.2278013669102], [-118.847446154535, 55.2277932204443], [-118.847436792716, 55.2277850356772], [-118.847427537283, 55.2277768115633], [-118.847418385269, 55.2277685499956], [-118.847409338158, 55.2277602500275], [-118.847400397691, 55.2277519134035], [-118.847391562214, 55.2277435392761], [-118.847382833469, 55.2277351293898], [-118.847374212938, 55.2277266827981], [-118.847365699226, 55.2277182013445], [-118.847357293901, 55.2277096849793], [-118.847348995307, 55.2277011328553], [-118.847340806844, 55.2276925475641], [-118.847332728424, 55.2276839282089], [-118.847324758478, 55.2276752748393], [-118.847316898749, 55.2276665891996], [-118.847309149237, 55.2276578712898], [-118.84730303845538, 55.22765087105663], [-118.847252239804, 55.2276049767009], [-118.84723244731077, 55.22756154276923], [-118.847231315335, 55.2275599697074], [-118.847224921701, 55.2275508994945], [-118.847218643597, 55.2275418031416], [-118.847212482593, 55.2275326805994], [-118.847206437207, 55.2275235328143], [-118.847200507523, 55.2275143606832], [-118.847194693457, 55.2275051633093], [-118.847188998406, 55.2274959432843], [-118.847183419058, 55.2274866989134], [-118.847177958726, 55.2274774318914], [-118.84717261427, 55.2274681423174], [-118.847167388917, 55.2274588309894], [-118.847162282664, 55.2274494979072], [-118.847157294118, 55.2274401449144], [-118.847152424673, 55.2274307701676], [-118.84714767459, 55.2274213763576], [-118.84714304535, 55.2274119625378], [-118.84713853399, 55.2274025306014], [-118.84713414199, 55.2273930796018], [-118.847129871008, 55.2273836103864], [-118.84712572113, 55.2273741238523], [-118.847121690872, 55.2273646209458], [-118.847117781719, 55.2273551007205], [-118.847113993842, 55.2273455649704], [-118.847110325673, 55.227336013745], [-118.847106780349, 55.2273264469451], [-118.847103356476, 55.2273168664143], [-118.847100054053, 55.2273072721525], [-118.847096873079, 55.2272976641598], [-118.847093815125, 55.2272880423866], [-118.84709087888, 55.2272784095733], [-118.84708806574, 55.2272687638765], [-118.84708537431, 55.2272591071396], [-118.847082806159, 55.2272494393131], [-118.847080361373, 55.2272397612939], [-118.847078038383, 55.2272300731316], [-118.847075838845, 55.2272203756737], [-118.847073762846, 55.2272106698169], [-118.847071808728, 55.2272009547141], [-118.847069979805, 55.2271912320598], [-118.847068274593, 55.2271815028007], [-118.847066691437, 55.2271717660894], [-118.847065231992, 55.2271620227733], [-118.847063897914, 55.2271522736997], [-118.847062686152, 55.2271425198647], [-118.847061599843, 55.2271327611692], [-118.847060635935, 55.2271229986093], [-118.84695525021299, 55.22597815112411], [-118.84676186648, 55.2239768696678], [-118.84665576248509, 55.223213080650545], [-118.846454049821, 55.2220056612494], [-118.846419083766, 55.221509352943], [-118.84641908376216, 55.22150935017983], [-118.84641908376216, 55.221509350179815], [-118.8464190829, 55.2215093439736], [-118.846412903459, 55.2173730691186], [-118.846329787923, 55.2142913904228], [-118.84634580665899, 55.207066625145075], [-118.846029864326, 55.2070662365945], [-118.845950860245, 55.2070661307822], [-118.84595086091305, 55.20706570243422], [-118.844458793766, 55.2070640772332], [-118.833365782235, 55.2070485788895], [-118.82378444582213, 55.20703436091895], [-118.823687051898, 55.2070342209296], [-118.82368136055722, 55.20513922565969], [-118.82366019375505, 55.20513919112955], [-118.82069876242804, 55.20513572082214], [-118.820703127854, 55.2070293566722], [-118.82038728152075, 55.20702935582332], [-118.820387281811, 55.2070294548723], [-118.807876985527, 55.2070295693938], [-118.79721569732934, 55.20702856488309], [-118.79721569722128, 55.20702856488308], [-118.79708006010488, 55.20702855524881], [-118.79707991761745, 55.207429564519856], [-118.797079917684, 55.2074296173267], [-118.79707991525221, 55.20742961902083], [-118.796943267879, 55.2075804932556], [-118.796708999529, 55.2077515418014], [-118.79641765326177, 55.207890989206135], [-118.796417648961, 55.2078909922023], [-118.795874802792, 55.2081834106328], [-118.79587480278887, 55.208183409681126], [-118.795874802707, 55.2081834097359], [-118.795872287625, 55.207432649418], [-118.795867391062, 55.2070285997856], [-118.79572906979348, 55.207028532774046], [-118.790427811697, 55.2070331384576], [-118.790128209084, 55.2070333967156], [-118.789653174615, 55.2070338252099], [-118.789413014912, 55.2070340444857], [-118.785815954349, 55.2070373268547], [-118.782184831652, 55.2070405347475], [-118.782089159373, 55.2070406350479], [-118.76947020092726, 55.20705133831654], [-118.769470515537, 55.2072907542053], [-118.769471384117, 55.2079514642748], [-118.769503628341, 55.2082565008573], [-118.769508379728, 55.2122007015903], [-118.769508984059, 55.2127486060651], [-118.769510435697, 55.2140383360598], [-118.769510997651, 55.2142721989917], [-118.769115634155, 55.214271586077], [-118.756490410831, 55.2142555849596], [-118.743938594657, 55.214238015521], [-118.743860036128, 55.2142378924723], [-118.743544016936, 55.2142379944015], [-118.73089051845, 55.2142418873024], [-118.728532272017, 55.2142424558637], [-118.72620927711878, 55.21424294634538], [-118.721394911742, 55.2142440456537], [-118.71831625143, 55.2142448793359], [-118.71788447837602, 55.214245361733276], [-118.71788447837116, 55.21424536173328], [-118.717842538704, 55.2142454184592], [-118.705255501608, 55.2142603160043], [-118.69258965412, 55.2142751752684], [-118.692273018639, 55.214274335058], [-118.685098915795, 55.2142687377783], [-118.684816109663, 55.2142687442321], [-118.679644140565, 55.2142629971968], [-118.67964414053003, 55.2142629878173], [-118.679643747885, 55.2142629874645], [-118.679616875294, 55.2070369212511], [-118.679595535328, 55.2018935168909], [-118.679587159312, 55.1998735216089], [-118.679586985302, 55.199828365967], [-118.679586324422, 55.1996489757139], [-118.67958633417685, 55.199602902659954], [-118.679586333139, 55.1996025622816], [-118.679587854199, 55.1924193759915], [-118.692240662767, 55.1924219808577], [-118.692556515854, 55.1924220234869], [-118.705210037873, 55.192428376679], [-118.714125106063, 55.1924321844478], [-118.71786162619, 55.1924335087316], [-118.71791577688948, 55.192433516491015], [-118.718177500692, 55.192433509374], [-118.718183342489, 55.1847232711637], [-118.718830442423, 55.1850034709455], [-118.730831002254, 55.1849745228274], [-118.73083100488138, 55.18497165057552], [-118.730838603124, 55.1736831984666], [-118.731309319459, 55.1736829816937], [-118.731309886848, 55.1708511874183], [-118.731079264652, 55.1706582341253], [-118.73093720564131, 55.170526178878106], [-118.730838576247, 55.1705261904], [-118.730840873167, 55.1704366301149], [-118.730851150768, 55.1633459179831], [-118.7308637312321, 55.15611596513438], [-118.73083842742, 55.1488295240751], [-118.730856742549, 55.1415978521537], [-118.743684897098, 55.1415671377852], [-118.743694700292, 55.1406690602157], [-118.743971532254, 55.1406688755572], [-118.743970570576, 55.1385828653464], [-118.743895014322, 55.1385826883275], [-118.74389501431797, 55.138582680506744], [-118.74381372307, 55.1385824816371], [-118.743811633197, 55.1342491584791], [-118.74425563344793, 55.134250093545354], [-118.746962467102, 55.1342557766901], [-118.747341910074, 55.1342565603877], [-118.746874866293, 55.1337008160918], [-118.74699172716, 55.1331660656321], [-118.746800315458, 55.1328240279601], [-118.74680031553298, 55.132824027813214], [-118.746800311653, 55.13282402088], [-118.746960929226, 55.132509358503], [-118.74756430525, 55.1313272540018], [-118.748126803152, 55.1310408518594], [-118.748251953628, 55.1307440086811], [-118.748373452952, 55.1302639921061], [-118.748248680419, 55.1300228781709], [-118.748075617282, 55.1298015681748], [-118.74807562187048, 55.12980156377966], [-118.748075616188, 55.129801556513], [-118.748445797448, 55.1294469869688], [-118.749070928005, 55.1292410452837], [-118.749256224228, 55.1290031823873], [-118.74902140524, 55.12867005136], [-118.749100279691, 55.1284044109492], [-118.749647153302, 55.1277005180034], [-118.75021666225, 55.127360976067], [-118.750791306864, 55.1270362054264], [-118.75360341922, 55.1270419454064], [-118.756415550326, 55.1270476089561], [-118.765135879493, 55.1270646529911], [-118.76756945648258, 55.12706945490803], [-118.768398466038, 55.1270709313784], [-118.76839846550261, 55.12707109070278], [-118.769336688009, 55.1270729419968], [-118.769339676257, 55.1342847093083], [-118.7819983383655, 55.13430473026466], [-118.7819945206, 55.12709000434], [-118.79512318230053, 55.12710556032704], [-118.7951233370973, 55.12706774368345], [-118.79512400306173, 55.12690504946642], [-118.795151924238, 55.1198775471615]], [[-118.730830896738, 55.1851323155377], [-118.7308310028856, 55.18497461564349], [-118.730831002254, 55.1849745228274], [-118.730830896738, 55.1851323155377]], [[-118.802687500457, 55.1716889110097], [-118.802678813702, 55.1706723635026], [-118.80268749888958, 55.171688911010634], [-118.802687500457, 55.1716889110097]], [[-118.805904658607, 55.169503589211], [-118.806018892706, 55.1702150121594], [-118.80605341488, 55.1704299945034], [-118.805904658607, 55.169503589211]], [[-118.79928182836781, 55.14893692136244], [-118.79915233956, 55.1488323814995], [-118.799232048833, 55.1489362361972], [-118.79923311234872, 55.148937045074604], [-118.79928182836781, 55.14893692136244]], [[-118.80211871039323, 55.171880754971234], [-118.802276250847, 55.171826043384876], [-118.8022762507327, 55.171826043416615], [-118.802118710388, 55.1718807452749], [-118.80211871039323, 55.171880754971234]], [[-118.817787118184, 55.1835547921893], [-118.818368201184, 55.1831765326411], [-118.817787102766, 55.1835547953717], [-118.817173826808, 55.1838653846633], [-118.817787118184, 55.1835547921893]], [[-118.81229917005582, 55.185242679133516], [-118.81083587171, 55.1852739397735], [-118.812299169777, 55.1852426791706], [-118.81229917005582, 55.185242679133516]], [[-118.80154534422084, 55.172676897846294], [-118.80154533752899, 55.17261099412216], [-118.801545343634, 55.1726815188553], [-118.80154534469006, 55.17268151886281], [-118.80154534422084, 55.172676897846294]], [[-118.78854315775538, 55.17799952054936], [-118.788554733033, 55.1779995504805], [-118.78854315462571, 55.17799948323803], [-118.78854315775538, 55.17799952054936]], [[-118.756421844036, 55.148908754326], [-118.75612510512885, 55.148907615209154], [-118.75612465559344, 55.14890761435928], [-118.75642137264275, 55.14890875341306], [-118.756421844036, 55.148908754326]]]}}]}