{"type": "FeatureCollection", "features": [{"type": "Feature", "geometry": {"type": "Polygon", "coordinates": [[[-97.8232330162044, 55.7565041029347], [-97.8277939335039, 55.7535776705446], [-97.8300604263412, 55.7525055965413], [-97.8287598167007, 55.7512057806935], [-97.8288157103218, 55.7511589572081], [-97.8309403950875, 55.7493839663669], [-97.8309403324247, 55.7493839307254], [-97.8229014430656, 55.752575707803], [-97.821464320169, 55.7523871719115], [-97.8210687033882, 55.7500961049417], [-97.8208792768949, 55.7490021448951], [-97.8292767913815, 55.7445472899137], [-97.8323656174163, 55.7481516734911], [-97.8324046217172, 55.7481605161149], [-97.8325794636081, 55.7480140880906], [-97.8335065287739, 55.7483663370525], [-97.8339489807737, 55.7482158874586], [-97.8327208436602, 55.7479371631609], [-97.8321504494577, 55.7472719913485], [-97.8296461791839, 55.7443512566132], [-97.8295575135717, 55.7442479715675], [-97.8309003895248, 55.7435351360699], [-97.8378763792499, 55.7398312368122], [-97.8380942130851, 55.7397154905069], [-97.8368438363341, 55.7392499561987], [-97.8348497853781, 55.7385075088895], [-97.8345977387677, 55.7384136408092], [-97.8345391362709, 55.7383918779439], [-97.834473567797, 55.7383687010666], [-97.834387398339, 55.7383420038875], [-97.8342982664272, 55.7383185135034], [-97.8342068116493, 55.7382981461168], [-97.8340997121051, 55.738278978103], [-97.8340040597803, 55.7382658493999], [-97.8338933647641, 55.7382550939328], [-97.83378142124, 55.73824881952], [-97.8336690199683, 55.738247213385], [-97.8335497836155, 55.7382504845612], [-97.8334382155916, 55.7382583214373], [-97.8333210701717, 55.738271586717], [-97.833206163047, 55.7382899053082], [-97.833100548617, 55.7383117267355], [-97.832985465399, 55.7383412759629], [-97.8328870745387, 55.7383718822521], [-97.8327928648104, 55.7384064820294], [-97.8327088109108, 55.7384423464055], [-97.8326189262848, 55.7384867818951], [-97.8325413023538, 55.7385313338232], [-97.8316958963281, 55.7390524839938], [-97.8314546487959, 55.7391730285264], [-97.8237009882622, 55.7439508598947], [-97.8207908158965, 55.7424478203293], [-97.8207949585161, 55.7425011876212], [-97.8194812836813, 55.7418226071733], [-97.8197437132916, 55.7416611118586], [-97.8201209528183, 55.741428962468], [-97.820486706658, 55.7412038770108], [-97.8208524563112, 55.7409787895396], [-97.8212182017236, 55.740753701851], [-97.8215839429225, 55.7405286130469], [-97.8219496799078, 55.7403035231271], [-97.8223154142721, 55.740078432107], [-97.8226811428307, 55.7398533399561], [-97.823046867176, 55.7396282466898], [-97.823412587308, 55.7394031523078], [-97.8237783032269, 55.7391780568105], [-97.8241440149596, 55.7389529592994], [-97.8245097224523, 55.7387278615712], [-97.824875425732, 55.7385027627277], [-97.8252411263911, 55.738277662784], [-97.8256068212451, 55.7380525617097], [-97.8259725118862, 55.7378274595202], [-97.8263381983146, 55.7376023562154], [-97.8267038805304, 55.7373772517954], [-97.827063131107, 55.7371561025475], [-97.8274449731731, 55.7369210427496], [-97.8282647553707, 55.7364163759469], [-97.828906746542, 55.7366561578405], [-97.829647098367, 55.7369326691449], [-97.8303508704311, 55.7371955113054], [-97.8306757637101, 55.7373168490912], [-97.8306334670083, 55.7376198898818], [-97.8300125148092, 55.7381296020655], [-97.8303702868323, 55.7383145592724], [-97.8312422821921, 55.7375987294044], [-97.8319083350323, 55.7379430491836], [-97.832508297429, 55.7382531933862], [-97.832564331135, 55.7382294429312], [-97.8326625884511, 55.7381926352834], [-97.8327507399853, 55.7381635493784], [-97.8328485857032, 55.7381351845238], [-97.8329492036015, 55.7381099910285], [-97.8330445812325, 55.7380896001251], [-97.8331645151241, 55.7380682741832], [-97.83327903079, 55.7380523781392], [-97.8334105089909, 55.7380391591348], [-97.8335510804566, 55.7380307889077], [-97.8337002407507, 55.738028161239], [-97.8338493647028, 55.7380320928321], [-97.8340130667782, 55.7380438905637], [-97.8341819176667, 55.7380646330832], [-97.8343319700434, 55.7380908582042], [-97.8344634554541, 55.7381201419691], [-97.834583849714, 55.7381528249305], [-97.8346731660383, 55.7381808098629], [-97.8347530771392, 55.7382090649695], [-97.834920530743, 55.7382713984377], [-97.8351725772253, 55.7383652658572], [-97.8354246249216, 55.7384591327637], [-97.8363561096138, 55.7388060120588], [-97.8371343312604, 55.7390957204665], [-97.8383847066041, 55.7395612518235], [-97.8478398111948, 55.7345392259041], [-97.8479728357024, 55.7346189211239], [-97.8484004478214, 55.7343919000791], [-97.8490679942232, 55.7340371880012], [-97.8492799358279, 55.7339246018446], [-97.8503255522735, 55.7333690820083], [-97.8516712371692, 55.732654071406], [-97.8517419325825, 55.7326165416976], [-97.852201052761, 55.7323725489452], [-97.8521345412076, 55.7323326587081], [-97.8530917467385, 55.7318240950078], [-97.854929735288, 55.7308473890439], [-97.8549492812782, 55.7307617549614], [-97.8551036660929, 55.7300844815], [-97.8552122006158, 55.7300378671595], [-97.8554385242666, 55.7290459449201], [-97.8563222137676, 55.7293810856133], [-97.8563395536585, 55.7293217597417], [-97.856626036103, 55.7294303713397], [-97.8567821146491, 55.7294895139968], [-97.8574768289447, 55.7297529764789], [-97.8591055328912, 55.7303705340175], [-97.8584479848121, 55.7307808365623], [-97.8585289418879, 55.730811512162], [-97.8600761414364, 55.731397297438], [-97.8610838896834, 55.7307673808284], [-97.8620230016249, 55.7301802226052], [-97.8622505556093, 55.7300380152865], [-97.8621965774619, 55.7300104675355], [-97.8620344816636, 55.7299279125027], [-97.8629456602626, 55.7293582808218], [-97.8630097205738, 55.7293183469219], [-97.8646355991911, 55.7283017926593], [-97.8647976938333, 55.7283843442763], [-97.8648516715996, 55.7284118908897], [-97.8654368029737, 55.7280460851676], [-97.8655668660566, 55.7279647949461], [-97.8672088346127, 55.7269382014311], [-97.8674164510243, 55.7268068535671], [-97.8675759478649, 55.7267040865198], [-97.867734034593, 55.7266004975317], [-97.8678903902393, 55.7264961735101], [-97.8680453305796, 55.7263912072312], [-97.8681985424457, 55.7262854160952], [-97.8683690401508, 55.7261654962888], [-97.8685561918119, 55.7260312622013], [-97.8687408264277, 55.7258959263341], [-97.8689742291641, 55.725720422554], [-97.8729512172351, 55.7272282497999], [-97.8731493678042, 55.7273033033344], [-97.8743965804671, 55.7277752690691], [-97.8745982052105, 55.7278515202429], [-97.8780545776225, 55.7291599527615], [-97.89513380267, 55.7356227025287], [-97.896815848751, 55.7362588359898], [-97.8980450300486, 55.7367238365362], [-97.8947559552566, 55.7394913464492], [-97.8919820694294, 55.7418249024538], [-97.8901164608159, 55.7422101342112], [-97.8872236244433, 55.7411136686948], [-97.8831114258401, 55.7395548091742], [-97.8828749408015, 55.7393995583602], [-97.8812310427253, 55.7387779857485], [-97.8797423136098, 55.7382150480888], [-97.8796394545619, 55.7381761517022], [-97.8776879680835, 55.7374381720305], [-97.8773114351625, 55.7373617380592], [-97.874268339025, 55.7362102636649], [-97.8711921681011, 55.734928556228], [-97.8709094470422, 55.7347732174127], [-97.8704651482765, 55.7346050908508], [-97.870042935436, 55.7344453187671], [-97.8696207244893, 55.7342855443301], [-97.869198518569, 55.7341257693659], [-97.8687763145426, 55.7339659920483], [-97.8683541155426, 55.7338062142035], [-97.8679319200286, 55.7336464340201], [-97.8675097263565, 55.7334866532803], [-97.8670875377627, 55.7333268702166], [-97.8666653510108, 55.7331670865964], [-97.8662431693371, 55.7330073006524], [-97.8656496253935, 55.7335072157386], [-97.8703149973087, 55.7352732641319], [-97.8706778456695, 55.7353611382285], [-97.8768933492049, 55.7377134231835], [-97.8771751123579, 55.7378695640916], [-97.8778917095194, 55.7381407474079], [-97.878697657288, 55.7384457204337], [-97.8789652050016, 55.7385470074281], [-97.8791787104972, 55.73862776216], [-97.8793963106704, 55.7387101713341], [-97.8796139143373, 55.7387924902895], [-97.8798275791842, 55.7388733351902], [-97.8800451846725, 55.7389556533874], [-97.8802627910796, 55.7390379712019], [-97.8804762993799, 55.7391188135314], [-97.8806939076081, 55.7392011305879], [-97.8809115141844, 55.739283537098], [-97.8811251869837, 55.7393642899223], [-97.8813427953823, 55.739446695674], [-97.8815604072702, 55.739529011207], [-97.8817739209505, 55.7396098512978], [-97.8819915346594, 55.7396921660727], [-97.8822091492874, 55.739774480465], [-97.8824300729433, 55.739858082598], [-97.882713240636, 55.7399652543977], [-97.8831565110008, 55.7401330085141], [-97.885621751893, 55.7410658487446], [-97.8858634905351, 55.7411573613132], [-97.8863067880107, 55.741325104146], [-97.8865888750763, 55.7414318077925], [-97.8868104468345, 55.7415156773868], [-97.8868507922468, 55.7415308697175], [-97.8870723651316, 55.7416147388429], [-97.8873141105827, 55.7417062485779], [-97.8875558571687, 55.7417977578407], [-97.8877977666942, 55.7418891782365], [-97.88803951555, 55.7419806865545], [-97.8882812655408, 55.7420721944004], [-97.8885230192201, 55.7421636119376], [-97.8887647714803, 55.7422551188389], [-97.8890066841266, 55.7423466267079], [-97.8892282688384, 55.7424304021371], [-97.8892686135878, 55.7424456835158], [-97.8895103693475, 55.7425371889607], [-97.889752128793, 55.7426286040969], [-97.8899938868221, 55.7427201085972], [-97.8902356459862, 55.7428116126252], [-97.8908402106645, 55.7430402822303], [-97.8913037266906, 55.7432155577553], [-97.8923111444253, 55.7435967513488], [-97.8924172169663, 55.7436367963599], [-97.8938807868273, 55.7441904842585], [-97.8950448842173, 55.7446307380763], [-97.8894393250338, 55.7492002970025], [-97.8890071941294, 55.7501664239017], [-97.8896828010637, 55.7513137458819], [-97.8888249671101, 55.7530178149387], [-97.886465961735, 55.754137676629], [-97.8839061350609, 55.7551986100694], [-97.8821750316936, 55.7555823017335], [-97.879562091671, 55.7553443460017], [-97.8744968482839, 55.7551698564682], [-97.8689464113609, 55.7546624106227], [-97.8656012807907, 55.7542578976124], [-97.8647250038851, 55.7549958022205], [-97.8641012246255, 55.7555202991455], [-97.8584662007906, 55.7602575089232], [-97.8556750519728, 55.7626034842124], [-97.8389886270047, 55.7766212625981], [-97.8383901550125, 55.7771237642757], [-97.838034170357, 55.7774226872649], [-97.8302963414478, 55.7839183056089], [-97.8171317412417, 55.7949635998359], [-97.7999598797206, 55.7884636207852], [-97.7950941887693, 55.7866209015518], [-97.7927275892672, 55.7857245960968], [-97.7958721303004, 55.7824225963882], [-97.7997820708983, 55.7806729146594], [-97.8025411711154, 55.7773712541472], [-97.8114054126553, 55.7694283053825], [-97.8159167651144, 55.7639107627106], [-97.8195524391605, 55.7612377075991], [-97.8232330162044, 55.7565041029347]]]}, "properties": {"district_id": "Thompson", "muni_name": "CITY OF THOMPSON"}}]}