{"type": "FeatureCollection", "features": [{"type": "Feature", "properties": {"district_id": "Abbotsford"}, "geometry": {"type": "Polygon", "coordinates": [[[-122.15010273, 49.14041015], [-122.15017548, 49.14041553], [-122.15022964, 49.14041991], [-122.15031078, 49.14042708], [-122.15039383, 49.14043497], [-122.15044771, 49.14043986], [-122.15050166, 49.14044454], [-122.15058264, 49.14045106], [-122.15066375, 49.14045703], [-122.15074492, 49.14046245], [-122.15079909, 49.14046575], [-122.15088042, 49.14047023], [-122.15096181, 49.14047415], [-122.15101609, 49.14047645], [-122.15107041, 49.14047851], [-122.15115192, 49.14048113], [-122.15123346, 49.14048319], [-122.15131504, 49.14048469], [-122.15136944, 49.14048533], [-122.15139667, 49.14048548], [-122.1514239, 49.14048551], [-122.15147836, 49.14048518], [-122.15153279, 49.14048433], [-122.15158721, 49.14048297], [-122.15161442, 49.1404821], [-122.15166876, 49.14047997], [-122.15172285, 49.1404773], [-122.15174977, 49.14047571], [-122.15177665, 49.14047392], [-122.15183034, 49.14046976], [-122.15185712, 49.1404674], [-122.15188385, 49.14046483], [-122.15191055, 49.14046207], [-122.15193719, 49.14045913], [-122.15196379, 49.140456], [-122.15199034, 49.14045267], [-122.15201682, 49.14044916], [-122.15204326, 49.14044547], [-122.15209591, 49.14043748], [-122.15212215, 49.14043321], [-122.15214829, 49.14042875], [-122.15217438, 49.1404241], [-122.15220039, 49.14041927], [-122.15225213, 49.14040904], [-122.15227786, 49.14040365], [-122.15230352, 49.14039807], [-122.15232909, 49.14039232], [-122.15235455, 49.14038638], [-122.15237991, 49.14038027], [-122.15243109, 49.1403675], [-122.15248207, 49.14035435], [-122.15253282, 49.14034088], [-122.15255813, 49.140334], [-122.15260855, 49.14031999], [-122.15265874, 49.14030561], [-122.15270869, 49.1402909], [-122.15275841, 49.14027584], [-122.15280788, 49.14026042], [-122.15283252, 49.14025258], [-122.15288161, 49.14023666], [-122.1529304, 49.14022037], [-122.15297897, 49.14020377], [-122.15300314, 49.14019533], [-122.15305128, 49.14017821], [-122.15309915, 49.14016074], [-122.1531704, 49.14013392], [-122.15321754, 49.14011564], [-122.15326438, 49.14009701], [-122.1533109, 49.14007808], [-122.15335712, 49.14005881], [-122.15338012, 49.14004905], [-122.15342585, 49.1400293], [-122.1534486, 49.14001929], [-122.15351635, 49.13998884], [-122.15356112, 49.13996812], [-122.15360552, 49.13994712], [-122.15364959, 49.13992579], [-122.15455282, 49.13948379], [-122.15465767, 49.13943277], [-122.15470353, 49.13941068], [-122.15475769, 49.13938488], [-122.15480122, 49.13936441], [-122.15483618, 49.13934817], [-122.15488074, 49.13932768], [-122.15492554, 49.13930741], [-122.15499309, 49.13927737], [-122.15503837, 49.1392576], [-122.15510667, 49.13922831], [-122.15517541, 49.13919946], [-122.15522149, 49.13918048], [-122.15529096, 49.13915238], [-122.15533752, 49.13913393], [-122.15538425, 49.13911564], [-122.15545468, 49.13908862], [-122.15550187, 49.13907087], [-122.15557298, 49.13904461], [-122.1556445, 49.13901884], [-122.1556924, 49.13900191], [-122.15576457, 49.13897691], [-122.15581289, 49.13896052], [-122.15588567, 49.1389363], [-122.15593847, 49.13891912], [-122.1559796, 49.13649751], [-122.1615527, 49.13662103], [-122.16155216, 49.13544145], [-122.1616022, 49.13544306], [-122.16710136, 49.13550377], [-122.16712948, 49.13292544], [-122.17265311, 49.13294378], [-122.17264005, 49.12742531], [-122.17260231, 49.12575645], [-122.18361482, 49.1258136], [-122.18358549, 49.12218976], [-122.18357501, 49.12037844], [-122.18356502, 49.11856547], [-122.18331127, 49.11856366], [-122.175712, 49.11852732], [-122.17247379, 49.11848943], [-122.17252949, 49.11128773], [-122.16154409, 49.11127057], [-122.16156414, 49.1041118], [-122.18359364, 49.10413022], [-122.18359676, 49.09688388], [-122.18332289, 49.09688361], [-122.18197653, 49.09687401], [-122.17795014, 49.09684454], [-122.17657234, 49.09683616], [-122.1751951, 49.09682633], [-122.17256777, 49.09688241], [-122.16153409, 49.09687622], [-122.13949866, 49.09684172], [-122.13397858, 49.09682589], [-122.13256344, 49.09682178], [-122.13245053, 49.09687914], [-122.13233914, 49.09693777], [-122.13222935, 49.09699767], [-122.13212115, 49.09705883], [-122.1320146, 49.09712121], [-122.13190972, 49.09718481], [-122.13180655, 49.0972496], [-122.13170511, 49.09731556], [-122.13160546, 49.09738268], [-122.13142631, 49.09750946], [-122.13117426, 49.09769666], [-122.12691945, 49.10095764], [-122.12571716, 49.10188103], [-122.1253872, 49.10212135], [-122.12530709, 49.10217476], [-122.12523651, 49.10222054], [-122.12516403, 49.10227013], [-122.12506676, 49.10232735], [-122.12499046, 49.10237312], [-122.12491607, 49.10241508], [-122.12483787, 49.10246086], [-122.12475968, 49.10249901], [-122.12468147, 49.10254097], [-122.12459946, 49.10258293], [-122.12451935, 49.10262108], [-122.12443543, 49.10265923], [-122.12430572, 49.10271644], [-122.12430441, 49.10271509], [-122.12413795, 49.10278834], [-122.12405396, 49.10295296], [-122.12373221, 49.10328128], [-122.12369387, 49.10351365], [-122.12464571, 49.10400466], [-122.12589029, 49.10514654], [-122.12627396, 49.10567608], [-122.12607968, 49.10589572], [-122.12591903, 49.10606887], [-122.12504792, 49.1064812], [-122.12350413, 49.10680497], [-122.12217017, 49.10716401], [-122.12027881, 49.10698945], [-122.11850167, 49.10684438], [-122.11802292, 49.10696601], [-122.11748886, 49.10709572], [-122.11748887, 49.10751915], [-122.11748887, 49.10760307], [-122.11748674, 49.10856098], [-122.11746146, 49.11484787], [-122.11744573, 49.11838783], [-122.11469011, 49.11838814], [-122.11315429, 49.11838226], [-122.1119017, 49.11838301], [-122.11189115, 49.11984846], [-122.11187746, 49.12203223], [-122.10908701, 49.12203071], [-122.10907936, 49.12385368], [-122.10673332, 49.1238575], [-122.10629799, 49.12458086], [-122.10628256, 49.12932706], [-122.10351038, 49.12932527], [-122.10351486, 49.13114751], [-122.10074509, 49.13114406], [-122.100743, 49.13296466], [-122.096307, 49.13295561], [-122.09607696, 49.13295555], [-122.09540061, 49.13295611], [-122.09619768, 49.13150786], [-122.09669933, 49.13044669], [-122.09743468, 49.12910936], [-122.09768387, 49.12882167], [-122.09797052, 49.12823632], [-122.0987833, 49.12717391], [-122.09833826, 49.12640763], [-122.09788171, 49.12566176], [-122.09752566, 49.12498967], [-122.09716504, 49.12420589], [-122.09712536, 49.12411974], [-122.09174878, 49.11838127], [-122.08514797, 49.11112016], [-122.08142456, 49.1073123], [-122.08044194, 49.10630727], [-122.08044087, 49.10308744], [-122.08044087, 49.10284485], [-122.08044038, 49.08943412], [-122.08047093, 49.08926344], [-122.0804729, 49.0881804], [-122.0804539, 49.0821109], [-122.08044465, 49.0782134], [-122.08039167, 49.0750137], [-122.08034189, 49.07474343], [-122.08040668, 49.0708177], [-122.0803838, 49.0677327], [-122.08037068, 49.06486144], [-122.08040134, 49.06039581], [-122.07516176, 49.06040273], [-122.07509344, 49.06040333], [-122.07470584, 49.06040386], [-122.07565694, 49.05897236], [-122.07571196, 49.05889464], [-122.07577282, 49.05881883], [-122.07583936, 49.05874513], [-122.07591143, 49.05867371], [-122.07598882, 49.05860476], [-122.07607136, 49.05853844], [-122.07617703, 49.05846253], [-122.07628944, 49.05839094], [-122.07640818, 49.05832393], [-122.07653283, 49.05826175], [-122.07666294, 49.05820463], [-122.07679802, 49.05815277], [-122.0769376, 49.05810635], [-122.07580447, 49.05784071], [-122.07472115, 49.05758707], [-122.07307992, 49.05720278], [-122.07308746, 49.05687613], [-122.0730592, 49.05496116], [-122.0730684, 49.05318152], [-122.07302734, 49.04954374], [-122.07299034, 49.04591756], [-122.07845897, 49.0459003], [-122.0839276, 49.04588279], [-122.08403167, 49.03867388], [-122.09504189, 49.0388035], [-122.09499628, 49.03158174], [-122.09475151, 49.02428253], [-122.09441148, 49.01688539], [-122.10603425, 49.01698608], [-122.10623001, 49.0169861], [-122.11173012, 49.01699271], [-122.11723823, 49.01700628], [-122.11711806, 49.00242392], [-122.11726214, 49.00242392], [-122.1271738, 49.00242342], [-122.14082426, 49.00242599], [-122.14818006, 49.00242587], [-122.16149439, 49.00242566], [-122.18582298, 49.00242806], [-122.2012207, 49.0024306], [-122.21575729, 49.00243315], [-122.23079639, 49.00242244], [-122.23331343, 49.00242454], [-122.25181682, 49.00241314], [-122.26481726, 49.00240464], [-122.26532283, 49.00240463], [-122.26957297, 49.0024018], [-122.27007021, 49.00239068], [-122.29350849, 49.0023837], [-122.31921662, 49.00236553], [-122.33844275, 49.00235492], [-122.35117181, 49.00234525], [-122.36014709, 49.00233908], [-122.36085185, 49.00233856], [-122.38290458, 49.00232278], [-122.39218545, 49.00231715], [-122.40491644, 49.00231149], [-122.42658103, 49.00230853], [-122.43817584, 49.00230288], [-122.45954144, 49.00223466], [-122.45961561, 49.00964741], [-122.45965836, 49.01326856], [-122.45967933, 49.01507018], [-122.45970028, 49.01681397], [-122.45969581, 49.02234177], [-122.45969331, 49.02415484], [-122.45968623, 49.03153038], [-122.45967947, 49.03234205], [-122.45965408, 49.0349254], [-122.45963506, 49.03686084], [-122.45961763, 49.03867216], [-122.45959223, 49.04256679], [-122.45958895, 49.04319032], [-122.45957926, 49.04487926], [-122.45957912, 49.04499703], [-122.45957517, 49.04581141], [-122.45957567, 49.04599213], [-122.45968793, 49.05303549], [-122.45976258, 49.06058692], [-122.45976449, 49.06082726], [-122.45976448, 49.0609684], [-122.45976638, 49.06117439], [-122.45976829, 49.06147957], [-122.45977212, 49.06188774], [-122.45977401, 49.0621891], [-122.4597752, 49.06230823], [-122.45977783, 49.06275749], [-122.45978802, 49.06412062], [-122.45978803, 49.0641211], [-122.45978803, 49.06412158], [-122.45980103, 49.06593132], [-122.45980266, 49.0661602], [-122.45981394, 49.06774485], [-122.45983964, 49.07133106], [-122.45978964, 49.07684233], [-122.45971697, 49.07860575], [-122.45956674, 49.08225059], [-122.45956643, 49.08225827], [-122.45955825, 49.08225829], [-122.45950462, 49.08404653], [-122.45947603, 49.08493479], [-122.45944334, 49.08580556], [-122.45937729, 49.09114265], [-122.45941543, 49.09214973], [-122.45944213, 49.09282875], [-122.45945358, 49.09314537], [-122.45948982, 49.09417915], [-122.45956043, 49.09624357], [-122.45957255, 49.09658121], [-122.45967981, 49.09956065], [-122.45969097, 49.09987268], [-122.45982376, 49.10359118], [-122.45986144, 49.10505755], [-122.45987129, 49.10540183], [-122.45990976, 49.10684193], [-122.46000891, 49.11072454], [-122.45999718, 49.11794853], [-122.46000126, 49.11808353], [-122.4601066, 49.12160381], [-122.46016353, 49.12341235], [-122.46019917, 49.12451079], [-122.46022449, 49.12525368], [-122.46022458, 49.12525623], [-122.46024759, 49.12591519], [-122.46029166, 49.12706565], [-122.46036721, 49.12914467], [-122.46038819, 49.12969017], [-122.46041298, 49.1303196], [-122.46043016, 49.13077071], [-122.46049322, 49.13242317], [-122.46049881, 49.13251305], [-122.46070099, 49.13614464], [-122.460768, 49.13731059], [-122.46090634, 49.13976094], [-122.46096403, 49.14079489], [-122.46101186, 49.14165843], [-122.46106412, 49.14258854], [-122.46111582, 49.14351515], [-122.46112803, 49.14393518], [-122.46121339, 49.14698169], [-122.46122361, 49.1471653], [-122.46148882, 49.15139206], [-122.4616759, 49.15436021], [-122.46168146, 49.15450633], [-122.46168002, 49.154607], [-122.4616905, 49.15507835], [-122.46173739, 49.15803774], [-122.46173913, 49.15814616], [-122.46175359, 49.15905906], [-122.46175971, 49.15937198], [-122.46176262, 49.15959121], [-122.46176235, 49.15961307], [-122.46178242, 49.16088018], [-122.46197412, 49.16427632], [-122.46199269, 49.16458194], [-122.46215392, 49.1673097], [-122.46217029, 49.16759267], [-122.46217952, 49.16775225], [-122.46218102, 49.16777019], [-122.46237826, 49.17118743], [-122.4618819, 49.1712802], [-122.46016656, 49.17147945], [-122.45682829, 49.17176728], [-122.45105584, 49.17194133], [-122.44481504, 49.17163625], [-122.44134708, 49.17130156], [-122.43564787, 49.17060369], [-122.4258043, 49.16883055], [-122.42463936, 49.16840436], [-122.42251495, 49.1676271], [-122.41983409, 49.16637807], [-122.41830327, 49.16550076], [-122.41700938, 49.16458357], [-122.41638497, 49.16400676], [-122.41446904, 49.16157378], [-122.41260523, 49.15999477], [-122.4105466, 49.1587671], [-122.40947878, 49.1581262], [-122.40288338, 49.15405438], [-122.40125623, 49.15305744], [-122.3995712, 49.15186253], [-122.3950692, 49.14833673], [-122.39363196, 49.14674107], [-122.39141374, 49.14389408], [-122.38857129, 49.14046173], [-122.38699937, 49.13900619], [-122.38412353, 49.13669142], [-122.38293666, 49.13599375], [-122.38156354, 49.13541466], [-122.38178841, 49.13278097], [-122.38157851, 49.13247903], [-122.38140576, 49.13225828], [-122.38118914, 49.13202329], [-122.38085082, 49.13175839], [-122.38056087, 49.13155188], [-122.38036401, 49.13143509], [-122.38005144, 49.13126704], [-122.37966958, 49.13109471], [-122.37943673, 49.13100213], [-122.37872641, 49.13067029], [-122.3782875, 49.13040254], [-122.37800728, 49.13025727], [-122.37775569, 49.13010773], [-122.37746444, 49.12991831], [-122.37717398, 49.12980152], [-122.37643293, 49.12943692], [-122.37602686, 49.12919481], [-122.37548069, 49.12891709], [-122.3752492, 49.12878891], [-122.37479612, 49.12850834], [-122.37454054, 49.12835453], [-122.37440696, 49.12828189], [-122.37399172, 49.12801841], [-122.37358369, 49.12774639], [-122.37334236, 49.12760539], [-122.37197529, 49.12687335], [-122.37146755, 49.12654151], [-122.37121853, 49.1264062], [-122.37085522, 49.12618403], [-122.37072032, 49.12610998], [-122.37036656, 49.12588637], [-122.37006083, 49.1256884], [-122.36975612, 49.12545911], [-122.36935485, 49.12519421], [-122.36921763, 49.12511302], [-122.36869869, 49.124841], [-122.36831181, 49.12461455], [-122.36796679, 49.12439095], [-122.36772602, 49.12421578], [-122.36660544, 49.123535], [-122.36610904, 49.12318038], [-122.36592569, 49.12304081], [-122.36578452, 49.1228998], [-122.36516731, 49.12251385], [-122.36458346, 49.12210082], [-122.36414881, 49.12181883], [-122.36360548, 49.12142575], [-122.36293725, 49.12105261], [-122.36248153, 49.12078058], [-122.36225919, 49.12066665], [-122.36188062, 49.12041883], [-122.36129043, 49.12006847], [-122.36065075, 49.11966542], [-122.36002645, 49.11928801], [-122.35988228, 49.11918546], [-122.35925255, 49.1187582], [-122.35859569, 49.11834376], [-122.35828021, 49.11817], [-122.35759089, 49.11776268], [-122.35691344, 49.11726136], [-122.35570347, 49.11645241], [-122.35485489, 49.1157873], [-122.35410265, 49.11532444], [-122.35369496, 49.11505241], [-122.3535816, 49.11496411], [-122.35317789, 49.11473339], [-122.35201432, 49.11402698], [-122.3515213, 49.11375211], [-122.35095169, 49.11345587], [-122.35014315, 49.11300013], [-122.34959162, 49.11271386], [-122.34938105, 49.11261702], [-122.34919022, 49.11252729], [-122.34893555, 49.11238344], [-122.34872148, 49.11228517], [-122.34856429, 49.11220114], [-122.34828464, 49.11208863], [-122.34796519, 49.11194764], [-122.34734478, 49.1116343], [-122.3466795, 49.11133808], [-122.34618891, 49.11107033], [-122.34602303, 49.11098629], [-122.34589609, 49.11093217], [-122.34560959, 49.11082393], [-122.34521452, 49.11068579], [-122.34481808, 49.11056473], [-122.34406867, 49.11025995], [-122.3431372, 49.10994662], [-122.34287604, 49.10990247], [-122.34256891, 49.10982556], [-122.34214047, 49.10973299], [-122.3415852, 49.10963045], [-122.34039086, 49.10949372], [-122.33962414, 49.10943248], [-122.3392923, 49.10941966], [-122.33831724, 49.10952363], [-122.337468, 49.10965039], [-122.33705097, 49.10972302], [-122.33634872, 49.10990674], [-122.33572271, 49.11003492], [-122.33516464, 49.11016595], [-122.33490076, 49.11023716], [-122.33480377, 49.11027988], [-122.33437968, 49.11036818], [-122.3342581, 49.11040094], [-122.33408985, 49.11042801], [-122.33328605, 49.11058467], [-122.33285385, 49.11070145], [-122.33223369, 49.11083817], [-122.33173428, 49.11092506], [-122.33148651, 49.11095781], [-122.33125612, 49.11100908], [-122.33087155, 49.1110746], [-122.33044256, 49.11117856], [-122.3302895, 49.11122414], [-122.33000368, 49.11128823], [-122.328471, 49.1117696], [-122.32762968, 49.11208578], [-122.32735619, 49.11217693], [-122.32698516, 49.11232647], [-122.32682222, 49.11237775], [-122.32599521, 49.11273238], [-122.3255759, 49.11292322], [-122.3247752, 49.11324794], [-122.32451396, 49.11340318], [-122.32441647, 49.11344305], [-122.32384786, 49.11371366], [-122.32371456, 49.11374783], [-122.32342696, 49.1138518], [-122.32291641, 49.11404977], [-122.32282174, 49.11409961], [-122.32260619, 49.11417367], [-122.32188246, 49.11449697], [-122.32172183, 49.11455536], [-122.32127098, 49.11477754], [-122.32114198, 49.11483023], [-122.32100055, 49.11491141], [-122.32077774, 49.11501253], [-122.31998044, 49.11545689], [-122.31950647, 49.11575882], [-122.31938528, 49.11584997], [-122.31914108, 49.11600948], [-122.31898884, 49.11613481], [-122.31891761, 49.11618181], [-122.31882183, 49.11628151], [-122.31842963, 49.11662189], [-122.31679517, 49.11973309], [-122.31501512, 49.11982966], [-122.31346396, 49.1200601], [-122.31189786, 49.12047907], [-122.30713507, 49.12243124], [-122.29915416, 49.12677507], [-122.294632, 49.12896979], [-122.28923509, 49.13126703], [-122.28187635, 49.1348119], [-122.27841427, 49.13639277], [-122.27115825, 49.13981372], [-122.2679389, 49.14156549], [-122.2645121, 49.14355796], [-122.26187539, 49.14473151], [-122.25957037, 49.14519357], [-122.25751047, 49.14525847], [-122.25590616, 49.14504768], [-122.25384933, 49.14447936], [-122.25132868, 49.14369662], [-122.24969644, 49.14318971], [-122.24575305, 49.14164952], [-122.24126005, 49.13980945], [-122.23722182, 49.13791525], [-122.23431959, 49.13643122], [-122.23100156, 49.13489288], [-122.22773509, 49.13355046], [-122.2241671, 49.13238625], [-122.22023601, 49.13143794], [-122.21564352, 49.13093743], [-122.21248613, 49.13074435], [-122.20124132, 49.13077853], [-122.19658821, 49.13169002], [-122.18448649, 49.13694821], [-122.18150356, 49.13823284], [-122.16629403, 49.14011422], [-122.15904988, 49.14118238], [-122.15387456, 49.14338848], [-122.15263241, 49.14373599], [-122.15212845, 49.14381859], [-122.15010316, 49.1438978], [-122.15010277, 49.14071212], [-122.15010273, 49.14041015]]]}}]}