{"type": "FeatureCollection", "features": [{"type": "Feature", "geometry": {"type": "Polygon", "coordinates": [[[-96.6763734274195, 49.5673049040098], [-96.6764007167681, 49.5659485080125], [-96.6764134506341, 49.5653155234594], [-96.6764280033057, 49.5645921116934], [-96.6764552856511, 49.5632357150246], [-96.6764825665252, 49.5618793189603], [-96.6765193776511, 49.5600488678085], [-96.6765248324797, 49.5597775879254], [-96.6765598247872, 49.5579688976741], [-96.6766226845867, 49.5547191931168], [-96.6766650809022, 49.5525268817351], [-96.6767936100016, 49.5458784743273], [-96.6768052603711, 49.5452756421151], [-96.6712156735482, 49.5452600588909], [-96.6656303420756, 49.5452442174011], [-96.6652134932744, 49.5452389508037], [-96.6652139269802, 49.5452143124859], [-96.6652182722638, 49.5449676398007], [-96.6653649647647, 49.5385962556521], [-96.6653851697151, 49.5377180751769], [-96.6653722027555, 49.5377179771433], [-96.6542184489308, 49.5375527245286], [-96.6542561411843, 49.5359138726149], [-96.6543393047395, 49.5322975031284], [-96.6543148319476, 49.5322975078228], [-96.645867120495, 49.5323061380121], [-96.6458661176505, 49.5320293060386], [-96.6458398723014, 49.5247860180982], [-96.6458135145963, 49.5175645805031], [-96.6458127290163, 49.5172932453134], [-96.6457979999097, 49.5100332638186], [-96.6457949687424, 49.5085851187536], [-96.6457928979917, 49.5076203304384], [-96.6457911508534, 49.5067159180915], [-96.6457895614554, 49.5058937251692], [-96.6457835705307, 49.5027954280661], [-96.64578301519, 49.5025218056976], [-96.6461972222463, 49.5025228868211], [-96.646199634055, 49.5025229440142], [-96.6573159999692, 49.5025526720404], [-96.6573316290407, 49.5025527134146], [-96.6684374161556, 49.5025821581722], [-96.6684187559124, 49.4953386557654], [-96.6688353433682, 49.4953395079409], [-96.6729079851058, 49.4953396790168], [-96.6743852858495, 49.4953397064377], [-96.6799351961791, 49.4953396376678], [-96.6836324561073, 49.495339444581], [-96.6908246108059, 49.4953387292181], [-96.6916660943425, 49.4953384725245], [-96.6952263901746, 49.4953355095262], [-96.6961280350487, 49.4953347417706], [-96.6969904259171, 49.4953340010652], [-96.6984630149156, 49.4953327217541], [-96.7026283404911, 49.4953289985652], [-96.7137368079523, 49.4953149058756], [-96.7141533695684, 49.495314709822], [-96.7141555377025, 49.4971224573332], [-96.7141594006771, 49.5003531380582], [-96.7141620237245, 49.5025457011282], [-96.7141623467825, 49.5028170288406], [-96.7141660087207, 49.5038283426086], [-96.7141735485635, 49.5058270078739], [-96.7141775677267, 49.5068869585099], [-96.7141896764372, 49.5100609801716], [-96.7141917462421, 49.5106231546224], [-96.7141931310532, 49.5109994001006], [-96.7141948094683, 49.5114564384506], [-96.7141965567032, 49.511931378239], [-96.7142005295805, 49.5130120995147], [-96.714202387201, 49.5135172587106], [-96.7142030368861, 49.5136943051869], [-96.7142040247355, 49.5139631888072], [-96.7142332830262, 49.5173131124487], [-96.7172724822587, 49.5173118140222], [-96.7175514381482, 49.5173116096], [-96.7190439011248, 49.5173110126577], [-96.7197830517208, 49.5173107166688], [-96.7197833689556, 49.5175821271601], [-96.7197856893886, 49.5195718741858], [-96.7197873985144, 49.5212017431603], [-96.7197914194715, 49.5248213597686], [-96.7225739699978, 49.5248194934492], [-96.7225763082954, 49.5272026425022], [-96.7225772946096, 49.5282111181343], [-96.7225774873891, 49.5284082455743], [-96.7225784144259, 49.5293537530414], [-96.7225785737318, 49.529518176086], [-96.7225798110917, 49.5306293895077], [-96.7225796940152, 49.5306610473755], [-96.7225808927485, 49.5318873686783], [-96.7234635389724, 49.5318867061722], [-96.7235014386235, 49.5318866767572], [-96.7235015849038, 49.5319688976485], [-96.7241753201631, 49.5319683867137], [-96.724175171371, 49.53188616578], [-96.724260234182, 49.5318860980424], [-96.7252236691919, 49.5318853727457], [-96.7255015855257, 49.5318851390365], [-96.7341221960408, 49.5318781250883], [-96.7340912749195, 49.532530587416], [-96.7340788809561, 49.5331643377955], [-96.7339850315924, 49.5379644483707], [-96.7338732833245, 49.5432367392329], [-96.7338311098539, 49.5452263296293], [-96.7351578701054, 49.5452331663508], [-96.7393887799582, 49.5452548721465], [-96.7424192277962, 49.5452703270871], [-96.7449464641066, 49.5452831476356], [-96.7465255290013, 49.5452912841796], [-96.7467417570766, 49.545292397773], [-96.750577153233, 49.5453120647107], [-96.7505724390179, 49.5455833896349], [-96.7505100134968, 49.5491756565632], [-96.7505074813647, 49.5493213877483], [-96.750446323995, 49.5528395750134], [-96.7448161730279, 49.5528140895976], [-96.7447831651502, 49.5547132720908], [-96.7446905391579, 49.5600714696343], [-96.7558269930925, 49.5601213059434], [-96.7562441326712, 49.5601213676653], [-96.7562396501488, 49.5603926974646], [-96.7561566962869, 49.5653816547166], [-96.7561190882489, 49.5676426994057], [-96.755701928841, 49.5676398313912], [-96.7445628146233, 49.5675666635877], [-96.7335608161055, 49.5674931988971], [-96.7334217591415, 49.5674922671175], [-96.7330046087913, 49.5674891482267], [-96.7330146154467, 49.5669238638863], [-96.7331319184631, 49.5602917282655], [-96.7331370040512, 49.5600204167929], [-96.7332730531893, 49.5527586203739], [-96.7220974609261, 49.55275467045], [-96.7109302723388, 49.5527466045284], [-96.7109075629107, 49.5541396091664], [-96.7108941562403, 49.5549617652596], [-96.710871232259, 49.5563679315723], [-96.7108502716751, 49.5576641960467], [-96.7108341543987, 49.558640914688], [-96.7108229929223, 49.5593260463377], [-96.7108121771326, 49.5599892555193], [-96.7108077527702, 49.5602605761635], [-96.7106901498219, 49.5675131370593], [-96.7102729965853, 49.5675103507717], [-96.6991113628042, 49.5674207030466], [-96.699111317089, 49.5674206751496], [-96.6888455735477, 49.5673422717503], [-96.6870330751894, 49.5673330149832], [-96.6860263032631, 49.5673304015242], [-96.685887258705, 49.5673300398084], [-96.6842647084745, 49.5673258088451], [-96.6763734274195, 49.5673049040098]]]}, "properties": {"district_id": "Steinbach", "muni_name": "CITY OF STEINBACH"}}]}