{"type": "FeatureCollection", "features": [{"type": "Feature", "properties": {"district_id": "Ward 1"}, "geometry": {"type": "Polygon", "coordinates": [[[-105.77509541741, 53.2036284571993], [-105.775062798369, 53.2018205162002], [-105.775047692223, 53.1992774675929], [-105.775509595143, 53.1992759454849], [-105.775490602026, 53.1983529579418], [-105.775055056864, 53.1983545246041], [-105.775059037911, 53.1966981895187], [-105.775155120475, 53.1966998720527], [-105.775156062471, 53.1962872459911], [-105.778488699108, 53.1962699430733], [-105.778522345622, 53.1961090958428], [-105.778592577858, 53.1957733587193], [-105.77876057493, 53.1955367951314], [-105.778898815994, 53.1953494707306], [-105.778898860195, 53.1953494105016], [-105.778909787594, 53.1953346035829], [-105.779159176371, 53.1951094002369], [-105.779447990963, 53.1948744231986], [-105.779520827218, 53.1948175716688], [-105.780080359863, 53.1943660556911], [-105.780258286914, 53.1941318025722], [-105.78039574824, 53.1938502469646], [-105.780389908802, 53.1926822529727], [-105.780345140694, 53.1876323036834], [-105.780215513174, 53.1729993822279], [-105.780216472074, 53.1729993823461], [-105.78021766173, 53.1729670369699], [-105.784105174854, 53.1729587180224], [-105.784406180074, 53.1729580849535], [-105.786003511836, 53.1729546574579], [-105.786454720104, 53.1729536568116], [-105.789494329962, 53.1729567881347], [-105.791026402728, 53.172958337343], [-105.792463157035, 53.1729597734544], [-105.792558475411, 53.1729598673948], [-105.793967865647, 53.1729612600179], [-105.7940905489, 53.1729613771869], [-105.797218369237, 53.1729643614508], [-105.798495920845, 53.1729656928028], [-105.803880502545, 53.1729781554061], [-105.804086585527, 53.1729786343728], [-105.804326811626, 53.1729791787317], [-105.808381594023, 53.1729883902284], [-105.808913423617, 53.172989589608], [-105.80929512802, 53.1729904486726], [-105.80976179943, 53.1729914932585], [-105.809761777838, 53.1729993618627], [-105.809761040153, 53.1732681930261], [-105.809754199247, 53.1766075199484], [-105.809735712023, 53.1855969817037], [-105.809722197808, 53.1919184173299], [-105.809721605036, 53.1922126439714], [-105.809716940375, 53.1945865938468], [-105.809704593669, 53.2006827470866], [-105.809704740942, 53.2007398196429], [-105.809704294771, 53.2009218575912], [-105.809704207174, 53.2009569169818], [-105.809701072237, 53.2023951486764], [-105.809699485191, 53.2031359659953], [-105.808944044293, 53.2029851688461], [-105.808422509923, 53.2028098925376], [-105.808055138, 53.2026841401529], [-105.807609002727, 53.2027686614774], [-105.806927838, 53.2028208767101], [-105.806346263357, 53.2026781358191], [-105.805492902265, 53.2026221297755], [-105.804802098993, 53.2026576544048], [-105.803258984486, 53.2026921123185], [-105.800577859731, 53.2023745880036], [-105.800155272204, 53.2022881449189], [-105.799028170603, 53.2021942648905], [-105.796691938132, 53.2022178220574], [-105.794107484525, 53.2024290614842], [-105.792255886417, 53.2027162625746], [-105.791406396294, 53.2029257000524], [-105.7898388981, 53.2032083513463], [-105.788318506163, 53.2033249064904], [-105.786910836095, 53.2035569815393], [-105.785709394219, 53.2037199993889], [-105.783957493157, 53.2038598089787], [-105.781183297766, 53.2038532336433], [-105.778523791559, 53.2038242878452], [-105.778521763643, 53.2038242652842], [-105.775128037706, 53.2036303260746], [-105.77509541741, 53.2036284571993]]]}}, {"type": "Feature", "properties": {"district_id": "Ward 2"}, "geometry": {"type": "Polygon", "coordinates": [[[-105.537532216994, 53.2500583631036], [-105.537532856449, 53.2487940346145], [-105.537532839254, 53.2486132621626], [-105.537536598186, 53.2413792999963], [-105.537536748359, 53.2410683640123], [-105.537539010791, 53.2358817249527], [-105.537539029543, 53.2358387716999], [-105.537825364613, 53.235783661915], [-105.538384101075, 53.2357155368658], [-105.539865494366, 53.2357326492038], [-105.54093242165, 53.2357449815125], [-105.541384519058, 53.2357503002977], [-105.541384710727, 53.2355398628134], [-105.541384922049, 53.2353571477445], [-105.541748945788, 53.235352896022], [-105.542403393734, 53.2353973200119], [-105.543470401859, 53.2355172026497], [-105.54400715582, 53.2355929446967], [-105.544433669644, 53.2356531286988], [-105.544765069765, 53.2356839434345], [-105.545411865978, 53.2357440820123], [-105.545552434126, 53.2357571514357], [-105.547139351315, 53.2358901992549], [-105.54820226967, 53.2359564789201], [-105.549677198815, 53.2360484340095], [-105.549701150572, 53.2360499271381], [-105.54985358247, 53.2360589682551], [-105.550676423244, 53.236107792656], [-105.550833659879, 53.2361119427563], [-105.551430303294, 53.2361276886551], [-105.55162955422, 53.2361574461864], [-105.551885969382, 53.2361957404742], [-105.552354110055, 53.2362247556356], [-105.553041610909, 53.236239762282], [-105.553237931804, 53.2362440468097], [-105.5532992558, 53.2362513619685], [-105.553615333841, 53.2362890654465], [-105.55405162536, 53.2362422912372], [-105.554147345225, 53.236232029016], [-105.554738539152, 53.2361819510395], [-105.555389028541, 53.2361268479967], [-105.555522903851, 53.2361155089135], [-105.556574627915, 53.2360877881811], [-105.556632585904, 53.2360900919543], [-105.557259474418, 53.2361150083392], [-105.557943629588, 53.2360889932779], [-105.559192122218, 53.2360831430929], [-105.55961001741, 53.2360678045027], [-105.559667241002, 53.2360657040305], [-105.559739479051, 53.2360720819376], [-105.560035270513, 53.2360981969289], [-105.560916602343, 53.2361263695159], [-105.561061123612, 53.2361203498546], [-105.56153422072, 53.2361006469125], [-105.561758328864, 53.2361242125257], [-105.561915010827, 53.2361406793806], [-105.562170608118, 53.2361147089773], [-105.562170973675, 53.2360797215974], [-105.56241021667, 53.2360542321654], [-105.562472652256, 53.2360509709878], [-105.562473611557, 53.2359611758597], [-105.562473708391, 53.2359521117442], [-105.562920107357, 53.2360263589325], [-105.562943601422, 53.2360332685979], [-105.563299650528, 53.2361379827211], [-105.563760735308, 53.2362897248382], [-105.564005462521, 53.2364181824462], [-105.564344515276, 53.236529994483], [-105.564643149401, 53.2366500962897], [-105.565147729391, 53.236880224677], [-105.565240865078, 53.2369227014119], [-105.565487957167, 53.2370163478843], [-105.565620849227, 53.2370667128239], [-105.565945755594, 53.2371299830182], [-105.566315961373, 53.2372510843084], [-105.566433965514, 53.2372896853013], [-105.566560491872, 53.2373143220019], [-105.567002562047, 53.2374003988387], [-105.567436124715, 53.2375117525229], [-105.567897131493, 53.2376553709859], [-105.568627327713, 53.2377329003956], [-105.568925875669, 53.2378448926288], [-105.569144072965, 53.2380058721903], [-105.569194768017, 53.2380217842517], [-105.569550863636, 53.2381335538878], [-105.569863617218, 53.2381968352731], [-105.570254918714, 53.2382760017546], [-105.571157637899, 53.2384361173709], [-105.571428324714, 53.2384841276177], [-105.572122809138, 53.2386073012305], [-105.573123728757, 53.2387321084916], [-105.57424674579, 53.2388302315335], [-105.574425592764, 53.238845857178], [-105.574881230737, 53.2388856670016], [-105.575962308256, 53.2389452608868], [-105.576990915184, 53.2391185063613], [-105.577951346807, 53.2392434690939], [-105.578355816787, 53.2393246974125], [-105.578384643341, 53.2393304864861], [-105.578491676699, 53.2393431650262], [-105.578844503848, 53.2393849581139], [-105.579792542557, 53.2395909770676], [-105.579860187344, 53.2396084419329], [-105.58047009394, 53.23976590825], [-105.580680677141, 53.239784800893], [-105.580726979891, 53.2397889549296], [-105.581092663623, 53.239868192576], [-105.581139427184, 53.2398864423199], [-105.582097265102, 53.2402602364988], [-105.582584911276, 53.2403712710747], [-105.583356112077, 53.2405608686373], [-105.58342497313, 53.2405777976099], [-105.58346478338, 53.2405902361483], [-105.583858939878, 53.2407133875106], [-105.584454847242, 53.2408400827168], [-105.58450809419, 53.2408471835298], [-105.584982469106, 53.2409104057986], [-105.585632287619, 53.2410287312894], [-105.586395523342, 53.2410677411581], [-105.586396379694, 53.2409217990247], [-105.586396585315, 53.2408867564482], [-105.586422285509, 53.2408933677211], [-105.586697636019, 53.2409642000691], [-105.586698284679, 53.2408362807595], [-105.5866997302, 53.2405888729817], [-105.586699858879, 53.2405668488858], [-105.586748638042, 53.240582501757], [-105.587139944502, 53.2406494502364], [-105.587445469175, 53.2407646431189], [-105.587717056447, 53.2408670393002], [-105.58843289354, 53.241152816571], [-105.589030892941, 53.2412187477473], [-105.589630220421, 53.2413811051827], [-105.590184059067, 53.2414891290979], [-105.590411922267, 53.2415332333663], [-105.590528262752, 53.241555751551], [-105.590840859102, 53.2416404289616], [-105.591127599644, 53.241718101425], [-105.592233485239, 53.2419743692418], [-105.593245436332, 53.2420795540962], [-105.594070851442, 53.2421852778584], [-105.594073657958, 53.242185637322], [-105.59408710945, 53.2421880200708], [-105.594603180728, 53.2422794337273], [-105.594740448272, 53.2422982155607], [-105.595247147199, 53.2423675438731], [-105.595477541753, 53.2423990664712], [-105.5960989082, 53.2424923968874], [-105.596742864165, 53.2425580596217], [-105.597433146843, 53.2426510380961], [-105.597953652472, 53.2426846979364], [-105.598421578578, 53.2427149556], [-105.598779640213, 53.2427131401054], [-105.598779301127, 53.2427814360276], [-105.598779136988, 53.2428144955463], [-105.599311693768, 53.2427883758524], [-105.59975028583, 53.2427543480006], [-105.599894620004, 53.242734834651], [-105.601523727938, 53.242514839992], [-105.601942527062, 53.2424464101459], [-105.601943249679, 53.2424462920722], [-105.602439035629, 53.2423664807084], [-105.603102810411, 53.242280852516], [-105.603411603033, 53.2422410163131], [-105.603722672462, 53.2421924009618], [-105.60385029931, 53.2421724545886], [-105.603995325277, 53.2421534934839], [-105.604460415849, 53.2420926849266], [-105.60663449588, 53.2417044541452], [-105.607225669651, 53.2415788314274], [-105.60761013525, 53.2414888683059], [-105.607153944272, 53.2414892959079], [-105.607694768609, 53.2413904005564], [-105.608157012537, 53.241257016495], [-105.608309072773, 53.2412131377649], [-105.608579225679, 53.2411721484591], [-105.608803896669, 53.2411380594314], [-105.60888431174, 53.2411142081975], [-105.609177255965, 53.2410273198064], [-105.609659763566, 53.2409377926894], [-105.610503824811, 53.240759343299], [-105.610851933462, 53.2407090093018], [-105.611153614505, 53.240667802768], [-105.611276363353, 53.2406538064541], [-105.612651095914, 53.2403710409592], [-105.613302483933, 53.2402516048067], [-105.614896514945, 53.2400837715987], [-105.615676764945, 53.2400468147511], [-105.615981286431, 53.240032389569], [-105.6164435225, 53.240010484412], [-105.616907156133, 53.2399561452767], [-105.617155888311, 53.2399269923828], [-105.61753379115, 53.239901757393], [-105.617627110571, 53.2398955256694], [-105.617798455774, 53.2398544273667], [-105.618338202666, 53.2397249633117], [-105.618555248665, 53.2396803116866], [-105.61876062204, 53.2396647283587], [-105.618862140915, 53.239664201372], [-105.618942021836, 53.2396637866476], [-105.619328375969, 53.239618253875], [-105.619702113742, 53.2395364966333], [-105.619860684988, 53.23948561483], [-105.61995492281, 53.2394553759604], [-105.620345686463, 53.2393988702535], [-105.620787675546, 53.2393349554591], [-105.621303663756, 53.2392275251169], [-105.621650447365, 53.2391553221404], [-105.621650311329, 53.2391655210228], [-105.621645254556, 53.2395446365255], [-105.621658135615, 53.2395428834103], [-105.621870708784, 53.2395139519293], [-105.622083843919, 53.2394849435446], [-105.622319699522, 53.239432516574], [-105.622505426152, 53.2393912320629], [-105.622558478153, 53.2393892074664], [-105.622686078957, 53.2393843378042], [-105.622952365489, 53.2393177638705], [-105.62310108463, 53.2392805824519], [-105.623295780413, 53.2391965487667], [-105.623685728979, 53.2390772719014], [-105.62413307908, 53.2389487758848], [-105.624504730335, 53.2387956938122], [-105.624746972131, 53.2387111754634], [-105.624893101221, 53.2386601864355], [-105.625285696879, 53.2385288358529], [-105.625680510831, 53.2383998189379], [-105.626002818963, 53.2383099601218], [-105.626279703575, 53.2382145776195], [-105.626697490664, 53.2381107676338], [-105.627082096526, 53.2379707157149], [-105.627542654406, 53.2378369596572], [-105.627866452043, 53.2377071401008], [-105.628279174639, 53.2375978136059], [-105.628668826422, 53.2374632675494], [-105.629062784682, 53.2373334433823], [-105.629463973802, 53.2372114990617], [-105.629865159856, 53.2370895627265], [-105.630206469664, 53.2369022210615], [-105.630599702484, 53.2367716132276], [-105.630780894068, 53.2366987841983], [-105.63089626536, 53.2366524110263], [-105.630896288301, 53.2366927186712], [-105.631029328854, 53.2366472120909], [-105.631202082289, 53.2365605047832], [-105.631370691543, 53.2364711932911], [-105.63153618496, 53.236379930026], [-105.631617319574, 53.2363294852559], [-105.63169236177, 53.2362828282416], [-105.631819507207, 53.2362163750541], [-105.631861997243, 53.2361941673519], [-105.631936201597, 53.2361672825493], [-105.632042012792, 53.2361144760707], [-105.632170225764, 53.2359998397396], [-105.632318112813, 53.2358975309684], [-105.632477386611, 53.2358023802994], [-105.632633559965, 53.2357052679537], [-105.632780478483, 53.2355973904615], [-105.632942901947, 53.23549142593], [-105.63299042962, 53.2354553426201], [-105.633082682715, 53.2353853032604], [-105.633231189931, 53.2352826751119], [-105.633341082287, 53.2351645663363], [-105.633443498966, 53.2350434674868], [-105.633577052846, 53.2349348419597], [-105.63370439677, 53.2348237325941], [-105.633827986769, 53.2347111144855], [-105.633942849968, 53.2345950010624], [-105.634065188608, 53.2344818862352], [-105.634198753932, 53.2343732687111], [-105.634277705404, 53.2342958558482], [-105.634981352504, 53.2342950131176], [-105.635016895766, 53.2342163836243], [-105.635045663268, 53.2341446402267], [-105.6351026548, 53.2339653793367], [-105.635131422124, 53.2338936446942], [-105.635159130834, 53.2337503343162], [-105.635217710722, 53.2336784407897], [-105.635274715562, 53.2334991797294], [-105.635303482154, 53.2334274357151], [-105.635376417995, 53.2332767026479], [-105.63539029881, 53.2332480156975], [-105.635390176726, 53.2332397704361], [-105.635389239016, 53.2331764399707], [-105.635382956454, 53.2331548546394], [-105.635429552737, 53.2330801932454], [-105.635458335284, 53.2330023995854], [-105.635759474229, 53.2322361246055], [-105.635802152827, 53.2321822852676], [-105.635829789814, 53.2321597635212], [-105.635853465675, 53.2321416760483], [-105.635885090499, 53.2321175158342], [-105.635935663305, 53.2320696931787], [-105.636000047604, 53.2320106140335], [-105.636059523591, 53.2319347781025], [-105.636068471265, 53.231907815984], [-105.636081838585, 53.231867536036], [-105.636140236326, 53.2317189832082], [-105.636204992926, 53.23168507171], [-105.636324840863, 53.2315949352008], [-105.636327686657, 53.2315928526601], [-105.636417067457, 53.231527311051], [-105.636472007206, 53.2314598952597], [-105.636526864633, 53.2313868791661], [-105.636563569583, 53.2313475264252], [-105.636618011766, 53.2312465380056], [-105.636663702345, 53.2311847629082], [-105.636770395737, 53.2310725193832], [-105.636903562887, 53.2309503182383], [-105.636969845673, 53.2308689709371], [-105.637036428817, 53.2308078752092], [-105.637136445131, 53.2307263475214], [-105.637236161418, 53.2306245774612], [-105.637302443082, 53.2305432305226], [-105.63740277445, 53.2304819442633], [-105.637502188863, 53.2303599322446], [-105.637568770325, 53.2302988268923], [-105.637668799988, 53.2302172986743], [-105.637802247357, 53.2301153482168], [-105.637902276151, 53.2300338198031], [-105.638101113863, 53.2297897761139], [-105.638133643866, 53.2297086088278], [-105.638199320414, 53.22958677682], [-105.638530708204, 53.229180036868], [-105.638597286511, 53.2291189397167], [-105.63862549312, 53.2290918101392], [-105.638830150946, 53.2288949656734], [-105.638963908351, 53.228813255565], [-105.639264249233, 53.2285889095857], [-105.639363970172, 53.2284871382091], [-105.639630257434, 53.2282427300453], [-105.639730278407, 53.2281612000954], [-105.639852102137, 53.2280116696173], [-105.639929097252, 53.227917162664], [-105.640029102275, 53.2278356325414], [-105.640429146922, 53.2275095116086], [-105.640483107905, 53.2274594933207], [-105.640553154244, 53.2274273758311], [-105.6406581446, 53.2273739097652], [-105.640780763721, 53.2273203488343], [-105.640868454949, 53.2272881275183], [-105.641078749045, 53.2272023537632], [-105.641111031838, 53.2271891864043], [-105.641183896234, 53.2271594667445], [-105.641314586584, 53.2270786872608], [-105.641323476285, 53.2270714472364], [-105.641380962987, 53.2270246283614], [-105.641779892271, 53.2265349044239], [-105.641818073176, 53.2265115798851], [-105.64191408261, 53.2264529279972], [-105.641960787707, 53.2263363806841], [-105.641979353653, 53.2262900512762], [-105.642045825902, 53.226208430088], [-105.642102950394, 53.2261618573499], [-105.642146162644, 53.2261266269679], [-105.642279135016, 53.2259633847579], [-105.642379470875, 53.225881590219], [-105.642378600865, 53.2258234557471], [-105.64237825484, 53.2258003341735], [-105.642444740205, 53.2257187126819], [-105.642482922925, 53.22569538348], [-105.642578925683, 53.2256367267341], [-105.642844862341, 53.2253102505225], [-105.642877495762, 53.2252288119018], [-105.642977814005, 53.2251470076101], [-105.642976943335, 53.2250888816236], [-105.64297659687, 53.2250657515641], [-105.643271080841, 53.2247042160419], [-105.643309008171, 53.2246576524804], [-105.6433500781, 53.2245551555482], [-105.643374272156, 53.2244947749657], [-105.643396615843, 53.224467342639], [-105.643507233929, 53.2243315313753], [-105.643506320346, 53.2242705889273], [-105.643606955285, 53.2242090987176], [-105.643707284532, 53.2241273030569], [-105.643706066061, 53.2240460470086], [-105.643772546206, 53.2239644247681], [-105.643771327619, 53.2238831687185], [-105.643837807398, 53.2238015469892], [-105.643836588687, 53.2237202903898], [-105.643903052552, 53.2236386687069], [-105.643901833864, 53.2235574214328], [-105.644069858745, 53.2234752509345], [-105.644034790752, 53.223394177243], [-105.644033571694, 53.2233129211898], [-105.64411159915, 53.2231181805028], [-105.644164089789, 53.2229871735131], [-105.644197023806, 53.2229260481151], [-105.644207368484, 53.222916551336], [-105.644263805262, 53.2228647402983], [-105.64429643416, 53.2227833007209], [-105.644362911252, 53.2227016786918], [-105.644361691604, 53.2226204226344], [-105.644385599804, 53.2225607395731], [-105.644426947635, 53.2224575439654], [-105.644425728008, 53.2223762966835], [-105.644492204231, 53.2222946745794], [-105.644490603802, 53.2221880696786], [-105.644489764478, 53.2221321619076], [-105.644620274679, 53.2218064136931], [-105.644619054575, 53.2217251570789], [-105.644685529431, 53.2216435348621], [-105.644718156627, 53.2215620957064], [-105.644743189438, 53.2215313583744], [-105.644784631036, 53.2214804728849], [-105.644885242088, 53.2214189816765], [-105.644816632153, 53.2213584054767], [-105.644883106202, 53.2212767919254], [-105.644880665069, 53.2211142797869], [-105.644945916888, 53.2209514008056], [-105.6449450892, 53.2208963045243], [-105.644944696213, 53.2208701447334], [-105.644958983287, 53.220852601481], [-105.64501116913, 53.2207885217806], [-105.645009733543, 53.2206929687358], [-105.645008727687, 53.2206260184107], [-105.645045292063, 53.2205811202284], [-105.645075200108, 53.2205443954203], [-105.645074377281, 53.2204896329071], [-105.645072758312, 53.2203818832678], [-105.645117054668, 53.2203195993101], [-105.645183310881, 53.2201030672381], [-105.645186157448, 53.2200821966854], [-105.645195095888, 53.2200461193933], [-105.645210354192, 53.2200100078871], [-105.645231148274, 53.2199226637424], [-105.645243332084, 53.2198922590364], [-105.645257216919, 53.219853448964], [-105.645399304009, 53.2196729844386], [-105.645594449545, 53.2192143109459], [-105.645817146136, 53.2187484676833], [-105.646004044808, 53.218321606681], [-105.646201489452, 53.2179553470904], [-105.646213022201, 53.2179339536524], [-105.646215673, 53.2179247721749], [-105.646343296208, 53.2174827235766], [-105.646446053541, 53.2171985096019], [-105.646600936536, 53.2169403515231], [-105.646655584449, 53.2168492639131], [-105.646780575901, 53.2165907286596], [-105.646924693793, 53.2161773752292], [-105.646970726348, 53.2160095177952], [-105.647006136245, 53.215880394926], [-105.647096272115, 53.2157003340309], [-105.647193809422, 53.2155054858082], [-105.647318389497, 53.2152211617793], [-105.647367916063, 53.215040559259], [-105.647399827607, 53.2149241904997], [-105.647610133032, 53.2146265101675], [-105.647886021392, 53.2144058341757], [-105.648014641565, 53.2143133092708], [-105.648015568139, 53.2136542922379], [-105.648151897281, 53.213597916452], [-105.648199587698, 53.2135781951037], [-105.648261425359, 53.2135498303807], [-105.648336172384, 53.2135155340465], [-105.648483602285, 53.2134254154895], [-105.648642786465, 53.2133281113388], [-105.648710611419, 53.2132658240711], [-105.648948150401, 53.2130581369949], [-105.649050041506, 53.2129750250219], [-105.649355712442, 53.2127256874832], [-105.649491981518, 53.2126423872515], [-105.649791230935, 53.2124746881974], [-105.649901096988, 53.2124131240258], [-105.650037675484, 53.2123504610251], [-105.650309464023, 53.2121426293455], [-105.65044562485, 53.2120593648087], [-105.650716351207, 53.2118103943901], [-105.650852673897, 53.2117478218189], [-105.651227082732, 53.2115603545637], [-105.651329323622, 53.2115186066859], [-105.651873831226, 53.2112685956252], [-105.652351112625, 53.2111014078982], [-105.652479022807, 53.2110426760426], [-105.652487192607, 53.2110389247477], [-105.652498075393, 53.2110316538307], [-105.652860185436, 53.2107897218894], [-105.652962438434, 53.2107479725305], [-105.65312982952, 53.2106661694961], [-105.65330361772, 53.2105812396513], [-105.653369505154, 53.2105275091114], [-105.653405495071, 53.2104981596241], [-105.653746128595, 53.2102898706083], [-105.653813942361, 53.21022770608], [-105.654052078149, 53.2100618600257], [-105.654222393008, 53.2099578090821], [-105.654768734668, 53.2096655155288], [-105.654836752592, 53.2096031155543], [-105.655190525193, 53.2094648063658], [-105.655217048133, 53.2094544370102], [-105.655356403238, 53.2093903864066], [-105.655692848562, 53.2092257487715], [-105.655828639507, 53.2091842441871], [-105.656029732404, 53.2090466962404], [-105.656106386778, 53.2089942641734], [-105.656239148022, 53.2088917563427], [-105.656605949377, 53.2087314271304], [-105.656716173894, 53.2086832474378], [-105.656852683789, 53.2085998292539], [-105.6569551661, 53.2085372180438], [-105.657228416778, 53.2083702751743], [-105.657304959465, 53.2083544535371], [-105.657331406139, 53.2083489869043], [-105.657368491607, 53.2083308411136], [-105.657673617082, 53.2081815432573], [-105.65781028663, 53.2080980330994], [-105.65822191021, 53.2079922128424], [-105.658358987475, 53.2079500782574], [-105.658701772448, 53.20786546439], [-105.658730613814, 53.2078653011691], [-105.658839318701, 53.2078646859165], [-105.65918188009, 53.2077801980914], [-105.659298717772, 53.2077443139054], [-105.659824211188, 53.2075829177286], [-105.66037302403, 53.20741435563], [-105.66049462243, 53.2074038206143], [-105.660605828692, 53.207412750369], [-105.660652337189, 53.2074220259789], [-105.660674286112, 53.2074264034433], [-105.661149848786, 53.2074463022397], [-105.661379290067, 53.2074567150206], [-105.661608533928, 53.2074902578678], [-105.661702091473, 53.2074994019973], [-105.66184726164, 53.2074940380824], [-105.661948993489, 53.2075137707929], [-105.662320860189, 53.2075117045742], [-105.662427616059, 53.2074950495822], [-105.662455772323, 53.2074906569032], [-105.662590996496, 53.2074899051104], [-105.662624777063, 53.2075031578756], [-105.662693026273, 53.2075299332964], [-105.662794444491, 53.207529369264], [-105.662892010964, 53.2075141474078], [-105.66292935553, 53.2075083210625], [-105.663008326873, 53.2075197081945], [-105.663064893971, 53.2075278647505], [-105.663153310978, 53.2075273727526], [-105.663335342513, 53.2075263596284], [-105.663410709343, 53.2075409796282], [-105.663437059577, 53.2075460911526], [-105.663500702604, 53.2075457368177], [-105.663538477818, 53.2075455264869], [-105.663673388535, 53.2075244774441], [-105.663943837936, 53.207522970936], [-105.664147301932, 53.2075624326939], [-105.664282511664, 53.2075616790625], [-105.664388098757, 53.2075926423182], [-105.664418364837, 53.207601517775], [-105.664689441929, 53.2076406016127], [-105.664824352369, 53.2076195512681], [-105.664959892005, 53.2076390927966], [-105.665237674454, 53.2076375424348], [-105.665636001098, 53.2076353181605], [-105.665903725892, 53.2076570324949], [-105.666109587098, 53.2076529696716], [-105.666374229278, 53.2076679401096], [-105.66651557669, 53.2076709973939], [-105.666603308374, 53.2076967251298], [-105.666651416716, 53.2077108330907], [-105.66671229636, 53.2077013329473], [-105.666786327309, 53.2076897805224], [-105.66692155199, 53.2076890238138], [-105.667057091866, 53.2077085629581], [-105.667192316599, 53.2077078059421], [-105.667463383125, 53.2077468835357], [-105.668004283373, 53.2077438527004], [-105.668140139616, 53.2077836866126], [-105.668411206551, 53.2078227620507], [-105.668546431606, 53.207822003497], [-105.668681973539, 53.2078415407841], [-105.668817198646, 53.207840781923], [-105.668952739853, 53.2078603194551], [-105.669223176457, 53.2078588010417], [-105.669324911592, 53.207878527446], [-105.669561555698, 53.2078771980611], [-105.669697414561, 53.2079170208596], [-105.669832624343, 53.2079162609329], [-105.670103709165, 53.2079553329741], [-105.670238934591, 53.2079545724986], [-105.670374477695, 53.2079741078564], [-105.670476213623, 53.2079938332749], [-105.670712843688, 53.2079925016842], [-105.670817746586, 53.2080232567648], [-105.670848703205, 53.2080323324964], [-105.670919129061, 53.2080319360174], [-105.671254381044, 53.2080300480665], [-105.671390226555, 53.2080698783415], [-105.671525452306, 53.2080691164051], [-105.671660996345, 53.2080886502962], [-105.671931447944, 53.2080871256552], [-105.672066991306, 53.2081066590889], [-105.67214796199, 53.208142412955], [-105.672203155443, 53.2081667844174], [-105.672278428705, 53.2081550345535], [-105.67233806469, 53.2081457255696], [-105.67253475002, 53.2081446157217], [-105.672730760463, 53.2081921417216], [-105.672934333401, 53.2081909923324], [-105.673153567257, 53.2081897541314], [-105.673592477261, 53.2082154824149], [-105.674125203926, 53.2082312666457], [-105.674713905101, 53.20825378141], [-105.674767702695, 53.2082558387425], [-105.674826423638, 53.2082534902765], [-105.675315484501, 53.2082339298045], [-105.675722941912, 53.2082504260461], [-105.675958576714, 53.2082961035007], [-105.676225533053, 53.2083416027588], [-105.676538864114, 53.2083492273179], [-105.676843141364, 53.208347634465], [-105.676918197038, 53.2083647763906], [-105.67704718345, 53.2083942353857], [-105.677444915735, 53.208443043066], [-105.677456328156, 53.2084444435189], [-105.677667141612, 53.2084703115191], [-105.678012694436, 53.2085214186874], [-105.678216258618, 53.2085872553103], [-105.678448052997, 53.2086622214571], [-105.6787767497, 53.2087664863025], [-105.678990063891, 53.2088395677155], [-105.679228391241, 53.2088946517288], [-105.679256562179, 53.2089011627672], [-105.679351930857, 53.2089296724747], [-105.680075145049, 53.2091458569424], [-105.680966849541, 53.2094734494752], [-105.681025664547, 53.2094950563975], [-105.681214762597, 53.2095585374673], [-105.683317652081, 53.2102644539762], [-105.684400199552, 53.2106264428349], [-105.684528326109, 53.21066925933], [-105.684528461126, 53.2106693041471], [-105.684683244253, 53.2084100261534], [-105.684812906368, 53.2065172596674], [-105.688001394548, 53.2076770976977], [-105.689332096731, 53.2078808515966], [-105.690316551901, 53.2080498001385], [-105.691518586689, 53.2082156066915], [-105.691518645881, 53.2082156156795], [-105.693387688265, 53.2080896462683], [-105.69507035357, 53.2083102115638], [-105.696660789236, 53.2087616189215], [-105.69747722312, 53.2088144457804], [-105.699644753624, 53.2093488233333], [-105.702051758269, 53.2098529627621], [-105.704650250311, 53.2103271396189], [-105.707004230017, 53.2105147968752], [-105.709355396659, 53.2105296940246], [-105.711084314995, 53.2106346573611], [-105.713393181044, 53.2109952825188], [-105.715754819192, 53.211643462807], [-105.717668743887, 53.2119652391888], [-105.718401012403, 53.2120883357053], [-105.720516155407, 53.2123347793102], [-105.724553653365, 53.212771131821], [-105.725673695514, 53.2128403545959], [-105.727099223278, 53.2129284438588], [-105.729252312225, 53.2125698340583], [-105.72966586818, 53.2124582451528], [-105.730016513566, 53.2123636318936], [-105.73334792853, 53.2107597547209], [-105.73578724332, 53.2103129068555], [-105.736866625037, 53.2103062584561], [-105.737226439201, 53.2103040409241], [-105.737515443568, 53.2102482592748], [-105.738613242752, 53.2100363642363], [-105.740196350091, 53.2100265712538], [-105.741241315076, 53.2099154018569], [-105.742495102614, 53.2097820056719], [-105.743562583579, 53.2095252759462], [-105.745075267437, 53.2091614530866], [-105.746463997182, 53.2090088961176], [-105.746949159877, 53.2089160113383], [-105.747002813719, 53.2048626971887], [-105.746997121694, 53.2012483314563], [-105.747020548722, 53.1967201829386], [-105.747026398026, 53.1931539858146], [-105.757163832701, 53.1931404323445], [-105.757167036547, 53.1949436454514], [-105.757167036645, 53.1949437196456], [-105.759891283436, 53.1949421642716], [-105.775064708037, 53.1949368915408], [-105.775061752314, 53.1958960386366], [-105.775156062452, 53.1962872468776], [-105.775155120475, 53.1966998720527], [-105.775059037911, 53.1966981895187], [-105.775055056864, 53.1983545246041], [-105.775490602026, 53.1983529579418], [-105.775509595143, 53.1992759454849], [-105.775047692223, 53.1992774675929], [-105.775062798369, 53.2018205162002], [-105.775095417439, 53.2036284587722], [-105.775128037706, 53.2036303260746], [-105.778521763643, 53.2038242652842], [-105.778523791559, 53.2038242878452], [-105.781183297766, 53.2038532336433], [-105.783957493157, 53.2038598089787], [-105.785709394219, 53.2037199993889], [-105.786910836095, 53.2035569815393], [-105.788318506163, 53.2033249064904], [-105.7898388981, 53.2032083513463], [-105.791406396294, 53.2029257000524], [-105.792255886417, 53.2027162625746], [-105.794107484525, 53.2024290614842], [-105.796691938132, 53.2022178220574], [-105.799028170603, 53.2021942648905], [-105.800155272204, 53.2022881449189], [-105.800577859731, 53.2023745880036], [-105.803258984486, 53.2026921123185], [-105.804802098993, 53.2026576544048], [-105.805492902265, 53.2026221297755], [-105.806346263357, 53.2026781358191], [-105.806927838, 53.2028208767101], [-105.807609002727, 53.2027686614774], [-105.808055138, 53.2026841401529], [-105.808422509923, 53.2028098925376], [-105.808944044293, 53.2029851688461], [-105.809699485189, 53.2031359667003], [-105.809699391389, 53.2031797530706], [-105.809698631076, 53.2035762794277], [-105.809694991146, 53.2052656770094], [-105.809693733465, 53.2058439357691], [-105.809693146516, 53.2061181938249], [-105.809693064842, 53.206156357163], [-105.810004406619, 53.2062150989088], [-105.810156772307, 53.2062439078918], [-105.810818970158, 53.2063525803803], [-105.81082066213, 53.206352852011], [-105.81134701227, 53.206437351396], [-105.811354423495, 53.2064386217795], [-105.811765660201, 53.2065091124377], [-105.812186185718, 53.2066089054614], [-105.81275254695, 53.2068193508176], [-105.812922782014, 53.2068664624962], [-105.813093167306, 53.2069135729072], [-105.813245233793, 53.2069262886662], [-105.813415469815, 53.2069733996363], [-105.813623278458, 53.2070437165107], [-105.814038813593, 53.207195675336], [-105.814511641828, 53.2073367237103], [-105.814851888941, 53.2074424499987], [-105.815097657661, 53.2075244602017], [-105.815114317389, 53.2075286193], [-105.815286916014, 53.2075717083352], [-105.815397269204, 53.2076293392107], [-105.815471021094, 53.2076678469133], [-105.81553160771, 53.2076994806111], [-105.815632041248, 53.2077306952103], [-105.815758293298, 53.2077699339804], [-105.815926296315, 53.2079198950993], [-105.816039251211, 53.2079780019179], [-105.816057654998, 53.2080009786397], [-105.816038636868, 53.2080008394807], [-105.816076211287, 53.2080240442958], [-105.816058692526, 53.2080444523193], [-105.816056727749, 53.2080467411339], [-105.816056113404, 53.2080695781479], [-105.816017611656, 53.2080921352719], [-105.815903115563, 53.2081026279354], [-105.815845676582, 53.2081136285882], [-105.815826192882, 53.2081363253889], [-105.815460829943, 53.2082933534769], [-105.815383907485, 53.2083270506402], [-105.81532585255, 53.2083607986272], [-105.815268645978, 53.2083603807332], [-105.815211354641, 53.2083712900866], [-105.815173317133, 53.2083710109544], [-105.815059052129, 53.2083700845463], [-105.815040032924, 53.2083699452348], [-105.814907445099, 53.2083345345936], [-105.814774776035, 53.2083106315671], [-105.814622937275, 53.2082864989654], [-105.81447101544, 53.2082737839631], [-105.814395254403, 53.2082503002836], [-105.814167572692, 53.2082141905926], [-105.814053921822, 53.2081903362414], [-105.813656614369, 53.2080841880102], [-105.813523946751, 53.2080602830359], [-105.813391593616, 53.2080134529835], [-105.813277712886, 53.2080011061201], [-105.813202801367, 53.2079433658599], [-105.813130615825, 53.207964249906], [-105.813126108613, 53.2079655538883], [-105.813065993753, 53.207946881323], [-105.813050498708, 53.2079420683252], [-105.812842454786, 53.207883258714], [-105.812697662392, 53.2078478833427], [-105.8123953828, 53.2077740302746], [-105.812333933781, 53.2077645394356], [-105.811693034523, 53.2076655500053], [-105.811460274282, 53.2076474234219], [-105.811228002481, 53.2076293344075], [-105.810999954827, 53.2076115686125], [-105.810603641362, 53.2075877822541], [-105.81011073957, 53.2075581968788], [-105.809441321858, 53.2075360476978], [-105.809329126741, 53.2075362478441], [-105.809076090682, 53.2075366988506], [-105.809028526049, 53.2075367835689], [-105.80874575636, 53.2075645024432], [-105.808608560339, 53.2076100203969], [-105.80849576585, 53.207639372397], [-105.808389346433, 53.2076494431157], [-105.808285879116, 53.2076572463735], [-105.808224957763, 53.2076582889038], [-105.808138050144, 53.207654922971], [-105.807956713521, 53.2076861773271], [-105.807834878382, 53.2076886213456], [-105.807728911842, 53.2076909576794], [-105.807661243022, 53.207691506317], [-105.807561251274, 53.207685082035], [-105.807443183369, 53.2076888487474], [-105.807417334021, 53.207691720596], [-105.807384225431, 53.2077066876162], [-105.807279305237, 53.2077487498569], [-105.807199611421, 53.2077627737629], [-105.807149080175, 53.207782892208], [-105.807075837009, 53.2078055023275], [-105.807075746204, 53.2078684197295], [-105.807075560456, 53.2080138776483], [-105.807075266964, 53.208849333195], [-105.807074008656, 53.2124971529568], [-105.806772868765, 53.212497394584], [-105.805270276772, 53.2124982531766], [-105.803767668995, 53.212499093477], [-105.800762468197, 53.2125007165868], [-105.799760659129, 53.2125012412876], [-105.798759000739, 53.2125017565561], [-105.7986008677, 53.2125018364381], [-105.798600567784, 53.2125018296693], [-105.794752063574, 53.2125037354563], [-105.791896683178, 53.2125051244263], [-105.791895633308, 53.2125050419701], [-105.788738898171, 53.2125063887845], [-105.783182219027, 53.2125085531302], [-105.78272569937, 53.2125087207886], [-105.782725553664, 53.2125336224057], [-105.782725199066, 53.2126948935966], [-105.782725152905, 53.2127449640648], [-105.782724256306, 53.213184594083], [-105.782723842193, 53.2133927447657], [-105.782723679137, 53.2134585660011], [-105.782723404964, 53.2135741530655], [-105.782722997049, 53.2137325479232], [-105.782722137295, 53.2141709365451], [-105.782721828133, 53.2143256722342], [-105.782721450992, 53.2145054615471], [-105.782720330459, 53.2150535487791], [-105.782719956616, 53.2152335180109], [-105.782719704327, 53.2153840011393], [-105.782718124356, 53.2161188900447], [-105.782717783796, 53.2162891503864], [-105.782716457048, 53.2170133045209], [-105.782716012357, 53.2171942985182], [-105.782714685632, 53.217918398226], [-105.782714245233, 53.2180996264481], [-105.782712917692, 53.2188237260523], [-105.782712474036, 53.2190047743063], [-105.782711149146, 53.2197289637655], [-105.782409956124, 53.2197290534963], [-105.782291335792, 53.2197291128697], [-105.782177208873, 53.2197291431838], [-105.782063081943, 53.21972917284], [-105.781949106552, 53.2197292913737], [-105.781834979619, 53.2197293208115], [-105.781720852694, 53.2197293506885], [-105.781606724121, 53.2197292899373], [-105.78149274781, 53.2197294080406], [-105.781378620882, 53.2197294375899], [-105.781264493942, 53.2197294664814], [-105.781150367002, 53.2197294952635], [-105.781036389962, 53.219729522954], [-105.780922264665, 53.2197296420367], [-105.78080813772, 53.2197296704912], [-105.780694010774, 53.2197296988363], [-105.780580032815, 53.2197297260964], [-105.780465756888, 53.2197297557474], [-105.78035163066, 53.219729873741], [-105.780237653611, 53.2197299006677], [-105.780123525023, 53.2197298384961], [-105.78000939808, 53.2197298667343], [-105.779899002519, 53.2197299867627], [-105.779895272759, 53.219729984285], [-105.779781295705, 53.2197300107752], [-105.779667168747, 53.219730038137], [-105.779548548391, 53.2197300953292], [-105.779302621752, 53.2197301750772], [-105.779247355273, 53.2197301770675], [-105.779089945383, 53.2197303074554], [-105.778975818418, 53.2197303341552], [-105.778861691451, 53.2197303607457], [-105.778747562861, 53.2197302978051], [-105.778633587426, 53.2197304131681], [-105.778519460455, 53.219730439431], [-105.778405333483, 53.2197304655845], [-105.77829120652, 53.2197304921773], [-105.778177228534, 53.2197305171395], [-105.778063103189, 53.2197306329357], [-105.777948976212, 53.2197306586522], [-105.777834849244, 53.219730684808], [-105.777720872166, 53.2197307093278], [-105.777606745186, 53.2197307347166], [-105.777496694901, 53.2197309402478], [-105.777492621462, 53.219730939937], [-105.777378643467, 53.2197309641354], [-105.777264514863, 53.2197308997747], [-105.777150387877, 53.2197309247264], [-105.777036262518, 53.2197310395394], [-105.776922285442, 53.219731063844], [-105.776808158452, 53.2197310884681], [-105.776694031461, 53.2197311129829], [-105.776536619898, 53.219731150028], [-105.776235428317, 53.2197313141249], [-105.776078016747, 53.2197313505643], [-105.775963889748, 53.2197313743799], [-105.775849762747, 53.2197313980862], [-105.775735784744, 53.2197314212621], [-105.775621657741, 53.21973144475], [-105.775507530736, 53.2197314681286], [-105.775393555258, 53.2197315803931], [-105.775279428261, 53.2197316041019], [-105.775165301253, 53.2197316271528], [-105.775051174243, 53.2197316500944], [-105.774937197135, 53.219731671952], [-105.774823071757, 53.2197317851942], [-105.774708943829, 53.219731807814], [-105.774594816815, 53.2197318303186], [-105.774480839701, 53.2197318517398], [-105.774366714317, 53.2197319645451], [-105.774252587299, 53.2197319867219], [-105.774138610181, 53.2197320078158], [-105.77402448316, 53.2197320297742], [-105.773910354526, 53.2197319622015], [-105.773796228211, 53.2197320739178], [-105.773682251088, 53.2197320945752], [-105.773524690491, 53.2197321286094], [-105.773223497901, 53.2197322851006], [-105.773065937297, 53.2197323185283], [-105.772951810264, 53.2197323394595], [-105.772837832219, 53.2197323593154], [-105.772723706813, 53.2197324705474], [-105.772609579777, 53.2197324911509], [-105.772495602641, 53.2197325106735], [-105.772381475602, 53.2197325310586], [-105.772267348572, 53.219732551883], [-105.772153223149, 53.2197326620201], [-105.772039245094, 53.2197326811122], [-105.771925116443, 53.2197326116383], [-105.771810989398, 53.2197326314771], [-105.771696862351, 53.2197326512066], [-105.771582886823, 53.2197327598269], [-105.771468759785, 53.2197327798866], [-105.771354632735, 53.2197327992884], [-105.771240655586, 53.2197328176109], [-105.771126529235, 53.2197329267707], [-105.771012402181, 53.2197329458448], [-105.770898275136, 53.2197329653582], [-105.770784297982, 53.2197329832442], [-105.770670170925, 53.2197330019906], [-105.770509466688, 53.2197331423472], [-105.770368080669, 53.2197331576184], [-105.770208272389, 53.2197332012478], [-105.769455364662, 53.2197333904788], [-105.769409684197, 53.2197334066708], [-105.768715336387, 53.2197335813135], [-105.768045702651, 53.2197337632812], [-105.767369926753, 53.2197338916015], [-105.767367354037, 53.2197340788012], [-105.76467722512, 53.2197348468413], [-105.762186671121, 53.2197356803859], [-105.762102020636, 53.2199163499601], [-105.762101746418, 53.2199169179355], [-105.761534238308, 53.2211252850285], [-105.761492268445, 53.2212146464314], [-105.761183116906, 53.2218731114682], [-105.759691498318, 53.2250498333854], [-105.759486080874, 53.2254871241435], [-105.759344901093, 53.2257877275558], [-105.75902673908, 53.2264654804249], [-105.758703652067, 53.2271533322209], [-105.758290848704, 53.2280319292023], [-105.758277613676, 53.2280600975828], [-105.758289004956, 53.2271531842687], [-105.758297459433, 53.2264616724547], [-105.758305828523, 53.2257822075693], [-105.758309490522, 53.2254807724251], [-105.758314928281, 53.2250424189317], [-105.758330697116, 53.2237635801387], [-105.7583537743, 53.2218911478949], [-105.758363137396, 53.221125594011], [-105.758377917624, 53.2199172097338], [-105.758380020077, 53.2197442888741], [-105.758380115742, 53.2197364206685], [-105.75807907192, 53.2197364479564], [-105.751878289089, 53.2197357256398], [-105.751604500966, 53.2197355646208], [-105.749347708588, 53.2197352128646], [-105.746234957371, 53.2197345175942], [-105.74587085741, 53.2197344600357], [-105.74587085682, 53.219734548874], [-105.745870807167, 53.2197420220685], [-105.745869655675, 53.2199153324693], [-105.745855768517, 53.2219695662115], [-105.745847298803, 53.2231890190431], [-105.745833293928, 53.2252537702778], [-105.745827083878, 53.2261722460875], [-105.745820353104, 53.2271469986756], [-105.743981534967, 53.2271450961725], [-105.743529449539, 53.2271455804573], [-105.74336269556, 53.2271457394265], [-105.74335898084, 53.2271457444884], [-105.733652794404, 53.2271398130528], [-105.733647942801, 53.2298706997408], [-105.733647492805, 53.2301510784805], [-105.733645824692, 53.2310350056792], [-105.733639822797, 53.234373303644], [-105.733338527273, 53.2343733596865], [-105.721209850781, 53.2343761655783], [-105.719637150376, 53.234376393942], [-105.715146703399, 53.2343769188741], [-105.712115121701, 53.2343771799111], [-105.709083558909, 53.2343777231027], [-105.709081461358, 53.2343777355804], [-105.708781958386, 53.2343774489438], [-105.707651653172, 53.2343782137763], [-105.706185685804, 53.2343791951995], [-105.705825028747, 53.2343791827637], [-105.705701469188, 53.2343792131498], [-105.701985108301, 53.2343816237898], [-105.69675045248, 53.234384469369], [-105.691265593154, 53.2343873681968], [-105.690734546227, 53.234387633125], [-105.689672677075, 53.2343881452561], [-105.684792648347, 53.2343904812404], [-105.684798694976, 53.2361831916824], [-105.684724751213, 53.2362037160826], [-105.684725778823, 53.23650655815], [-105.684730831839, 53.2380042913799], [-105.68473862426, 53.2403138993529], [-105.684743031205, 53.2416180340821], [-105.68475301763, 53.245224236123], [-105.684763008441, 53.2488304359784], [-105.684461458791, 53.248830280241], [-105.68438586153, 53.2488302467814], [-105.67465169213, 53.2488250000362], [-105.672458371351, 53.2488237081109], [-105.660470709977, 53.2488097924706], [-105.660169225684, 53.2488090262654], [-105.659929537525, 53.2488084115857], [-105.655890902738, 53.248798037393], [-105.64797835277, 53.2487773155038], [-105.635779997982, 53.2487406139392], [-105.635478511037, 53.2487405040505], [-105.623301087335, 53.2487353593107], [-105.618697939752, 53.2487348324437], [-105.616928394675, 53.2487345908365], [-105.611352609488, 53.2487336312953], [-105.611160740921, 53.2487335901442], [-105.610859251412, 53.2487333285766], [-105.610667411229, 53.248733160295], [-105.598749639981, 53.2487220113229], [-105.58665173714, 53.2487186830783], [-105.586651573362, 53.2488995106094], [-105.586630797426, 53.2561219253551], [-105.586633192414, 53.2574232672125], [-105.586633748225, 53.2577268197086], [-105.586644109898, 53.2633459972677], [-105.586342457952, 53.2633456830538], [-105.576126058661, 53.2633352839721], [-105.574275487809, 53.2633333066696], [-105.562208967464, 53.2633198863584], [-105.561907159485, 53.2633190617136], [-105.551419111942, 53.2632879677349], [-105.549718623718, 53.2632828393688], [-105.540212783877, 53.2632532928918], [-105.537529195801, 53.2632449252374], [-105.537529035174, 53.2590474438907], [-105.537529210482, 53.2563353264917], [-105.537529036256, 53.2560225042799], [-105.537529034535, 53.255651701665], [-105.537532216994, 53.2500583631036]]]}}, {"type": "Feature", "properties": {"district_id": "Ward 3"}, "geometry": {"type": "Polygon", "coordinates": [[[-105.718401012403, 53.2120883357053], [-105.717674433559, 53.2119661914433], [-105.718223717062, 53.2103723905725], [-105.718553414571, 53.2094145902681], [-105.721949471024, 53.2098262798252], [-105.722605982176, 53.2079082750968], [-105.723619419473, 53.2049937687637], [-105.723717889742, 53.204708718422], [-105.723990938118, 53.2039182886091], [-105.724199538917, 53.2031790546472], [-105.724453880505, 53.2022777018424], [-105.724468001938, 53.1997052399841], [-105.731969557405, 53.1996981582706], [-105.732134900727, 53.1996846562793], [-105.732273828205, 53.199670767627], [-105.73229950348, 53.1996682011186], [-105.732317621715, 53.1996660544137], [-105.732463210187, 53.1996488072312], [-105.732625883377, 53.1996264916466], [-105.733601927651, 53.199483372172], [-105.733798193933, 53.1994661141104], [-105.733995306903, 53.1994527716577], [-105.734193046804, 53.1994433596478], [-105.734330782277, 53.1994395553319], [-105.734391192293, 53.1994378875325], [-105.734456970501, 53.1994373804496], [-105.734589541408, 53.1994363601507], [-105.736617072518, 53.1994409140846], [-105.73764503316, 53.1994432100575], [-105.737645031276, 53.1994427349945], [-105.737628668745, 53.1967382066065], [-105.737626490994, 53.1931013578623], [-105.747026398026, 53.1931539858146], [-105.747020548722, 53.1967201829386], [-105.746997121694, 53.2012483314563], [-105.747002813719, 53.2048626971887], [-105.746949159877, 53.2089160113383], [-105.746463997182, 53.2090088961176], [-105.745075267437, 53.2091614530866], [-105.743562583579, 53.2095252759462], [-105.742495102614, 53.2097820056719], [-105.741241315076, 53.2099154018569], [-105.740196350091, 53.2100265712538], [-105.738613242752, 53.2100363642363], [-105.737515443568, 53.2102482592748], [-105.737226439201, 53.2103040409241], [-105.736866625037, 53.2103062584561], [-105.73578724332, 53.2103129068555], [-105.73334792853, 53.2107597547209], [-105.730016513566, 53.2123636318936], [-105.72966586818, 53.2124582451528], [-105.729252312225, 53.2125698340583], [-105.727099223278, 53.2129284438588], [-105.725673695514, 53.2128403545959], [-105.724553653365, 53.212771131821], [-105.720516155407, 53.2123347793102], [-105.718401012403, 53.2120883357053]]]}}, {"type": "Feature", "properties": {"district_id": "Ward 4"}, "geometry": {"type": "Polygon", "coordinates": [[[-105.717668750741, 53.2119652371524], [-105.715754819192, 53.211643462807], [-105.713393181044, 53.2109952825188], [-105.711084314995, 53.2106346573611], [-105.709355396659, 53.2105296940246], [-105.707004230017, 53.2105147968752], [-105.704650250311, 53.2103271396189], [-105.702051758269, 53.2098529627621], [-105.699644753624, 53.2093488233333], [-105.69747722312, 53.2088144457804], [-105.696660789236, 53.2087616189215], [-105.69507035357, 53.2083102115638], [-105.693387688265, 53.2080896462683], [-105.691518645881, 53.2082156156795], [-105.691518586689, 53.2082156066915], [-105.690316551901, 53.2080498001385], [-105.689332096731, 53.2078808515966], [-105.688001394548, 53.2076770976977], [-105.684812906368, 53.2065172596674], [-105.684812945421, 53.2065166787638], [-105.684845760592, 53.2060376257047], [-105.684895858913, 53.2053062229958], [-105.684895872667, 53.2053060221977], [-105.684895844904, 53.2053060058455], [-105.684827828442, 53.2052659433061], [-105.684728014609, 53.2052071515145], [-105.684651552321, 53.2051744309024], [-105.684413716034, 53.2050726526569], [-105.684241568363, 53.2049543711741], [-105.68423592437, 53.2049505724418], [-105.68404076599, 53.2048192190344], [-105.683782684143, 53.2046503259997], [-105.683525860703, 53.204568121221], [-105.683468934752, 53.2045499000823], [-105.683425315544, 53.2045139651536], [-105.68332516131, 53.2044314545313], [-105.683196349656, 53.2043650696392], [-105.682890493847, 53.2041921157727], [-105.682571044398, 53.2040511059053], [-105.682380279784, 53.2039499809018], [-105.68237110407, 53.2039451168032], [-105.682344108908, 53.2039186809631], [-105.688050838567, 53.2039207089875], [-105.688052084924, 53.2023580101146], [-105.688053228637, 53.2009281467833], [-105.688053307193, 53.2008227644668], [-105.688053526637, 53.2005494792213], [-105.688053743502, 53.2002704406887], [-105.688053814588, 53.2001841612349], [-105.688504998598, 53.2001423975126], [-105.688636543206, 53.2001302207643], [-105.688824123699, 53.2001116072882], [-105.688973871739, 53.20009563956], [-105.689123902709, 53.2000786900932], [-105.689254496396, 53.2000631921602], [-105.689384777728, 53.2000469683625], [-105.689533422568, 53.2000275903304], [-105.689663230695, 53.2000098491667], [-105.689774207926, 53.1999941048229], [-105.689921915326, 53.1999723044423], [-105.69006930847, 53.1999496069865], [-105.690199514195, 53.1999287168953], [-105.691735751664, 53.1996781127587], [-105.69377980032, 53.1993446454619], [-105.694133093272, 53.1992870071427], [-105.694214871594, 53.1992738198218], [-105.694261039655, 53.1992663770504], [-105.694279450806, 53.1992634924391], [-105.694389738929, 53.1992460935778], [-105.694647668594, 53.1992068080898], [-105.694795371447, 53.1991851004377], [-105.694980424132, 53.1991586806564], [-105.695184162722, 53.1991306229924], [-105.695277075538, 53.1991182149219], [-105.695462762023, 53.1990939568179], [-105.695630234758, 53.1990728701435], [-105.695798019552, 53.1990525007099], [-105.695909931148, 53.1990392800095], [-105.696059354143, 53.1990221366006], [-105.696246294567, 53.1990014477877], [-105.696377504608, 53.1989874664584], [-105.696546087375, 53.1989702016836], [-105.696546083048, 53.198969033054], [-105.696545943148, 53.1989428752046], [-105.696544476096, 53.1987969780331], [-105.696544470413, 53.1987966274698], [-105.696541807025, 53.198533682661], [-105.696554485924, 53.1985336592698], [-105.700996566153, 53.1985881202064], [-105.702050644064, 53.1986168531591], [-105.703102499138, 53.1986670060617], [-105.704150923951, 53.1987385231865], [-105.705194713593, 53.1988313209663], [-105.706232674731, 53.1989452933332], [-105.708018128817, 53.1991601552315], [-105.711059748105, 53.1995515240649], [-105.712006640883, 53.1996726381168], [-105.712959997709, 53.199773841372], [-105.713918655061, 53.1998550111976], [-105.714881446777, 53.1999160483857], [-105.715847199589, 53.1999568780786], [-105.716814736151, 53.1999774515501], [-105.717782881009, 53.1999777443713], [-105.718750451579, 53.1999577537689], [-105.719716273263, 53.1999175066241], [-105.720679165818, 53.1998570496668], [-105.723341339729, 53.1997062441615], [-105.72440435789, 53.1997052950241], [-105.724467991958, 53.1997052399932], [-105.724453880505, 53.2022777018424], [-105.724199538917, 53.2031790546472], [-105.723990938118, 53.2039182886091], [-105.723717889742, 53.204708718422], [-105.723619419473, 53.2049937687637], [-105.722605982176, 53.2079082750968], [-105.721949471024, 53.2098262798252], [-105.718553414571, 53.2094145902681], [-105.718223717062, 53.2103723905725], [-105.717674433669, 53.2119661907904], [-105.717668750741, 53.2119652371524]]]}}, {"type": "Feature", "properties": {"district_id": "Ward 5"}, "geometry": {"type": "Polygon", "coordinates": [[[-105.712959997709, 53.199773841372], [-105.712006640883, 53.1996726381168], [-105.711059748105, 53.1995515240649], [-105.708018128817, 53.1991601552315], [-105.706232674731, 53.1989452933332], [-105.705194713593, 53.1988313209663], [-105.704150923951, 53.1987385231865], [-105.703102499138, 53.1986670060617], [-105.702050644064, 53.1986168531591], [-105.700996566153, 53.1985881202064], [-105.696554485924, 53.1985336592698], [-105.696541807025, 53.198533682661], [-105.696541726951, 53.1985257772626], [-105.696104379642, 53.1985265893808], [-105.694480641669, 53.1985295620883], [-105.694467858939, 53.1985295854029], [-105.694468027744, 53.1984473769553], [-105.694468168328, 53.1983912916745], [-105.694468362566, 53.1983476838033], [-105.694468452353, 53.1982791847396], [-105.694468694329, 53.1982107742203], [-105.694468933947, 53.1981422742818], [-105.694469024649, 53.1980737752104], [-105.69446926518, 53.1980052752649], [-105.694469504799, 53.197936775324], [-105.694469595503, 53.1978682762502], [-105.694469835264, 53.1977997850855], [-105.694470357061, 53.1976190070225], [-105.694471601486, 53.1972792037034], [-105.694471763719, 53.1972244575752], [-105.694472709412, 53.1968846559748], [-105.694473230308, 53.1967038778894], [-105.694474026724, 53.1963641665619], [-105.694474188429, 53.1963093309961], [-105.694475284511, 53.1959696184483], [-105.694475953788, 53.1957887494896], [-105.694476900051, 53.1954490372367], [-105.69447706176, 53.1953942016626], [-105.694477361195, 53.195310859967], [-105.694478008034, 53.1950544893874], [-105.694478529868, 53.1948737112414], [-105.694479773432, 53.1945339077716], [-105.694479786773, 53.1944791624861], [-105.694480881441, 53.1941393598618], [-105.694481403288, 53.1939585816881], [-105.694482349607, 53.19361886988], [-105.694482661129, 53.1935640328672], [-105.694483606004, 53.1932242310641], [-105.694484125495, 53.1930433628955], [-105.69448522165, 53.1927036501621], [-105.694485383361, 53.1926488140141], [-105.694486479524, 53.1923091012584], [-105.694487000481, 53.1921283230347], [-105.694487945384, 53.1917885206014], [-105.694488108562, 53.1917337749662], [-105.694489204736, 53.1913940616098], [-105.694489372644, 53.191311918348], [-105.694489389591, 53.1913036279351], [-105.694647144538, 53.1913035175809], [-105.694648506787, 53.1913035180516], [-105.694648423879, 53.1913121804741], [-105.701193768709, 53.1913419862249], [-105.701188683167, 53.1930509108344], [-105.702873056154, 53.1930464842986], [-105.703866062359, 53.1930401620453], [-105.704202681534, 53.1930041457016], [-105.705297066088, 53.192624063431], [-105.70565299957, 53.1925434266634], [-105.705833667082, 53.1925298731156], [-105.70615849175, 53.192533770663], [-105.706294093428, 53.192536862942], [-105.706343806238, 53.1925380114267], [-105.706535115801, 53.192544602614], [-105.706566611118, 53.1925458260233], [-105.706740397175, 53.1925546845963], [-105.706902264335, 53.1925860257159], [-105.707064689475, 53.1926534500745], [-105.707154075494, 53.1926993152278], [-105.707215576776, 53.1927347233407], [-105.707332835737, 53.1928080544211], [-105.707429544432, 53.1928782218022], [-105.707574457876, 53.1929552143059], [-105.707673296815, 53.1929829068367], [-105.707862917995, 53.1920306138927], [-105.708049302337, 53.1914323540428], [-105.708146463095, 53.1911208832356], [-105.708967009416, 53.1885021661215], [-105.708607548453, 53.1885278188794], [-105.707133970825, 53.1886763616981], [-105.706753635698, 53.1886621841328], [-105.706328798854, 53.1880726930946], [-105.706316550403, 53.1880556972958], [-105.706140853448, 53.1878589760315], [-105.705948933606, 53.1877547628201], [-105.706071125486, 53.1876773650821], [-105.706509831165, 53.1874619759563], [-105.70710500276, 53.1871658619076], [-105.707946317241, 53.1871368309365], [-105.709711443081, 53.1872226510462], [-105.711911417196, 53.1874428036591], [-105.714815461136, 53.1877333311854], [-105.737623270879, 53.1877156414159], [-105.737623317765, 53.1877941348648], [-105.73762649049, 53.1931013578595], [-105.737628668745, 53.1967382066065], [-105.737645031276, 53.1994427349945], [-105.73764503316, 53.1994432100575], [-105.736617072518, 53.1994409140846], [-105.734589541408, 53.1994363601507], [-105.734456970501, 53.1994373804496], [-105.734391192293, 53.1994378875325], [-105.734330782277, 53.1994395553319], [-105.734193046804, 53.1994433596478], [-105.733995306903, 53.1994527716577], [-105.733798193933, 53.1994661141104], [-105.733601927651, 53.199483372172], [-105.732625883377, 53.1996264916466], [-105.732463210187, 53.1996488072312], [-105.732317621715, 53.1996660544137], [-105.73229950348, 53.1996682011186], [-105.732273828205, 53.199670767627], [-105.732134900727, 53.1996846562793], [-105.731969557405, 53.1996981582706], [-105.724467996964, 53.1997052369924], [-105.72440435789, 53.1997052950241], [-105.723341339729, 53.1997062441615], [-105.720679165818, 53.1998570496668], [-105.719716273263, 53.1999175066241], [-105.718750451579, 53.1999577537689], [-105.717782881009, 53.1999777443713], [-105.716814736151, 53.1999774515501], [-105.715847199589, 53.1999568780786], [-105.714881446777, 53.1999160483857], [-105.713918655061, 53.1998550111976], [-105.712959997709, 53.199773841372]]]}}, {"type": "Feature", "properties": {"district_id": "Ward 6"}, "geometry": {"type": "Polygon", "coordinates": [[[-105.701188683167, 53.1930509108344], [-105.701193768709, 53.1913419862249], [-105.694648423879, 53.1913121804741], [-105.694648506787, 53.1913035180516], [-105.694648566009, 53.1913035180721], [-105.694655249953, 53.1876933648704], [-105.694657767696, 53.1863202115387], [-105.694661859429, 53.1840831918248], [-105.694662543448, 53.1838197742588], [-105.694662563922, 53.1838118895886], [-105.694529470045, 53.1838119273337], [-105.694516658105, 53.1838119309593], [-105.694549850419, 53.1792620524033], [-105.695158268727, 53.178828003866], [-105.700858162095, 53.1788294860561], [-105.701308400204, 53.1788295331163], [-105.701308329543, 53.1788374109562], [-105.70129608311, 53.1802027284267], [-105.701298941913, 53.1802027390311], [-105.701308910279, 53.1802027480418], [-105.712057253718, 53.1802119783973], [-105.712513198448, 53.1802123089627], [-105.71579489434, 53.1802149299109], [-105.715798881859, 53.177973769668], [-105.715800324292, 53.177206519507], [-105.715800960742, 53.1768672573648], [-105.715811829133, 53.1712191745942], [-105.715867148527, 53.1712108058302], [-105.715913690714, 53.1712036765591], [-105.715959068148, 53.171196625597], [-105.71598725351, 53.171192096479], [-105.716050811244, 53.1711817182721], [-105.716097225241, 53.171174022926], [-105.716124062675, 53.1711694300031], [-105.716178871082, 53.1711600480338], [-105.716188536904, 53.1711583269098], [-105.716194789992, 53.1711572103647], [-105.716261475593, 53.1711453030273], [-105.716288174584, 53.1711404590613], [-105.716315869466, 53.1711352678296], [-105.716406590289, 53.1711182622372], [-105.716415090454, 53.1711166199805], [-105.716478882126, 53.1711041277677], [-105.716505259056, 53.1710988094467], [-105.71651809434, 53.1710962146385], [-105.716559248266, 53.1710878948628], [-105.716604856181, 53.1710785235987], [-105.716631155343, 53.1710730883027], [-105.716658659807, 53.1710672150455], [-105.716738471982, 53.1710501310766], [-105.716748161002, 53.1710479966208], [-105.71680975072, 53.1710343932594], [-105.716819408552, 53.1710321958887], [-105.716898576267, 53.1710141450974], [-105.716908233038, 53.1710118846291], [-105.71696941903, 53.1709974030032], [-105.717031930612, 53.170982580874], [-105.717039961519, 53.1709806176834], [-105.717102240658, 53.1709653294516], [-105.717110285123, 53.1709633036264], [-105.717197912681, 53.170941156381], [-105.717337333243, 53.1709047193353], [-105.717458715497, 53.1708720761702], [-105.71757948513, 53.1708386272865], [-105.71770872568, 53.1708018012197], [-105.718573894048, 53.1705520744361], [-105.719629625024, 53.1702475239763], [-105.719960290735, 53.1701521262001], [-105.723166080555, 53.1692269379225], [-105.727645502857, 53.1691846472267], [-105.727653330385, 53.1691925706363], [-105.727713385115, 53.1692533608771], [-105.727831008641, 53.1693706728076], [-105.72792015833, 53.1694584038084], [-105.727989973938, 53.1695263861821], [-105.728141281669, 53.1696715387534], [-105.728233105838, 53.1697581744893], [-105.728325674458, 53.1698445356577], [-105.728429470856, 53.1699401773983], [-105.728513192069, 53.1700164344836], [-105.728597507027, 53.1700924184823], [-105.728692898543, 53.1701775934354], [-105.72876777087, 53.1702436570001], [-105.728853870404, 53.1703189105952], [-105.728951494905, 53.1704033529228], [-105.729049861437, 53.1704874307027], [-105.729137892019, 53.1705618629882], [-105.729237745034, 53.1706453027404], [-105.729326964072, 53.1707191882699], [-105.729428152922, 53.1708019903612], [-105.729530086252, 53.1708845178625], [-105.729632760722, 53.1709666813594], [-105.729713131807, 53.171030372774], [-105.729817142993, 53.1711118986012], [-105.72988673092, 53.1711661277955], [-105.730015425733, 53.171265121029], [-105.730192590193, 53.1713992357332], [-105.730287899422, 53.1714703865076], [-105.730395771714, 53.1715500901737], [-105.730516504234, 53.1716382548934], [-105.730625861605, 53.1717172299403], [-105.730694465453, 53.1717662507071], [-105.73313078069, 53.1735034374449], [-105.733163354482, 53.1735266625181], [-105.733178536622, 53.1735375528886], [-105.733236663784, 53.1735792482817], [-105.733297109853, 53.1736232837357], [-105.733299006634, 53.1736232845733], [-105.73330987131, 53.1736311599188], [-105.733579119544, 53.1738731141946], [-105.733908065705, 53.1741476973794], [-105.734221316556, 53.1744288298637], [-105.734518511794, 53.1747161867783], [-105.734799308928, 53.1750094368489], [-105.735063381812, 53.175308244202], [-105.735310429536, 53.1756122629162], [-105.735540166041, 53.1759211424786], [-105.735752324647, 53.1762345295548], [-105.735946662412, 53.1765520607695], [-105.73612295431, 53.1768733717316], [-105.736280997624, 53.1771980916125], [-105.73642060902, 53.1775258467598], [-105.736541627525, 53.1778562597798], [-105.736643913036, 53.1781889495455], [-105.736727347844, 53.1785235329858], [-105.73679183664, 53.1788596250842], [-105.736837302014, 53.1791968380084], [-105.736863691982, 53.1795347837594], [-105.736870976868, 53.1798730679689], [-105.736859146878, 53.1802113150394], [-105.73739021259, 53.1803844289254], [-105.737679171081, 53.1850393685913], [-105.737623270881, 53.1877156373584], [-105.714815461136, 53.1877333311854], [-105.711911417196, 53.1874428036591], [-105.709711443081, 53.1872226510462], [-105.707946317241, 53.1871368309365], [-105.70710500276, 53.1871658619076], [-105.706509831165, 53.1874619759563], [-105.706071125486, 53.1876773650821], [-105.705948933606, 53.1877547628201], [-105.706140853448, 53.1878589760315], [-105.706316550403, 53.1880556972958], [-105.706328798854, 53.1880726930946], [-105.706753635698, 53.1886621841328], [-105.707133970825, 53.1886763616981], [-105.708607548453, 53.1885278188794], [-105.708967009416, 53.1885021661215], [-105.708146463095, 53.1911208832356], [-105.708049302337, 53.1914323540428], [-105.707862917995, 53.1920306138927], [-105.707673296815, 53.1929829068367], [-105.707574457876, 53.1929552143059], [-105.707429544432, 53.1928782218022], [-105.707332835737, 53.1928080544211], [-105.707215576776, 53.1927347233407], [-105.707154075494, 53.1926993152278], [-105.707064689475, 53.1926534500745], [-105.706902264335, 53.1925860257159], [-105.706740397175, 53.1925546845963], [-105.706566611118, 53.1925458260233], [-105.706535115801, 53.192544602614], [-105.706343806238, 53.1925380114267], [-105.706294093428, 53.192536862942], [-105.70615849175, 53.192533770663], [-105.705833667082, 53.1925298731156], [-105.70565299957, 53.1925434266634], [-105.705297066088, 53.192624063431], [-105.704202681534, 53.1930041457016], [-105.703866062359, 53.1930401620453], [-105.702873056154, 53.1930464842986], [-105.701188683167, 53.1930509108344]]]}}, {"type": "Feature", "properties": {"district_id": "Ward 7"}, "geometry": {"type": "Polygon", "coordinates": [[[-105.737679171004, 53.1850393663452], [-105.73739021259, 53.1803844289254], [-105.736859146878, 53.1802113150394], [-105.736870976868, 53.1798730679689], [-105.736863691982, 53.1795347837594], [-105.736837302014, 53.1791968380084], [-105.73679183664, 53.1788596250842], [-105.736727347844, 53.1785235329858], [-105.736643913036, 53.1781889495455], [-105.736541627525, 53.1778562597798], [-105.73642060902, 53.1775258467598], [-105.736280997624, 53.1771980916125], [-105.73612295431, 53.1768733717316], [-105.735946662412, 53.1765520607695], [-105.735752324647, 53.1762345295548], [-105.735540166041, 53.1759211424786], [-105.735310429536, 53.1756122629162], [-105.735063381812, 53.175308244202], [-105.734799308928, 53.1750094368489], [-105.734518511794, 53.1747161867783], [-105.734221316556, 53.1744288298637], [-105.733908065705, 53.1741476973794], [-105.733579119544, 53.1738731141946], [-105.73330987131, 53.1736311599188], [-105.733299006634, 53.1736232845733], [-105.734455269057, 53.1736237895385], [-105.734567225592, 53.1736238454115], [-105.737461160076, 53.1736251756286], [-105.737474850069, 53.1722423448168], [-105.737508696068, 53.172061179045], [-105.73746247054, 53.1707700512209], [-105.737439557351, 53.1701229576501], [-105.737409267459, 53.1692724799045], [-105.737403453483, 53.1691078303389], [-105.737571893282, 53.1691075067985], [-105.738017230165, 53.1691067258818], [-105.748469383835, 53.1690874450328], [-105.749545399661, 53.1690854437698], [-105.75252811323, 53.1690797082696], [-105.753506144843, 53.1690778046263], [-105.753506222244, 53.169085702372], [-105.753508804613, 53.1693491956708], [-105.753519109053, 53.170338754674], [-105.753522095157, 53.170633866391], [-105.753548564254, 53.1732495115071], [-105.753551500474, 53.1735109944047], [-105.753560716766, 53.1744297413251], [-105.753573405179, 53.1744297182121], [-105.754239202235, 53.1744285035119], [-105.754539917846, 53.1744278577977], [-105.754539885475, 53.1744357553559], [-105.754538359576, 53.1748080285379], [-105.754551160823, 53.1748080045427], [-105.754551128453, 53.1748159016192], [-105.754515989389, 53.1779099925351], [-105.754497585116, 53.1795304858858], [-105.756998134597, 53.1795279226138], [-105.757002997104, 53.1822694753538], [-105.757144558328, 53.1822683168695], [-105.757163831938, 53.1931404238941], [-105.747026398026, 53.1931539858146], [-105.737626490994, 53.1931013578623], [-105.737623317765, 53.1877941348648], [-105.737623270881, 53.1877156396268], [-105.737679171004, 53.1850393663452]]]}}, {"type": "Feature", "properties": {"district_id": "Ward 8"}, "geometry": {"type": "Polygon", "coordinates": [[[-105.757163835686, 53.1931404275295], [-105.757144558328, 53.1822683168695], [-105.757002997104, 53.1822694753538], [-105.756998134597, 53.1795279226138], [-105.754497585116, 53.1795304858858], [-105.754515989389, 53.1779099925351], [-105.754551128453, 53.1748159016192], [-105.754551160823, 53.1748080045427], [-105.755626936363, 53.1748059831541], [-105.757369684725, 53.1748066020282], [-105.759952515565, 53.1748062438247], [-105.760252845648, 53.1748090021657], [-105.760511127047, 53.1748113988783], [-105.760742302263, 53.1748123495633], [-105.761611044544, 53.1748160847649], [-105.762063370711, 53.1748180192085], [-105.762057533147, 53.1742690745047], [-105.762050777625, 53.173617656904], [-105.762047100888, 53.1732750948822], [-105.762044285111, 53.1730064198661], [-105.762160678085, 53.1730061608015], [-105.762274677035, 53.173005916394], [-105.762693121325, 53.1730049910086], [-105.763576388981, 53.1730030453959], [-105.764912210029, 53.1730000843582], [-105.765375326465, 53.1729990514351], [-105.768336965375, 53.1729926342964], [-105.774021944346, 53.172979895416], [-105.774172446424, 53.17297954673], [-105.774286296357, 53.172979346113], [-105.77440029532, 53.1729790544366], [-105.774514145248, 53.1729788536019], [-105.774628143293, 53.1729785617134], [-105.774742142956, 53.172978359687], [-105.774855991257, 53.1729780685544], [-105.775881536562, 53.1729760679536], [-105.775995534577, 53.1729757747566], [-105.776109385387, 53.1729755723913], [-105.776223383397, 53.1729752789762], [-105.776337383028, 53.1729750754233], [-105.776451231303, 53.1729747833147], [-105.77656523093, 53.1729745795437], [-105.776679230555, 53.1729743756637], [-105.776793079726, 53.1729740826738], [-105.77703005581, 53.1729737057952], [-105.778458785075, 53.1729707598373], [-105.780012687456, 53.1729674720764], [-105.78021766173, 53.1729670369699], [-105.780216472074, 53.1729993823461], [-105.780215513174, 53.1729993822279], [-105.780345140694, 53.1876323036834], [-105.780389908802, 53.1926822529727], [-105.78039574824, 53.1938502469646], [-105.780258286914, 53.1941318025722], [-105.780080359863, 53.1943660556911], [-105.779520827218, 53.1948175716688], [-105.779447990963, 53.1948744231986], [-105.779159176371, 53.1951094002369], [-105.778909787594, 53.1953346035829], [-105.778898860195, 53.1953494105016], [-105.778898815994, 53.1953494707307], [-105.77876057493, 53.1955367951314], [-105.778592577858, 53.1957733587193], [-105.778522345622, 53.1961090958428], [-105.778488699108, 53.1962699430733], [-105.775156062527, 53.1962872433318], [-105.775061752312, 53.1958960383499], [-105.775064708037, 53.1949368915408], [-105.759891283436, 53.1949421642716], [-105.757167036645, 53.1949437196456], [-105.757167036547, 53.1949436454514], [-105.757163835686, 53.1931404275295]]]}}]}