{"type":"FeatureCollection","features":[{"type":"Feature","id":1,"geometry":{"type":"Polygon","coordinates":[[[-80.571436421,43.446226531],[-80.5711185169999,43.446334601],[-80.571341035,43.446555017],[-80.571375541,43.4465864210001],[-80.5715555629999,43.4467581330001],[-80.571775295,43.4469851710001],[-80.5720102719999,43.447230183],[-80.572248026,43.447517761],[-80.572360675,43.4476727250001],[-80.572473897,43.447858022],[-80.572567077,43.4480475350001],[-80.5726333659999,43.4482381610001],[-80.5726966129999,43.448424296],[-80.572753507,43.448639525],[-80.572792067,43.4488390060001],[-80.572800028,43.4490182160001],[-80.572795583,43.4492130580001],[-80.572781678,43.4494414600001],[-80.572755667,43.44964294],[-80.572739476,43.4497593460001],[-80.572698504,43.449902536],[-80.5726607939999,43.450018862],[-80.5725890159999,43.4501708980001],[-80.572405052,43.450537528],[-80.572115015,43.4511232570001],[-80.572014888,43.4513714940001],[-80.5719490179999,43.4515571470001],[-80.571895507,43.4517338860001],[-80.571848003,43.4519308060001],[-80.571822082,43.4521188480001],[-80.571814575,43.452311438],[-80.571825308,43.452533213],[-80.571845169,43.4527684610001],[-80.571859869,43.452863705],[-80.571874569,43.452958949],[-80.571931322,43.453194335],[-80.572000579,43.453400651],[-80.572076142,43.4535845930001],[-80.572173274,43.4537618960001],[-80.572279723,43.4539257960001],[-80.57240473,43.454074087],[-80.572542019,43.454224663],[-80.5727252519999,43.454400048],[-80.572966568,43.4546226840001],[-80.5734400439999,43.4550589620001],[-80.573777179,43.4553794240001],[-80.576054147,43.457524505],[-80.576228513,43.4576887630001],[-80.578514538,43.459842279],[-80.5785835519999,43.4599072230001],[-80.578669694,43.459988535],[-80.5787837249999,43.460095773],[-80.578942271,43.4602409290001],[-80.579027181,43.460318656],[-80.580790257,43.4619327],[-80.580905649,43.4620383280001],[-80.5810327309999,43.462156545],[-80.5807358659999,43.4623218720001],[-80.580129692,43.4626730300001],[-80.580043156,43.4627213430001],[-80.5799520479999,43.462768532],[-80.579860959,43.4628135660001],[-80.579767207,43.4628555990001],[-80.579670977,43.4628945470001],[-80.579572459,43.4629303340001],[-80.5795261809999,43.462946237],[-80.579356498,43.463004561],[-80.578123023,43.4634397520001],[-80.574337272,43.4647763900001],[-80.573714519,43.4649962410001],[-80.5736472849999,43.4650199910001],[-80.573278444,43.4651357640001],[-80.572495236,43.465381586],[-80.570637384,43.4660326960001],[-80.570061537,43.4662484150001],[-80.569264515,43.4665469760001],[-80.568580149,43.4668033510001],[-80.568431231,43.4668591350001],[-80.568046634,43.4669942150001],[-80.5680323669999,43.4669992410001],[-80.5666122169999,43.467498058],[-80.5661900169999,43.4676462830001],[-80.565910377,43.4673464890001],[-80.565646549,43.467090641],[-80.565317979,43.4667524320001],[-80.564989372,43.4664197000001],[-80.564473993,43.465908187],[-80.563980814,43.465448807],[-80.5637866559999,43.465250821],[-80.5635588659999,43.4650225710001],[-80.5633461419999,43.46479164],[-80.563144742,43.4645552710001],[-80.562973471,43.464313539],[-80.562798302,43.4640909680001],[-80.562563532,43.4637887230001],[-80.56222795,43.4633847280001],[-80.561840154,43.462920264],[-80.561523208,43.4625409940001],[-80.561247298,43.4622084530001],[-80.560866112,43.461757968],[-80.560411839,43.461221541],[-80.560168497,43.460941313],[-80.559673582,43.460353126],[-80.559110032,43.459677895],[-80.5588442169999,43.4593672980001],[-80.5575294069999,43.457803971],[-80.5575049,43.4577748410001],[-80.556437897,43.4562338160001],[-80.5561595519999,43.455831792],[-80.555783724,43.4552855520001],[-80.5557813839999,43.4552821410001],[-80.555321471,43.4546136590001],[-80.555166693,43.4543998340001],[-80.5550203459999,43.4542175610001],[-80.554812102,43.453972885],[-80.554571236,43.4537017820001],[-80.554356432,43.4534570800001],[-80.5540194879999,43.453086383],[-80.553682549,43.4527156830001],[-80.553223476,43.452218986],[-80.552667054,43.4515736750001],[-80.552286244,43.4511466160001],[-80.551827582,43.4505973180001],[-80.5515738289999,43.450297468],[-80.551277947,43.4499257270001],[-80.5509657859999,43.4495371850001],[-80.5504940929999,43.448978266],[-80.5494663759999,43.4477309850001],[-80.548767058,43.446896216],[-80.548497176,43.4465628240001],[-80.5478760139999,43.4458120360001],[-80.547719829,43.445634496],[-80.547583049,43.445495287],[-80.547477171,43.4454017670001],[-80.547359059,43.445292222],[-80.547235692,43.445185796],[-80.5471072239999,43.4450826240001],[-80.546973819,43.444982834],[-80.546835643,43.4448865530001],[-80.54669287,43.4447939],[-80.54654568,43.444704992],[-80.546394257,43.444619942],[-80.546240838,43.444539923],[-80.545589174,43.444212351],[-80.54518627,43.444013016],[-80.5450067209999,43.4439134560001],[-80.545105797,43.44372222],[-80.545173629,43.443591301],[-80.545229917,43.443482655],[-80.5452640349999,43.443416799],[-80.545766798,43.4424463550001],[-80.5458047449999,43.442373113],[-80.545857982,43.442276711],[-80.545916913,43.442182014],[-80.5459491569999,43.442135636],[-80.545981403,43.44208926],[-80.546024018,43.442032936],[-80.546102207,43.441937947],[-80.5461863049999,43.4418456770001],[-80.546276137,43.4417563220001],[-80.546371512,43.441670071],[-80.546377327,43.441665071],[-80.5464418019999,43.441611444],[-80.5465084209999,43.441559227],[-80.5465908799999,43.4414986460001],[-80.5466762299999,43.441440228],[-80.546742345,43.4413977],[-80.546855668,43.4413298760001],[-80.5469730089999,43.4412657820001],[-80.5470941359999,43.4412055430001],[-80.547218812,43.44114928],[-80.5473467909999,43.4410971020001],[-80.5474778179999,43.441049112],[-80.5487526649999,43.4406078000001],[-80.549211159,43.4404511120001],[-80.549418698,43.4403866870001],[-80.549628759,43.4403267590001],[-80.549841159,43.4402713810001],[-80.5499852739999,43.440236715],[-80.5500583959999,43.4402200070001],[-80.550246605,43.4401796770001],[-80.550282258,43.4401723280001],[-80.550405908,43.4401457160001],[-80.550609518,43.4400982870001],[-80.550811104,43.44004647],[-80.551010489,43.439990311],[-80.551207494,43.4399298600001],[-80.551401949,43.4398651700001],[-80.551730634,43.439750464],[-80.552478176,43.439491418],[-80.553225712,43.439232368],[-80.553533723,43.43912563],[-80.5536188089999,43.439096148],[-80.5538682599999,43.439009577],[-80.555141993,43.4385675190001],[-80.555222106,43.438539715],[-80.55531132,43.4385087520001],[-80.555312226,43.4385084410001],[-80.555528661,43.43843423],[-80.555706196,43.438373359],[-80.555823571,43.438333114],[-80.555871665,43.438316623],[-80.5559399219999,43.4382932180001],[-80.556028103,43.438262981],[-80.5561162779999,43.4382327500001],[-80.5561257369999,43.438229506],[-80.556204462,43.4382025140001],[-80.5562926329999,43.438172282],[-80.556367404,43.438146644],[-80.5563808159999,43.438142043],[-80.556394228,43.4381374430001],[-80.5564689879999,43.4381118100001],[-80.556557174,43.438081572],[-80.556717818,43.438026488],[-80.557925785,43.4376122730001],[-80.5579305479999,43.4376106400001],[-80.558155103,43.4375336370001],[-80.558210983,43.4375144740001],[-80.5583233679999,43.4374759340001],[-80.558328132,43.4374743000001],[-80.5585743729999,43.4373898590001],[-80.559515603,43.4370670860001],[-80.5595994239999,43.4370383420001],[-80.5596191069999,43.437031592],[-80.559683246,43.437009597],[-80.5597345259999,43.4369920090001],[-80.5597431909999,43.436989037],[-80.5598833399999,43.4369407740001],[-80.560167427,43.436843331],[-80.560422559,43.436755756],[-80.5609480649999,43.4365754930001],[-80.561307158,43.436452311],[-80.561456479,43.4364010890001],[-80.5618082139999,43.4362804300001],[-80.562146146,43.436164504],[-80.562388745,43.4360812800001],[-80.562555812,43.436023968],[-80.5629343099999,43.435894123],[-80.563159544,43.435816855],[-80.563898866,43.4355632200001],[-80.564590505,43.4353243300001],[-80.565272576,43.4350885150001],[-80.5661831959999,43.4347736730001],[-80.567160335,43.434430214],[-80.5683323539999,43.434018236],[-80.569193319,43.4337155860001],[-80.569999673,43.433440003],[-80.570717508,43.433196686],[-80.571631941,43.432886668],[-80.572206592,43.4326918370001],[-80.57291079,43.4324530800001],[-80.5734580339999,43.432267532],[-80.573837151,43.4326138820001],[-80.5747697419999,43.433465848],[-80.575854355,43.4344567380001],[-80.577393085,43.4358625450001],[-80.57856929,43.436935115],[-80.5797017149999,43.437967251],[-80.58079653,43.4389581620001],[-80.582301316,43.440318914],[-80.583209306,43.4411399840001],[-80.584052486,43.4419009120001],[-80.583943926,43.441933066],[-80.5837308019999,43.4420010090001],[-80.583488007,43.4420809700001],[-80.583241505,43.442162265],[-80.5807662289999,43.443033567],[-80.5721622089999,43.445979799],[-80.5717993169999,43.4461031660001],[-80.571575076,43.4461793950001],[-80.57148366,43.4462104720001],[-80.571436421,43.446226531]]]},"properties":{"OBJECTID":1,"WARD_NAME":"SOUTHWEST WARD","WARD_NO":1,"WARD":"WARD 1","COUNCILLOR":"Sandra Hanmer","OFFICE":"519-747-8784","FAX":"519-747-8500","HOME":null,"MOBILE":null,"EMAIL":"sandra.hanmer@waterloo.ca","WEBSITE":"https://www.waterloo.ca/en/government/city-council.aspx#Ward-1-councillor--","IMAGE_URL":"https://www.waterloo.ca/en/government/resources/Images/Council-2019-2022/Sandra-Hanmer.jpg","AREA_M":6229272.58268476,"Shape__Area":0.00069320312763920811,"Shape__Length":0.1276602148517901}},{"type":"Feature","id":2,"geometry":{"type":"Polygon","coordinates":[[[-80.625976139,43.479692046],[-80.6247472969999,43.480135906],[-80.620539427,43.4816465740001],[-80.619923816,43.4818675650001],[-80.6167763509999,43.4829834600001],[-80.615616232,43.4834095430001],[-80.614307936,43.483889768],[-80.613116426,43.484299832],[-80.6113432129999,43.4849335760001],[-80.6109990699999,43.485057613],[-80.609083278,43.4857462150001],[-80.605512015,43.487005072],[-80.604401804,43.487402419],[-80.603117455,43.4878568170001],[-80.601208808,43.4885545560001],[-80.599263574,43.489260718],[-80.597677354,43.489836584],[-80.597224161,43.4900009510001],[-80.5970561079999,43.4900621130001],[-80.5946257269999,43.4909175240001],[-80.592938335,43.491513136],[-80.592204134,43.4917675890001],[-80.5919340359999,43.4906400940001],[-80.591774683,43.489920333],[-80.591609794,43.4891691190001],[-80.5914086829999,43.4881777460001],[-80.5910966549999,43.4877984500001],[-80.590505767,43.4869156180001],[-80.591219193,43.4866640970001],[-80.586811413,43.4826392700001],[-80.586501152,43.4823547460001],[-80.585851754,43.48175919],[-80.585727258,43.4816279120001],[-80.585601222,43.481459231],[-80.583323821,43.4780898590001],[-80.582012479,43.476149564],[-80.581968945,43.476087084],[-80.581880209,43.475966344],[-80.580957601,43.4747344990001],[-80.580887734,43.474630425],[-80.580823486,43.474514275],[-80.5806907469999,43.4742950630001],[-80.580636049,43.4741991070001],[-80.580601972,43.474123386],[-80.58057905,43.474035611],[-80.580569996,43.473943854],[-80.5805777589999,43.4738219210001],[-80.580595294,43.4736879280001],[-80.580601971,43.4735861630001],[-80.58059392,43.473486333],[-80.580565624,43.473375354],[-80.58052197,43.4732834710001],[-80.580467182,43.4732006180001],[-80.5803902919999,43.4731116360001],[-80.580233592,43.472955837],[-80.580167753,43.4728699190001],[-80.5801186689999,43.4727628960001],[-80.580068223,43.472652845],[-80.580017727,43.4725498490001],[-80.5798952069999,43.472301572],[-80.5798502339999,43.472166701],[-80.579709759,43.472235164],[-80.579615038,43.472251736],[-80.5795155599999,43.472276525],[-80.579408687,43.472309464],[-80.5793116949999,43.4723493560001],[-80.579141942,43.4724216830001],[-80.578800669,43.472571988],[-80.578216031,43.472824534],[-80.577770839,43.4730165890001],[-80.577252017,43.4732410720001],[-80.5767626379999,43.4734530850001],[-80.5762671849999,43.4736688460001],[-80.57575615,43.4738895770001],[-80.5752546369999,43.4741065690001],[-80.574792235,43.474287229],[-80.574261297,43.474512282],[-80.5739780819999,43.474630717],[-80.5738577229999,43.474676806],[-80.5737547639999,43.4747047230001],[-80.573635429,43.474728176],[-80.573473752,43.4747552440001],[-80.573240385,43.47478456],[-80.573051966,43.474807754],[-80.5722477259999,43.4749063360001],[-80.572185266,43.4745412080001],[-80.572154542,43.4743568470001],[-80.572126294,43.4741997040001],[-80.5720971279999,43.4740267700001],[-80.5720679619999,43.473895165],[-80.572031255,43.4737662700001],[-80.571994431,43.4736538110001],[-80.571938916,43.473524846],[-80.5718757619999,43.4734122900001],[-80.571801304,43.47330243],[-80.571715581,43.4731897890001],[-80.571637284,43.473090873],[-80.5715551879999,43.472997422],[-80.571454323,43.472898421],[-80.5713309669999,43.4727883780001],[-80.5705871709999,43.4721144050001],[-80.569761145,43.4713688900001],[-80.569454476,43.4711184400001],[-80.5691291379999,43.4708487410001],[-80.5690206789999,43.470760668],[-80.568930931,43.470686363],[-80.5688262739999,43.4705928240001],[-80.568744107,43.470510328],[-80.568658296,43.4704113820001],[-80.568434328,43.470169459],[-80.56813952,43.4698396050001],[-80.5677701509999,43.4694163230001],[-80.5671136889999,43.468638555],[-80.5661900169999,43.4676462830001],[-80.5666122169999,43.467498058],[-80.5680323669999,43.4669992410001],[-80.568046634,43.4669942150001],[-80.568431231,43.4668591350001],[-80.568580149,43.4668033510001],[-80.569264515,43.4665469760001],[-80.570061537,43.4662484150001],[-80.570637384,43.4660326960001],[-80.572495236,43.465381586],[-80.573278444,43.4651357640001],[-80.5736472849999,43.4650199910001],[-80.573714519,43.4649962410001],[-80.574337272,43.4647763900001],[-80.578123023,43.4634397520001],[-80.579356498,43.463004561],[-80.5795261809999,43.462946237],[-80.579572459,43.4629303340001],[-80.579670977,43.4628945470001],[-80.579767207,43.4628555990001],[-80.579860959,43.4628135660001],[-80.5799520479999,43.462768532],[-80.580043156,43.4627213430001],[-80.580129692,43.4626730300001],[-80.5807358659999,43.4623218720001],[-80.5810327309999,43.462156545],[-80.580905649,43.4620383280001],[-80.580790257,43.4619327],[-80.579027181,43.460318656],[-80.578942271,43.4602409290001],[-80.5787837249999,43.460095773],[-80.578669694,43.459988535],[-80.5785835519999,43.4599072230001],[-80.578514538,43.459842279],[-80.576228513,43.4576887630001],[-80.576054147,43.457524505],[-80.573777179,43.4553794240001],[-80.5734400439999,43.4550589620001],[-80.572966568,43.4546226840001],[-80.5727252519999,43.454400048],[-80.572542019,43.454224663],[-80.57240473,43.454074087],[-80.572279723,43.4539257960001],[-80.572173274,43.4537618960001],[-80.572076142,43.4535845930001],[-80.572000579,43.453400651],[-80.571931322,43.453194335],[-80.571874569,43.452958949],[-80.571859869,43.452863705],[-80.571845169,43.4527684610001],[-80.571825308,43.452533213],[-80.571814575,43.452311438],[-80.571822082,43.4521188480001],[-80.571848003,43.4519308060001],[-80.571895507,43.4517338860001],[-80.5719490179999,43.4515571470001],[-80.572014888,43.4513714940001],[-80.572115015,43.4511232570001],[-80.572405052,43.450537528],[-80.5725890159999,43.4501708980001],[-80.5726607939999,43.450018862],[-80.572698504,43.449902536],[-80.572739476,43.4497593460001],[-80.572755667,43.44964294],[-80.572781678,43.4494414600001],[-80.572795583,43.4492130580001],[-80.572800028,43.4490182160001],[-80.572792067,43.4488390060001],[-80.572753507,43.448639525],[-80.5726966129999,43.448424296],[-80.5726333659999,43.4482381610001],[-80.572567077,43.4480475350001],[-80.572473897,43.447858022],[-80.572360675,43.4476727250001],[-80.572248026,43.447517761],[-80.5720102719999,43.447230183],[-80.571775295,43.4469851710001],[-80.5715555629999,43.4467581330001],[-80.571375541,43.4465864210001],[-80.571299935,43.4465143050001],[-80.5711185169999,43.446334601],[-80.5717993169999,43.4461031660001],[-80.5721622089999,43.445979799],[-80.5807662289999,43.443033567],[-80.583241505,43.442162265],[-80.583488007,43.4420809700001],[-80.5837308019999,43.4420010090001],[-80.5837435779999,43.442001055],[-80.584052486,43.4419009120001],[-80.5853513769999,43.4430794300001],[-80.586251921,43.443896927],[-80.587109158,43.444675085],[-80.5876397,43.4451566710001],[-80.5891216219999,43.4465017960001],[-80.590089553,43.4473803340001],[-80.5912181689999,43.4484062920001],[-80.592830052,43.4498734950001],[-80.593949589,43.4508919990001],[-80.594997045,43.4518448860001],[-80.5961283939999,43.4528682260001],[-80.5969993639999,43.453655575],[-80.5982471359999,43.4547835020001],[-80.599498089,43.455914249],[-80.600660379,43.4569649470001],[-80.602500939,43.458628688],[-80.6038944109999,43.4598882160001],[-80.605090422,43.46096921],[-80.606366811,43.4621227970001],[-80.607035359,43.4627233360001],[-80.608187782,43.4637566810001],[-80.60942937,43.464869929],[-80.6114679299999,43.4666960850001],[-80.6123456129999,43.467482321],[-80.612906483,43.4679847410001],[-80.613677577,43.4686754530001],[-80.615120733,43.4699681230001],[-80.6163977269999,43.471110595],[-80.6175658069999,43.4721541420001],[-80.618211429,43.4727309620001],[-80.618966497,43.473405546],[-80.6203953529999,43.474684623],[-80.6209333199999,43.4751670690001],[-80.622002718,43.4761261630001],[-80.622651501,43.476708354],[-80.62309793,43.477108953],[-80.623787223,43.477727805],[-80.624160886,43.478063127],[-80.624767936,43.4786078770001],[-80.6254398739999,43.4792108400001],[-80.625976139,43.479692046]]]},"properties":{"OBJECTID":2,"WARD_NAME":"NORTHWEST WARD","WARD_NO":2,"WARD":"WARD 2","COUNCILLOR":"Royce Bodaly","OFFICE":"519-747-8784","FAX":"519-747-8500","HOME":null,"MOBILE":null,"EMAIL":"royce.bodaly@waterloo.ca","WEBSITE":"https://www.waterloo.ca/en/government/city-council.aspx#Ward-2-councillor--","IMAGE_URL":"https://www.waterloo.ca/en/government/resources/Images/Council-2019-2022/Royce.jpg","AREA_M":12268901.0449086,"Shape__Area":0.0013657442050316604,"Shape__Length":0.18479991792972927}},{"type":"Feature","id":3,"geometry":{"type":"Polygon","coordinates":[[[-80.5711595939999,43.4992006140001],[-80.5668539709999,43.5007312970001],[-80.564425993,43.5015932630001],[-80.561286616,43.5027077460001],[-80.557020655,43.5042202320001],[-80.5552021089999,43.504866894],[-80.5524401,43.5058527800001],[-80.550123486,43.506680196],[-80.548823678,43.507143087],[-80.547366665,43.507660887],[-80.546913191,43.5078220390001],[-80.546373306,43.5080143330001],[-80.546131863,43.5081004670001],[-80.5459567999999,43.507793146],[-80.545745733,43.507456394],[-80.545383982,43.50686919],[-80.545255687,43.506666513],[-80.54384334,43.504435218],[-80.543171676,43.503345772],[-80.542870176,43.50286707],[-80.542033579,43.501533948],[-80.54090676,43.499752695],[-80.5401644889999,43.498564297],[-80.5398404319999,43.4980494060001],[-80.539542377,43.497626231],[-80.539198714,43.497183439],[-80.5388731369999,43.496829172],[-80.5385592,43.4965312410001],[-80.538184155,43.4962049170001],[-80.537789943,43.495892396],[-80.537331266,43.495566845],[-80.536913484,43.4953114100001],[-80.536461597,43.4950625020001],[-80.536020961,43.4948386230001],[-80.535511755,43.494606135],[-80.53497569,43.494395744],[-80.5344584389999,43.494218742],[-80.534032322,43.494092079],[-80.533733091,43.4940114660001],[-80.535326034,43.492335177],[-80.535363574,43.492291638],[-80.5358489499999,43.4920296660001],[-80.536134437,43.4918722690001],[-80.536283077,43.4917833050001],[-80.5364066609999,43.491709975],[-80.536570693,43.4916056870001],[-80.53666777,43.4916504340001],[-80.5367875749999,43.4917012880001],[-80.536909593,43.491749037],[-80.537033809,43.491793681],[-80.537160134,43.491835188],[-80.5373055159999,43.491878505],[-80.5373084299999,43.4918792770001],[-80.5373792679999,43.4917452380001],[-80.537422508,43.4916703480001],[-80.537473085,43.4915960330001],[-80.5375299,43.491524145],[-80.5375927329999,43.4914549630001],[-80.537661342,43.4913887540001],[-80.5377354619999,43.491325772],[-80.537814807,43.4912662610001],[-80.5378990729999,43.4912104480001],[-80.537987935,43.4911585500001],[-80.5380791969999,43.4911117180001],[-80.539638138,43.4903642450001],[-80.539787882,43.49029146],[-80.540547093,43.489922445],[-80.5406451919999,43.4898716970001],[-80.540737408,43.4898178710001],[-80.5408251819999,43.4897602410001],[-80.5409082159999,43.489699],[-80.54098623,43.4896343570001],[-80.5410589639999,43.4895665280001],[-80.541126173,43.489495742],[-80.541187628,43.489422237],[-80.5412431239999,43.489346261],[-80.541292475,43.4892680680001],[-80.541335558,43.489187841],[-80.5413700779999,43.4891110550001],[-80.541398832,43.489032916],[-80.541421694,43.488953752],[-80.541438593,43.4888738000001],[-80.54144948,43.4887932940001],[-80.5414544129999,43.4887110020001],[-80.541456648,43.4886114600001],[-80.54146661,43.4881671890001],[-80.541474382,43.4878209390001],[-80.5414843139999,43.487378087],[-80.541483619,43.487257184],[-80.541481841,43.4872162730001],[-80.541471975,43.4870956550001],[-80.5414553859999,43.4869761570001],[-80.5414319559999,43.486856819],[-80.541414882,43.486786523],[-80.541387745,43.4866910440001],[-80.541356319,43.486596508],[-80.5413205739999,43.48650279],[-80.5412806109999,43.486410129],[-80.54122891,43.486303822],[-80.5411716739999,43.4861991830001],[-80.541108924,43.4860962330001],[-80.541040697,43.485995044],[-80.5409740329999,43.485904771],[-80.5409029799999,43.485816179],[-80.540826992,43.4857286650001],[-80.540422211,43.485280248],[-80.540570534,43.485223627],[-80.540783671,43.485154859],[-80.540985502,43.4850934180001],[-80.5411590419999,43.4850539780001],[-80.541325128,43.4850333480001],[-80.5414511979999,43.4850232050001],[-80.5415974809999,43.485018058],[-80.541735864,43.485016155],[-80.541883202,43.4850200220001],[-80.542015874,43.4850295630001],[-80.542150734,43.4850473050001],[-80.542284438,43.4850691360001],[-80.5424518149999,43.4851009320001],[-80.542856179,43.4851828220001],[-80.543239208,43.485259711],[-80.5440378169999,43.4854234430001],[-80.5442624679999,43.4854685710001],[-80.544388281,43.485492826],[-80.5445118439999,43.4855170720001],[-80.544629801,43.4855388390001],[-80.5447533889999,43.4855598090001],[-80.544884856,43.4855799900001],[-80.54501522,43.485597711],[-80.545154586,43.485614647],[-80.545287236,43.485627462],[-80.545427778,43.48563785],[-80.545570588,43.485645789],[-80.545711185,43.485648805],[-80.545858525,43.4856526670001],[-80.546001385,43.4856540530001],[-80.546145387,43.485652987],[-80.546290552,43.48564701],[-80.546437985,43.4856385850001],[-80.5465809359999,43.4856276840001],[-80.5467149309999,43.485611014],[-80.546853455,43.485590266],[-80.546956618,43.4855701610001],[-80.546842979,43.4854028950001],[-80.546474679,43.4848606040001],[-80.546370629,43.4847228310001],[-80.546316631,43.4846339860001],[-80.546272087,43.4845599010001],[-80.546266777,43.48448617],[-80.5462933539999,43.4843932140001],[-80.546314519,43.484275559],[-80.546344221,43.4841333640001],[-80.546381095,43.483938885],[-80.5464100679999,43.483800181],[-80.5464288169999,43.4836920340001],[-80.546443784,43.4835834780001],[-80.546776512,43.48290174],[-80.547058554,43.482726502],[-80.54740455,43.482699934],[-80.548350812,43.4822569340001],[-80.548555743,43.4823520470001],[-80.5486438249999,43.4823928610001],[-80.549428252,43.4820406590001],[-80.5496032739999,43.482198629],[-80.551411501,43.4838277010001],[-80.551536777,43.4839406080001],[-80.5530643,43.4833846540001],[-80.554037611,43.483037246],[-80.5541597339999,43.4829965100001],[-80.554286915,43.4829598540001],[-80.554416572,43.4829281250001],[-80.5545483399999,43.4829014100001],[-80.554701403,43.482877396],[-80.554816758,43.4828633060001],[-80.55495266,43.4828520240001],[-80.555089188,43.4828459660001],[-80.555225965,43.482845152],[-80.5553626129999,43.4828495830001],[-80.555498751,43.482859245],[-80.555633787,43.482874091],[-80.55575329,43.482891749],[-80.555871208,43.4829134020001],[-80.555987606,43.482939049],[-80.556100161,43.4829681030001],[-80.556147739,43.482981296],[-80.556612249,43.4831101360001],[-80.558471681,43.48362587],[-80.5600144319999,43.4840556170001],[-80.5610298989999,43.484338806],[-80.561157486,43.4843718830001],[-80.5612892779999,43.484400893],[-80.561422848,43.4844252180001],[-80.561557877,43.4844448000001],[-80.5616940529999,43.484459595],[-80.561831054,43.484469566],[-80.5619685569999,43.4844746910001],[-80.5621062399999,43.4844749580001],[-80.5622439429999,43.48447036],[-80.5623909449999,43.4844600440001],[-80.562537178,43.4844441540001],[-80.562682077,43.484422743],[-80.562825248,43.4843958700001],[-80.562966306,43.4843636090001],[-80.563104865,43.484326046],[-80.563240552,43.4842832850001],[-80.563338855,43.4842477730001],[-80.563711085,43.484110678],[-80.564135687,43.483945083],[-80.564592708,43.483761321],[-80.565229695,43.4834998590001],[-80.566877995,43.482819013],[-80.567645988,43.4824939600001],[-80.568644004,43.481940025],[-80.568987001,43.481713015],[-80.569143002,43.48155597],[-80.569532962,43.4809610240001],[-80.5695601209999,43.480919294],[-80.569812126,43.480532096],[-80.5718960299999,43.477330011],[-80.572002342,43.4771529710001],[-80.5721100329999,43.476941004],[-80.572227993,43.4766559270001],[-80.5723129149999,43.4764214670001],[-80.572356821,43.4762506000001],[-80.5723814679999,43.4760858810001],[-80.572388215,43.4758861120001],[-80.5723735179999,43.4756994780001],[-80.572344944,43.4755127930001],[-80.572247724,43.4749063370001],[-80.573051966,43.474807754],[-80.573240385,43.47478456],[-80.573473752,43.4747552440001],[-80.573635429,43.474728176],[-80.5737547639999,43.4747047230001],[-80.5738577229999,43.474676806],[-80.5739780819999,43.474630717],[-80.574261297,43.474512282],[-80.574792235,43.474287229],[-80.5752546369999,43.4741065690001],[-80.57575615,43.4738895770001],[-80.5762671849999,43.4736688460001],[-80.5767626379999,43.4734530850001],[-80.577252017,43.4732410720001],[-80.577770839,43.4730165890001],[-80.578216031,43.472824534],[-80.578800669,43.472571988],[-80.579141942,43.4724216830001],[-80.5793116949999,43.4723493560001],[-80.579408687,43.472309464],[-80.5795155599999,43.472276525],[-80.579615038,43.472251736],[-80.579709759,43.472235164],[-80.5798502339999,43.472166701],[-80.5798952069999,43.472301572],[-80.580017727,43.4725498490001],[-80.580068223,43.472652845],[-80.5801186689999,43.4727628960001],[-80.580167753,43.4728699190001],[-80.580233592,43.472955837],[-80.5803902919999,43.4731116360001],[-80.580467182,43.4732006180001],[-80.58052197,43.4732834710001],[-80.580565624,43.473375354],[-80.58059392,43.473486333],[-80.580601971,43.4735861630001],[-80.580595294,43.4736879280001],[-80.5805777589999,43.4738219210001],[-80.580569996,43.473943854],[-80.58057905,43.474035611],[-80.580601972,43.474123386],[-80.580636049,43.4741991070001],[-80.5806907469999,43.4742950630001],[-80.580823486,43.474514275],[-80.580887734,43.474630425],[-80.580957601,43.4747344990001],[-80.581880209,43.475966344],[-80.581968945,43.476087084],[-80.582012479,43.476149564],[-80.583323821,43.4780898590001],[-80.585601222,43.481459231],[-80.585727258,43.4816279120001],[-80.585851754,43.48175919],[-80.586501152,43.4823547460001],[-80.586811413,43.4826392700001],[-80.591219193,43.4866640970001],[-80.590505767,43.4869156180001],[-80.5910966549999,43.4877984500001],[-80.5914086829999,43.4881777460001],[-80.591609794,43.4891691190001],[-80.591774683,43.489920333],[-80.5919340359999,43.4906400940001],[-80.592204134,43.4917675890001],[-80.5881149689999,43.4932052830001],[-80.584441706,43.4945015330001],[-80.582307411,43.4952564590001],[-80.573950816,43.4982084060001],[-80.573102885,43.4985074410001],[-80.5711595939999,43.4992006140001]]]},"properties":{"OBJECTID":3,"WARD_NAME":"LAKESHORE WARD","WARD_NO":3,"WARD":"WARD 3","COUNCILLOR":"Angela Vieth","OFFICE":"519-747-8784","FAX":"519-747-8500","HOME":null,"MOBILE":"519-807-2111","EMAIL":"angela.vieth@waterloo.ca","WEBSITE":"https://www.waterloo.ca/en/government/city-council.aspx#Ward-3-councillor--","IMAGE_URL":"https://www.waterloo.ca/en/government/resources/Images/Council-2019-2022/Angela.jpg","AREA_M":9001235.85917437,"Shape__Area":0.0010023642344094696,"Shape__Length":0.15639059536800548}},{"type":"Feature","id":4,"geometry":{"type":"Polygon","coordinates":[[[-80.533733091,43.4940114660001],[-80.534032322,43.494092079],[-80.5344584389999,43.494218742],[-80.53497569,43.494395744],[-80.535511755,43.494606135],[-80.536020961,43.4948386230001],[-80.536461597,43.4950625020001],[-80.536913484,43.4953114100001],[-80.537331266,43.495566845],[-80.537789943,43.495892396],[-80.538184155,43.4962049170001],[-80.5385592,43.4965312410001],[-80.5388731369999,43.496829172],[-80.539198714,43.497183439],[-80.539542377,43.497626231],[-80.5398404319999,43.4980494060001],[-80.5401644889999,43.498564297],[-80.54090676,43.499752695],[-80.542033579,43.501533948],[-80.542870176,43.50286707],[-80.543171676,43.503345772],[-80.54384334,43.504435218],[-80.545255687,43.506666513],[-80.545383982,43.50686919],[-80.545745733,43.507456394],[-80.5459567999999,43.507793146],[-80.546131863,43.5081004670001],[-80.544403226,43.5087223450001],[-80.542227794,43.5095069170001],[-80.5422062439999,43.5094882180001],[-80.539674792,43.5103944430001],[-80.5373281459999,43.5112344840001],[-80.5333911339999,43.512643677],[-80.531606054,43.513283427],[-80.528315118,43.5144397780001],[-80.527164512,43.514843931],[-80.526543905,43.5150603800001],[-80.525621071,43.5153912760001],[-80.523979181,43.5159734980001],[-80.51898548,43.517743943],[-80.518165095,43.5180346820001],[-80.51762274,43.5182261630001],[-80.5167681949999,43.5185297130001],[-80.5157074529999,43.5189056],[-80.5137787639999,43.519588646],[-80.511485986,43.520398743],[-80.509910138,43.520958987],[-80.5063199959999,43.5222377630001],[-80.504988015,43.522706752],[-80.503698141,43.5231608930001],[-80.5000265629999,43.5244534720001],[-80.4981825369999,43.5251025960001],[-80.497107491,43.525481008],[-80.4950573,43.526200568],[-80.4941871199999,43.5265087550001],[-80.491371135,43.5275033130001],[-80.489819193,43.528048158],[-80.4886209859999,43.5284647890001],[-80.486127116,43.5293315050001],[-80.485517503,43.529539001],[-80.483867764,43.530105199],[-80.482803029,43.530470603],[-80.4824406019999,43.53059498],[-80.4822902669999,43.530646571],[-80.4812729,43.530998643],[-80.480653619,43.531213415],[-80.480675231,43.530684879],[-80.480573622,43.53012456],[-80.480349384,43.5295458150001],[-80.480051021,43.529020336],[-80.479194225,43.527753777],[-80.478781338,43.5272218170001],[-80.4783269179999,43.5267611370001],[-80.477692842,43.5262519870001],[-80.477205748,43.5257851980001],[-80.4767914,43.525425946],[-80.476457876,43.525186182],[-80.4761242,43.524964283],[-80.475708574,43.5247539200001],[-80.475292693,43.5245733340001],[-80.474786936,43.524374466],[-80.474076821,43.524144876],[-80.4726929669999,43.523721358],[-80.47179131,43.5234196270001],[-80.470625116,43.5229318020001],[-80.4703073219999,43.5227695200001],[-80.470022268,43.522607388],[-80.4697617689999,43.5224453700001],[-80.469501663,43.5222386840001],[-80.469241559,43.5220319970001],[-80.468713328,43.521600715],[-80.46847773,43.521400096],[-80.468242134,43.521199476],[-80.4678528429999,43.52079266],[-80.467603003,43.5203507570001],[-80.467443246,43.5199033170001],[-80.4673811769999,43.519515891],[-80.467425765,43.519099183],[-80.467569243,43.5186055070001],[-80.467786006,43.518153865],[-80.468084607,43.517702603],[-80.468480676,43.5173351760001],[-80.468982662,43.5170218420001],[-80.469582429,43.516756608],[-80.470271901,43.516527523],[-80.471010054,43.5163463060001],[-80.471731418,43.5162126550001],[-80.472345718,43.5161559320001],[-80.47297602,43.516140971],[-80.473441668,43.51614061],[-80.475081602,43.5161393270001],[-80.4756410219999,43.5161388830001],[-80.4761621869999,43.5161384680001],[-80.47694716,43.5161378380001],[-80.477403625,43.5161374690001],[-80.4781405209999,43.5160991430001],[-80.4785837169999,43.516073728],[-80.478910201,43.516055006],[-80.4793091129999,43.5160502260001],[-80.47963047,43.516046375],[-80.4803666989999,43.5160854590001],[-80.4805588419999,43.5161022010001],[-80.4807993439999,43.516123156],[-80.4810697789999,43.5161467190001],[-80.481361904,43.516171479],[-80.4815690729999,43.516188818],[-80.481912355,43.516217548],[-80.482509615,43.51623812],[-80.482810122,43.5162265800001],[-80.483123803,43.5161932510001],[-80.483498523,43.516116529],[-80.4838512869999,43.516016871],[-80.484206747,43.5158824760001],[-80.484683277,43.515664255],[-80.4851631449999,43.51536822],[-80.4854744789999,43.515124438],[-80.485577263,43.5150420410001],[-80.485786767,43.5148592140001],[-80.486017626,43.514657749],[-80.4861048829999,43.514560836],[-80.486204412,43.514450292],[-80.48643249,43.5142019210001],[-80.486647808,43.5139560420001],[-80.486772934,43.5138148730001],[-80.48687225,43.5136975090001],[-80.486950177,43.5135983050001],[-80.487064784,43.5134524040001],[-80.4872214279999,43.5133161200001],[-80.487410402,43.513227628],[-80.487617983,43.513158075],[-80.487910794,43.5130869270001],[-80.4880677259999,43.5130583440001],[-80.4885524169999,43.512980602],[-80.4888801769999,43.5129314420001],[-80.48924062,43.5128883840001],[-80.489601063,43.5128453230001],[-80.4900002529999,43.512774644],[-80.490401936,43.512693052],[-80.4907815619999,43.5126004370001],[-80.491305891,43.512531299],[-80.491723387,43.512515288],[-80.4920751179999,43.512534719],[-80.4924593819999,43.512578117],[-80.492876729,43.5125799690001],[-80.4933192239999,43.5125104590001],[-80.493745699,43.512399185],[-80.4940822569999,43.5122756000001],[-80.4943453129999,43.5121338210001],[-80.494608617,43.5119622620001],[-80.494856001,43.5117370290001],[-80.4950301819999,43.511457868],[-80.495130365,43.5112200720001],[-80.495198213,43.5109344860001],[-80.49523427,43.5105355960001],[-80.495238588,43.5100174460001],[-80.495222611,43.5098254710001],[-80.495209062,43.509662683],[-80.4951970079999,43.509517863],[-80.4951770919999,43.5093605120001],[-80.495132429,43.509040914],[-80.495086516,43.5087475720001],[-80.495044315,43.5085116390001],[-80.495015187,43.5083487910001],[-80.49496095,43.5081475470001],[-80.494886267,43.5078704320001],[-80.494775174,43.5075866440001],[-80.494646496,43.5072892170001],[-80.4945189919999,43.5070124640001],[-80.4943737199999,43.506770605],[-80.494203527,43.5064784630001],[-80.4940272699999,43.5061228500001],[-80.493843505,43.505591956],[-80.493763698,43.5053262440001],[-80.493625429,43.504865878],[-80.4935314209999,43.5045528750001],[-80.49637891,43.504158326],[-80.496685554,43.5040450440001],[-80.496764532,43.504014039],[-80.4968286229999,43.503987292],[-80.496895711,43.503957315],[-80.496947964,43.5039251100001],[-80.497006203,43.503887526],[-80.497059995,43.503848842],[-80.4970988709999,43.503817659],[-80.497137803,43.5037799900001],[-80.4971737449999,43.5037444700001],[-80.497227724,43.5036830810001],[-80.497496013,43.5033912690001],[-80.497681814,43.503195315],[-80.497801637,43.503074752],[-80.497877957,43.5030058940001],[-80.4979601909999,43.502940305],[-80.498115604,43.502826385],[-80.498604046,43.50249337],[-80.4990791069999,43.5021613770001],[-80.499619842,43.501789666],[-80.499803557,43.501665056],[-80.500165044,43.50141581],[-80.500344301,43.5012911790001],[-80.50074012,43.501020458],[-80.5009238389999,43.5008947650001],[-80.5013256559999,43.5006165],[-80.501554142,43.5004650540001],[-80.5019992809999,43.500155621],[-80.502194929,43.500023491],[-80.50273414,43.4996517590001],[-80.502986576,43.499476628],[-80.503912623,43.498838445],[-80.504184596,43.4986342060001],[-80.505125372,43.4980079690001],[-80.506283115,43.4972488660001],[-80.5066925899999,43.4969732070001],[-80.5069440939999,43.4968038540001],[-80.5071994319999,43.4966341310001],[-80.5073980189999,43.4965030870001],[-80.5077877479999,43.4962431260001],[-80.507974399,43.496118515],[-80.508161077,43.4959906610001],[-80.50834922,43.4958649750001],[-80.5087359619999,43.495606079],[-80.509443769,43.495128005],[-80.509657303,43.4949840470001],[-80.509857408,43.494847597],[-80.510200861,43.494614459],[-80.5103815099999,43.494496306],[-80.5105816029999,43.4943609370001],[-80.510824997,43.4941965620001],[-80.511278917,43.493891456],[-80.511940354,43.493449926],[-80.512191287,43.4932704450001],[-80.514077471,43.4920068710001],[-80.515308562,43.4911739930001],[-80.5175479769999,43.48967535],[-80.5176418299999,43.489609235],[-80.517729359,43.4895409320001],[-80.517811976,43.489469462],[-80.517889643,43.4893948440001],[-80.517952835,43.4893276760001],[-80.5180119939999,43.4892583380001],[-80.51806684,43.4891871450001],[-80.518117262,43.48911424],[-80.5181631569999,43.4890397680001],[-80.5182245189999,43.4889304290001],[-80.518246843,43.4888828430001],[-80.518278341,43.4888044090001],[-80.518304997,43.4887250290001],[-80.518326757,43.4886448620001],[-80.518337629,43.4885868330001],[-80.518346601,43.48852076],[-80.518355597,43.488451614],[-80.518358233,43.4883855140001],[-80.518356758,43.4880502990001],[-80.518353835,43.4876375690001],[-80.5183486619999,43.4869097980001],[-80.51834782,43.486790467],[-80.5183409799999,43.485825811],[-80.5183443619999,43.4857295560001],[-80.518356141,43.4856309030001],[-80.518376174,43.4855329590001],[-80.518404387,43.485436092],[-80.5184406719999,43.485340658],[-80.518484897,43.4852470170001],[-80.518536895,43.4851555170001],[-80.518595771,43.485067551],[-80.518634252,43.4850164600001],[-80.518675099,43.4849664910001],[-80.5187468509999,43.4848873920001],[-80.5188258219999,43.4848106310001],[-80.518910892,43.484737409],[-80.5190017629999,43.48466798],[-80.519098116,43.4846025850001],[-80.519199613,43.4845414580001],[-80.51929999,43.484487958],[-80.519457922,43.4844152790001],[-80.51844894,43.4834663950001],[-80.5178141169999,43.4828827090001],[-80.517750779,43.4828215000001],[-80.517690922,43.4827569460001],[-80.517635742,43.4826902200001],[-80.517585385,43.482621501],[-80.517540164,43.4825512480001],[-80.5174948539999,43.482471698],[-80.51745558,43.482389911],[-80.517422741,43.4823066330001],[-80.517396445,43.4822221330001],[-80.5173767749999,43.482136682],[-80.5173637949999,43.4820505550001],[-80.517357622,43.4819650810001],[-80.5173536029999,43.4818116960001],[-80.5173347309999,43.4813117780001],[-80.517327495,43.4812123790001],[-80.517314357,43.481131174],[-80.517295076,43.4810501650001],[-80.517269782,43.480970036],[-80.5172385499999,43.4808910290001],[-80.517201471,43.4808133720001],[-80.517158654,43.480737296],[-80.5171102259999,43.4806630260001],[-80.517056332,43.480590781],[-80.5169962699999,43.4805197580001],[-80.516050208,43.479467807],[-80.516621503,43.4791884360001],[-80.516816621,43.479098257],[-80.516997773,43.47901813],[-80.517178845,43.478948114],[-80.517434157,43.4788548170001],[-80.5193696969999,43.4781686420001],[-80.519811606,43.478010054],[-80.520058395,43.478280754],[-80.520890348,43.4791681830001],[-80.520986901,43.4792723050001],[-80.5217045109999,43.480067095],[-80.5218742329999,43.4802559090001],[-80.5220378449999,43.4804578210001],[-80.522741111,43.4813656210001],[-80.523859493,43.482833484],[-80.524505651,43.4836444470001],[-80.5246045489999,43.48377185],[-80.524773006,43.483988809],[-80.525494732,43.484917985],[-80.5255352629999,43.4849648100001],[-80.525587198,43.48501372],[-80.525645324,43.4850587880001],[-80.5257091029999,43.4850996000001],[-80.525775773,43.485134637],[-80.5258091329999,43.485149807],[-80.525884406,43.4851789960001],[-80.525965909,43.485203384],[-80.526050335,43.485221761],[-80.526136846,43.4852339450001],[-80.5262245919999,43.4852398150001],[-80.526312707,43.485239316],[-80.526395838,43.4852327990001],[-80.5270925299999,43.485157621],[-80.527593265,43.485099624],[-80.527713104,43.4850875000001],[-80.5278319719999,43.4850789560001],[-80.527950886,43.4850738650001],[-80.528095666,43.485072302],[-80.528240527,43.4850757940001],[-80.528348103,43.485081689],[-80.528456099,43.4850904630001],[-80.528543187,43.485099592],[-80.528629542,43.4851105330001],[-80.528757055,43.4851301740001],[-80.528882766,43.4851537010001],[-80.52900813,43.485181411],[-80.529039449,43.485189022],[-80.529150662,43.48521835],[-80.529259247,43.4852505200001],[-80.5293660309999,43.4852857430001],[-80.529471933,43.4853243630001],[-80.5294908179999,43.485331655],[-80.5295771689999,43.485366651],[-80.529661104,43.4854033170001],[-80.529742873,43.48544172],[-80.52985311,43.4854981620001],[-80.5299594909999,43.4855579680001],[-80.5300621009999,43.485621173],[-80.5301607339999,43.48568765],[-80.5302551939999,43.4857572660001],[-80.5303452909999,43.4858298830001],[-80.530430848,43.485905356],[-80.530511694,43.4859835340001],[-80.530587666,43.4860642610001],[-80.530659531,43.48614845],[-80.531069999,43.4866540240001],[-80.532067995,43.4878832000001],[-80.532183402,43.488025345],[-80.532306403,43.488173654],[-80.532433622,43.488320699],[-80.532564626,43.4884659680001],[-80.5326993749999,43.4886094120001],[-80.532837819,43.4887509800001],[-80.532979908,43.488890618],[-80.533125591,43.4890282800001],[-80.5332748169999,43.4891639160001],[-80.533427532,43.489297476],[-80.533583683,43.4894289150001],[-80.533743214,43.4895581850001],[-80.533905594,43.4896848710001],[-80.534477964,43.4901226540001],[-80.535847086,43.491169536],[-80.5359522959999,43.491247038],[-80.536062536,43.4913223290001],[-80.536176605,43.49139453],[-80.5362943439999,43.4914635430001],[-80.5364155789999,43.4915292650001],[-80.536540141,43.4915916050001],[-80.5364066609999,43.491709975],[-80.536283077,43.4917833050001],[-80.536134437,43.4918722690001],[-80.5358489499999,43.4920296660001],[-80.535363574,43.492291638],[-80.535313247,43.4923351250001],[-80.5347690139999,43.492921354],[-80.533733091,43.4940114660001]]]},"properties":{"OBJECTID":4,"WARD_NAME":"NORTHEAST WARD","WARD_NO":4,"WARD":"WARD 4","COUNCILLOR":"Diane Freeman","OFFICE":"519-747-8784","FAX":"519-747-8500","HOME":null,"MOBILE":"519-569-9955","EMAIL":"diane.freeman@waterloo.ca","WEBSITE":"https://www.waterloo.ca/en/government/city-council.aspx#Ward-4-councillor--","IMAGE_URL":"https://www.waterloo.ca/en/government/resources/Images/Council-2019-2022/Diane.jpg","AREA_M":13819075.0861968,"Shape__Area":0.0015392850546049885,"Shape__Length":0.21686849959313087}},{"type":"Feature","id":5,"geometry":{"type":"Polygon","coordinates":[[[-80.516050208,43.479467807],[-80.5169962699999,43.4805197580001],[-80.517056332,43.480590781],[-80.5171102259999,43.4806630260001],[-80.517158654,43.480737296],[-80.517201471,43.4808133720001],[-80.5172385499999,43.4808910290001],[-80.517269782,43.480970036],[-80.517295076,43.4810501650001],[-80.517314357,43.481131174],[-80.517327495,43.4812123790001],[-80.5173347309999,43.4813117780001],[-80.5173536029999,43.4818116960001],[-80.517357622,43.4819650810001],[-80.5173637949999,43.4820505550001],[-80.5173767749999,43.482136682],[-80.517396445,43.4822221330001],[-80.517422741,43.4823066330001],[-80.51745558,43.482389911],[-80.5174948539999,43.482471698],[-80.517540164,43.4825512480001],[-80.517585385,43.482621501],[-80.517635742,43.4826902200001],[-80.517690922,43.4827569460001],[-80.517750779,43.4828215000001],[-80.5178141169999,43.4828827090001],[-80.51844894,43.4834663950001],[-80.519457922,43.4844152790001],[-80.51929999,43.484487958],[-80.519199613,43.4845414580001],[-80.519098116,43.4846025850001],[-80.5190017629999,43.48466798],[-80.518910892,43.484737409],[-80.5188258219999,43.4848106310001],[-80.5187468509999,43.4848873920001],[-80.518675099,43.4849664910001],[-80.518634252,43.4850164600001],[-80.518595771,43.485067551],[-80.518536895,43.4851555170001],[-80.518484897,43.4852470170001],[-80.5184406719999,43.485340658],[-80.518404387,43.485436092],[-80.518376174,43.4855329590001],[-80.518356141,43.4856309030001],[-80.5183443619999,43.4857295560001],[-80.5183409799999,43.485825811],[-80.51834782,43.486790467],[-80.5183486619999,43.4869097980001],[-80.518353835,43.4876375690001],[-80.518356758,43.4880502990001],[-80.518358233,43.4883855140001],[-80.518355597,43.488451614],[-80.518346601,43.48852076],[-80.518337629,43.4885868330001],[-80.518326757,43.4886448620001],[-80.518304997,43.4887250290001],[-80.518278341,43.4888044090001],[-80.518246843,43.4888828430001],[-80.5182245189999,43.4889304290001],[-80.5181631569999,43.4890397680001],[-80.518117262,43.48911424],[-80.51806684,43.4891871450001],[-80.5180119939999,43.4892583380001],[-80.517952835,43.4893276760001],[-80.517889643,43.4893948440001],[-80.517811976,43.489469462],[-80.517729359,43.4895409320001],[-80.5176418299999,43.489609235],[-80.5175479769999,43.48967535],[-80.515308562,43.4911739930001],[-80.514077471,43.4920068710001],[-80.512191287,43.4932704450001],[-80.511940354,43.493449926],[-80.511278917,43.493891456],[-80.510824997,43.4941965620001],[-80.5105816029999,43.4943609370001],[-80.5103815099999,43.494496306],[-80.510200861,43.494614459],[-80.509857408,43.494847597],[-80.509657303,43.4949840470001],[-80.509443769,43.495128005],[-80.5087359619999,43.495606079],[-80.50834922,43.4958649750001],[-80.508161077,43.4959906610001],[-80.507974399,43.496118515],[-80.5077877479999,43.4962431260001],[-80.5073980189999,43.4965030870001],[-80.5071994319999,43.4966341310001],[-80.5069440939999,43.4968038540001],[-80.5066925899999,43.4969732070001],[-80.506283115,43.4972488660001],[-80.505125372,43.4980079690001],[-80.504184596,43.4986342060001],[-80.503912623,43.498838445],[-80.502986576,43.499476628],[-80.50273414,43.4996517590001],[-80.502194929,43.500023491],[-80.5019992809999,43.500155621],[-80.501554142,43.5004650540001],[-80.5013256559999,43.5006165],[-80.5009238389999,43.5008947650001],[-80.50074012,43.501020458],[-80.500344301,43.5012911790001],[-80.500165044,43.50141581],[-80.499803557,43.501665056],[-80.499619842,43.501789666],[-80.4990791069999,43.5021613770001],[-80.498604046,43.50249337],[-80.498115604,43.502826385],[-80.4979601909999,43.502940305],[-80.497877957,43.5030058940001],[-80.497801637,43.503074752],[-80.497681814,43.503195315],[-80.497496013,43.5033912690001],[-80.497227724,43.5036830810001],[-80.4971737449999,43.5037444700001],[-80.497137803,43.5037799900001],[-80.4970988709999,43.503817659],[-80.497059995,43.503848842],[-80.497006203,43.503887526],[-80.496947964,43.5039251100001],[-80.496895711,43.503957315],[-80.4968286229999,43.503987292],[-80.496764532,43.504014039],[-80.496685554,43.5040450440001],[-80.49637891,43.504158326],[-80.493582653,43.504547207],[-80.4935314209999,43.5045528750001],[-80.493341965,43.503922065],[-80.493173978,43.5034627110001],[-80.4928914449999,43.503002849],[-80.4927454909999,43.5028443690001],[-80.492593621,43.502685415],[-80.49229087,43.502416499],[-80.491905608,43.5021710140001],[-80.491484562,43.5019721740001],[-80.4910339319999,43.501841518],[-80.4906434339999,43.50177784],[-80.490097272,43.501732286],[-80.4898550249999,43.5017378750001],[-80.4896127769999,43.5017434640001],[-80.4892436439999,43.5017784440001],[-80.488980597,43.5018033710001],[-80.488478308,43.5018953470001],[-80.488093936,43.5019657280001],[-80.487402576,43.5020923180001],[-80.4870947909999,43.5021514050001],[-80.486335181,43.5023003690001],[-80.485773916,43.5024104330001],[-80.485146561,43.5025334530001],[-80.484523805,43.502655567],[-80.484388041,43.5026821880001],[-80.484163248,43.502735896],[-80.483937869,43.5027897430001],[-80.483521314,43.502889263],[-80.483070525,43.5029969610001],[-80.4822929109999,43.503182737],[-80.4817890049999,43.503303117],[-80.481235602,43.503435321],[-80.480997778,43.5034932730001],[-80.4808452349999,43.5035266130001],[-80.480675183,43.5035727380001],[-80.480572778,43.50360427],[-80.480467732,43.5036423760001],[-80.4802783229999,43.5037186820001],[-80.4801757499999,43.503769973],[-80.480058785,43.503840961],[-80.4800353539999,43.503859676],[-80.479983512,43.503902892],[-80.4799239559999,43.5039599900001],[-80.479854131,43.50402797],[-80.479771977,43.504109312],[-80.47970427,43.5041743640001],[-80.4796001189999,43.5042585850001],[-80.4795586769999,43.504282953],[-80.479053129,43.503457622],[-80.47879535,43.503036776],[-80.4785455639999,43.502628976],[-80.4781228209999,43.5019387990001],[-80.477854884,43.5015013510001],[-80.477637606,43.501146609],[-80.477517911,43.5009511870001],[-80.4782631859999,43.5007693970001],[-80.480526664,43.500217241],[-80.480966401,43.50010817],[-80.481228754,43.4991989530001],[-80.481302528,43.4989432790001],[-80.4814418669999,43.4987517610001],[-80.4813636649999,43.49847793],[-80.481068103,43.4988851570001],[-80.481262005,43.4982128520001],[-80.4811788809999,43.4967874130001],[-80.48108201,43.495126333],[-80.4811305969999,43.4951186640001],[-80.481102033,43.4947134610001],[-80.4810542119999,43.4947170460001],[-80.481034926,43.494443045],[-80.4810838929999,43.4944411970001],[-80.4810121,43.4933776710001],[-80.480981132,43.4927280690001],[-80.4809321819999,43.4927293380001],[-80.480918453,43.4924413740001],[-80.48096742,43.492440355],[-80.480958792,43.492259405],[-80.48090983,43.492260425],[-80.4808706169999,43.4914382160001],[-80.480919339,43.4914322400001],[-80.480900399,43.4910217950001],[-80.480851609,43.4910277700001],[-80.4808388339999,43.490676401],[-80.4808155379999,43.4900358470001],[-80.4808016389999,43.4896537290001],[-80.48085098,43.4896630750001],[-80.480850779,43.489657591],[-80.4810507289999,43.4892343830001],[-80.48193921,43.488126202],[-80.4826471389999,43.487243596],[-80.482976342,43.4868279840001],[-80.483176966,43.486579605],[-80.483674102,43.485977468],[-80.484062125,43.485507485],[-80.484157769,43.4852866200001],[-80.484264856,43.4852483170001],[-80.4843844059999,43.485207443],[-80.484450463,43.4851834780001],[-80.484473759,43.4851750280001],[-80.484525259,43.4851563440001],[-80.484584474,43.4851348610001],[-80.48462719,43.4851193650001],[-80.484793956,43.485058866],[-80.485096934,43.4849492320001],[-80.485261784,43.4848905220001],[-80.4854158969999,43.4848361160001],[-80.485671124,43.4847452160001],[-80.486122885,43.4845788110001],[-80.4866124879999,43.4844094580001],[-80.486721027,43.4843708000001],[-80.4868012169999,43.4843422390001],[-80.486913945,43.484303174],[-80.4870295859999,43.4842630430001],[-80.487049338,43.48427716],[-80.487083701,43.484251644],[-80.487184766,43.484176367],[-80.487319032,43.4840763610001],[-80.487363207,43.484043458],[-80.487396959,43.484018318],[-80.48745837,43.484062049],[-80.487524005,43.4841087880001],[-80.487678531,43.4842193690001],[-80.48775288,43.4842724870001],[-80.4878011499999,43.4842366450001],[-80.487918217,43.484149868],[-80.4879839229999,43.4841013400001],[-80.488032295,43.484065613],[-80.4879598479999,43.4840134550001],[-80.487889248,43.483962627],[-80.4878149259999,43.4839091170001],[-80.487660998,43.483798295],[-80.4874996779999,43.483682151],[-80.487411235,43.4836184750001],[-80.487354034,43.4835772930001],[-80.487297723,43.48353675],[-80.4872274589999,43.4834861620001],[-80.487173616,43.4834473970001],[-80.48722959,43.483404126],[-80.487287759,43.483359159],[-80.4873538419999,43.4833080720001],[-80.487420619,43.483256452],[-80.487495308,43.483198712],[-80.487600271,43.48311757],[-80.4877062209999,43.4830356640001],[-80.4878167799999,43.4829501950001],[-80.487919083,43.4828710690001],[-80.488013827,43.4827977910001],[-80.488079203,43.4827472260001],[-80.488134488,43.482704466],[-80.488182427,43.482667388],[-80.488087139,43.482599882],[-80.48796907,43.482516235],[-80.4878745459999,43.482449268],[-80.487802729,43.4823983900001],[-80.487731751,43.482348105],[-80.4875681779999,43.4822322200001],[-80.487524353,43.482201171],[-80.487469709,43.4821624580001],[-80.487374766,43.482094456],[-80.48727904,43.4820258920001],[-80.4871326849999,43.481921066],[-80.4870227979999,43.481842359],[-80.486960337,43.481797622],[-80.486892058,43.481748716],[-80.486826204,43.481701548],[-80.4865240359999,43.4814868720001],[-80.4866510749999,43.481470733],[-80.486743689,43.4814589810001],[-80.486762348,43.4815337960001],[-80.486833463,43.4815271480001],[-80.4869976859999,43.481511798],[-80.487182941,43.481494481],[-80.4873317559999,43.48148057],[-80.487479155,43.4814667910001],[-80.487653075,43.481455409],[-80.4878279719999,43.481446685],[-80.488019516,43.4814371310001],[-80.4882334279999,43.4814264610001],[-80.488410788,43.4814176140001],[-80.488564991,43.4814099220001],[-80.488705011,43.4814029360001],[-80.4888427509999,43.4813960650001],[-80.489008486,43.481387797],[-80.4891800349999,43.481379239],[-80.489324285,43.481372042],[-80.489585489,43.4813590100001],[-80.489839207,43.4813463510001],[-80.490012521,43.4813377030001],[-80.490208202,43.481327939],[-80.4905149319999,43.4813126330001],[-80.490789251,43.4812989430001],[-80.491188009,43.481279043],[-80.491548727,43.48126104],[-80.491767566,43.4812501170001],[-80.4918737199999,43.4812448180001],[-80.491950695,43.4812186510001],[-80.492051988,43.481184216],[-80.4921736159999,43.4811428670001],[-80.492315452,43.4810946490001],[-80.492509992,43.4810285130001],[-80.493026167,43.48085294],[-80.493167937,43.4808047430001],[-80.493803943,43.4805886090001],[-80.4940699749999,43.4804981200001],[-80.4942773289999,43.4804276670001],[-80.494447898,43.4805231120001],[-80.495105832,43.4808927450001],[-80.4954528009999,43.4810878260001],[-80.4956519089999,43.4810960410001],[-80.495929614,43.4811074990001],[-80.49606089,43.4811129140001],[-80.496544313,43.4809456420001],[-80.496687923,43.48089595],[-80.497066537,43.48076494],[-80.497375591,43.4806579990001],[-80.4974628109999,43.4806278180001],[-80.497665148,43.4805578030001],[-80.497817023,43.480505249],[-80.4976140649999,43.4801056430001],[-80.497296412,43.4794802010001],[-80.4969172799999,43.4787336970001],[-80.496545297,43.478001498],[-80.496285465,43.477489614],[-80.49606633,43.477181552],[-80.495791916,43.476795774],[-80.4954342999999,43.476550698],[-80.4953207739999,43.4764728980001],[-80.4951653259999,43.476405878],[-80.495009879,43.4763388580001],[-80.494620158,43.4763275280001],[-80.49426505,43.4763172030001],[-80.493805659,43.4763038460001],[-80.493327828,43.476289949],[-80.4927177769999,43.4761700450001],[-80.492355289,43.47597854],[-80.492132636,43.4757705390001],[-80.491996821,43.475632395],[-80.491855702,43.4754789020001],[-80.491719328,43.4751525550001],[-80.4916290369999,43.4749392860001],[-80.491513712,43.4746604920001],[-80.491445042,43.4744961540001],[-80.49200975,43.4743961500001],[-80.492279969,43.4743083320001],[-80.492883493,43.474105438],[-80.4934328259999,43.4739170980001],[-80.494026038,43.47371371],[-80.494757911,43.473462775],[-80.495372125,43.473252175],[-80.496046583,43.4730209140001],[-80.496302144,43.4729332850001],[-80.496648788,43.472811472],[-80.49651376,43.472688514],[-80.4963073169999,43.4725005240001],[-80.4960487499999,43.4722651970001],[-80.495788569,43.472028139],[-80.495672079,43.471922057],[-80.495520993,43.4717844720001],[-80.4954228779999,43.4716951240001],[-80.49538488,43.471660521],[-80.4953092869999,43.4715904240001],[-80.495501373,43.471541744],[-80.495649468,43.4715042130001],[-80.495872662,43.471447648],[-80.4959979719999,43.471415891],[-80.496161507,43.471374445],[-80.496372305,43.4713222950001],[-80.496312017,43.471267158],[-80.4961853519999,43.471151315],[-80.496028625,43.471007978],[-80.495859797,43.470853574],[-80.495704172,43.470711244],[-80.495520856,43.4705435830001],[-80.4958769519999,43.4704143060001],[-80.4961269089999,43.4703264600001],[-80.496461289,43.4702094960001],[-80.4967309959999,43.4701141520001],[-80.4971145329999,43.4699793550001],[-80.497405091,43.4698772690001],[-80.497805156,43.469736712],[-80.4981267969999,43.4696237060001],[-80.498442666,43.4695127270001],[-80.498789862,43.4693907390001],[-80.4990310009999,43.4693060060001],[-80.49948052,43.4691468620001],[-80.499699519,43.469070317],[-80.499918577,43.46899375],[-80.500214224,43.4688904130001],[-80.500520938,43.4687832060001],[-80.5007399359999,43.468706658],[-80.500932786,43.468639426],[-80.500827682,43.4685427250001],[-80.500737476,43.4684597300001],[-80.500257597,43.4680182120001],[-80.499739042,43.4675411010001],[-80.499260911,43.4671011770001],[-80.498902444,43.46677135],[-80.498673418,43.4665606200001],[-80.4984476179999,43.4663528560001],[-80.498507605,43.466319738],[-80.498558241,43.4662928450001],[-80.4986404759999,43.466246885],[-80.4987642039999,43.466178067],[-80.498922615,43.466090681],[-80.4989837799999,43.4660569390001],[-80.499078718,43.466004567],[-80.4990645939999,43.465990247],[-80.499125486,43.465969155],[-80.499239998,43.4659294900001],[-80.499404258,43.4658725940001],[-80.499593482,43.465807049],[-80.499757653,43.4657501820001],[-80.499911695,43.465696822],[-80.500011237,43.4656623430001],[-80.5001222559999,43.4656238860001],[-80.50020303,43.465562022],[-80.50036877,43.465435084],[-80.500483876,43.4653469240001],[-80.5006659479999,43.4652265350001],[-80.50078823,43.46514568],[-80.5008664759999,43.4650939570001],[-80.5009622589999,43.4650306410001],[-80.501081052,43.4649521150001],[-80.501122887,43.4649244610001],[-80.501193572,43.4649056540001],[-80.5012810759999,43.464882372],[-80.501337696,43.4648673080001],[-80.5013735859999,43.4648577580001],[-80.5014229989999,43.4648251070001],[-80.5015103119999,43.4647674120001],[-80.501612315,43.464700011],[-80.5017082369999,43.4646366260001],[-80.501657643,43.464591861],[-80.501356927,43.4643263190001],[-80.501226349,43.46420469],[-80.501149098,43.4641344980001],[-80.5010845629999,43.464075091],[-80.501035383,43.4640282560001],[-80.500910177,43.4639089560001],[-80.500819962,43.463822995],[-80.500810123,43.4638136240001],[-80.500708323,43.463716708],[-80.5006187239999,43.463631455],[-80.5008303339999,43.463557548],[-80.5011271129999,43.463453357],[-80.500989671,43.463328114],[-80.500809739,43.4631614960001],[-80.500939348,43.4631174250001],[-80.5010935509999,43.4630640770001],[-80.501217945,43.463021042],[-80.501347317,43.462976285],[-80.501386096,43.462962868],[-80.501431772,43.462946398],[-80.501509213,43.463017075],[-80.501979932,43.4632972840001],[-80.502461351,43.46358279],[-80.5027827279999,43.4637733370001],[-80.504776411,43.46495772],[-80.505104541,43.465151776],[-80.505648158,43.4654730780001],[-80.50605547,43.4657138000001],[-80.506614597,43.4660442520001],[-80.50678379,43.4661442410001],[-80.506952472,43.4662439140001],[-80.507024782,43.4662866620001],[-80.5077523369999,43.4667166340001],[-80.507992279,43.466858426],[-80.508342635,43.46706548],[-80.5088596959999,43.4673711020001],[-80.5090031779999,43.4674558770001],[-80.509181634,43.4675613860001],[-80.509547189,43.4677776130001],[-80.5098325819999,43.4679461040001],[-80.509834406,43.4679471850001],[-80.5101961679999,43.4681607570001],[-80.510212618,43.468170473],[-80.510700426,43.468458453],[-80.510966706,43.468628053],[-80.51111205,43.4687597990001],[-80.511352943,43.4689781430001],[-80.511588874,43.469191999],[-80.511779976,43.4693652110001],[-80.511806327,43.4693891000001],[-80.512076701,43.469634146],[-80.5121393219999,43.4696909240001],[-80.5125329969999,43.470047735],[-80.5128395089999,43.4703251940001],[-80.514142512,43.4715049430001],[-80.5144730439999,43.471804203],[-80.514559106,43.4718821170001],[-80.514962818,43.472247624],[-80.515168215,43.4724335830001],[-80.5152746909999,43.4725633750001],[-80.515564253,43.4729163750001],[-80.515911704,43.4733399260001],[-80.51596963,43.473410528],[-80.5161163559999,43.473589399],[-80.5163750679999,43.4739047580001],[-80.516490903,43.474045968],[-80.516548824,43.474116569],[-80.516606741,43.4741871730001],[-80.516722581,43.4743283700001],[-80.516782421,43.47440132],[-80.516795101,43.4744167700001],[-80.51684227,43.474474274],[-80.5170643129999,43.474744936],[-80.517190082,43.474898232],[-80.517330422,43.4750657170001],[-80.517914939,43.475780866],[-80.518651044,43.476677883],[-80.518959243,43.4770416440001],[-80.519375759,43.4775332],[-80.519578215,43.477756931],[-80.519811606,43.478010054],[-80.5193696969999,43.4781686420001],[-80.517434157,43.4788548170001],[-80.517178845,43.478948114],[-80.516997773,43.47901813],[-80.516816621,43.479098257],[-80.516621503,43.4791884360001],[-80.516050208,43.479467807]]]},"properties":{"OBJECTID":5,"WARD_NAME":"SOUTHEAST WARD","WARD_NO":5,"WARD":"WARD 5","COUNCILLOR":"Jen Vasic","OFFICE":"519-747-8784","FAX":"519-747-8500","HOME":null,"MOBILE":null,"EMAIL":"jen.vasic@waterloo.ca","WEBSITE":"https://www.waterloo.ca/en/government/city-council.aspx#Ward-5-councillor--","IMAGE_URL":"https://www.waterloo.ca/en/government/resources/Images/Council-2019-2022/Jen.jpg","AREA_M":8405706.18957258,"Shape__Area":0.00093596119427274971,"Shape__Length":0.16522683211069378}},{"type":"Feature","id":6,"geometry":{"type":"Polygon","coordinates":[[[-80.54518627,43.444013016],[-80.545589174,43.444212351],[-80.546240838,43.444539923],[-80.546394257,43.444619942],[-80.54654568,43.444704992],[-80.54669287,43.4447939],[-80.546835643,43.4448865530001],[-80.546973819,43.444982834],[-80.5471072239999,43.4450826240001],[-80.547235692,43.445185796],[-80.547359059,43.445292222],[-80.547477171,43.4454017670001],[-80.547583049,43.445495287],[-80.547719829,43.445634496],[-80.5478760139999,43.4458120360001],[-80.548497176,43.4465628240001],[-80.548767058,43.446896216],[-80.5494663759999,43.4477309850001],[-80.5504940929999,43.448978266],[-80.5509657859999,43.4495371850001],[-80.551277947,43.4499257270001],[-80.5515738289999,43.450297468],[-80.551827582,43.4505973180001],[-80.552286244,43.4511466160001],[-80.552667054,43.4515736750001],[-80.553223476,43.452218986],[-80.553682549,43.4527156830001],[-80.5540194879999,43.453086383],[-80.554356432,43.4534570800001],[-80.554571236,43.4537017820001],[-80.554812102,43.453972885],[-80.5550203459999,43.4542175610001],[-80.555166693,43.4543998340001],[-80.555321471,43.4546136590001],[-80.5557813839999,43.4552821410001],[-80.555783724,43.4552855520001],[-80.5561595519999,43.455831792],[-80.556437897,43.4562338160001],[-80.5575049,43.4577748410001],[-80.5575294069999,43.457803971],[-80.5588442169999,43.4593672980001],[-80.559110032,43.459677895],[-80.559673582,43.460353126],[-80.560168497,43.460941313],[-80.560411839,43.461221541],[-80.560866112,43.461757968],[-80.561247298,43.4622084530001],[-80.561523208,43.4625409940001],[-80.561840154,43.462920264],[-80.56222795,43.4633847280001],[-80.562563532,43.4637887230001],[-80.562798302,43.4640909680001],[-80.562973471,43.464313539],[-80.563144742,43.4645552710001],[-80.5633461419999,43.46479164],[-80.5635588659999,43.4650225710001],[-80.5637866559999,43.465250821],[-80.563980814,43.465448807],[-80.564473993,43.465908187],[-80.564989372,43.4664197000001],[-80.565317979,43.4667524320001],[-80.565646549,43.467090641],[-80.565910377,43.4673464890001],[-80.5661900169999,43.4676462830001],[-80.5671136889999,43.468638555],[-80.5677701509999,43.4694163230001],[-80.56813952,43.4698396050001],[-80.568434328,43.470169459],[-80.568658296,43.4704113820001],[-80.568744107,43.470510328],[-80.5688262739999,43.4705928240001],[-80.568930931,43.470686363],[-80.5690206789999,43.470760668],[-80.5691291379999,43.4708487410001],[-80.569454476,43.4711184400001],[-80.569761145,43.4713688900001],[-80.5705871709999,43.4721144050001],[-80.5713309669999,43.4727883780001],[-80.571454323,43.472898421],[-80.5715551879999,43.472997422],[-80.571637284,43.473090873],[-80.571715581,43.4731897890001],[-80.571801304,43.47330243],[-80.5718757619999,43.4734122900001],[-80.571938916,43.473524846],[-80.571994431,43.4736538110001],[-80.572031255,43.4737662700001],[-80.5720679619999,43.473895165],[-80.5720971279999,43.4740267700001],[-80.572126294,43.4741997040001],[-80.572154542,43.4743568470001],[-80.572185266,43.4745412080001],[-80.572247724,43.4749063370001],[-80.572344944,43.4755127930001],[-80.5723735179999,43.4756994780001],[-80.572388215,43.4758861120001],[-80.5723814679999,43.4760858810001],[-80.572356821,43.4762506000001],[-80.5723129149999,43.4764214670001],[-80.572227993,43.4766559270001],[-80.5721100329999,43.476941004],[-80.572002342,43.4771529710001],[-80.5718960299999,43.477330011],[-80.569812126,43.480532096],[-80.5695601209999,43.480919294],[-80.569532962,43.4809610240001],[-80.569143002,43.48155597],[-80.568987001,43.481713015],[-80.568644004,43.481940025],[-80.567645988,43.4824939600001],[-80.566877995,43.482819013],[-80.565229695,43.4834998590001],[-80.564592708,43.483761321],[-80.564135687,43.483945083],[-80.563711085,43.484110678],[-80.563338855,43.4842477730001],[-80.563240552,43.4842832850001],[-80.563104865,43.484326046],[-80.562966306,43.4843636090001],[-80.562825248,43.4843958700001],[-80.562682077,43.484422743],[-80.562537178,43.4844441540001],[-80.5623909449999,43.4844600440001],[-80.5622439429999,43.48447036],[-80.5621062399999,43.4844749580001],[-80.5619685569999,43.4844746910001],[-80.561831054,43.484469566],[-80.5616940529999,43.484459595],[-80.561557877,43.4844448000001],[-80.561422848,43.4844252180001],[-80.5612892779999,43.484400893],[-80.561157486,43.4843718830001],[-80.5610298989999,43.484338806],[-80.5600144319999,43.4840556170001],[-80.558471681,43.48362587],[-80.556612249,43.4831101360001],[-80.556147739,43.482981296],[-80.556100161,43.4829681030001],[-80.555987606,43.482939049],[-80.555871208,43.4829134020001],[-80.55575329,43.482891749],[-80.555633787,43.482874091],[-80.555498751,43.482859245],[-80.5553626129999,43.4828495830001],[-80.555225965,43.482845152],[-80.555089188,43.4828459660001],[-80.55495266,43.4828520240001],[-80.554816758,43.4828633060001],[-80.554701403,43.482877396],[-80.5545483399999,43.4829014100001],[-80.554416572,43.4829281250001],[-80.554286915,43.4829598540001],[-80.5541597339999,43.4829965100001],[-80.554037611,43.483037246],[-80.5530643,43.4833846540001],[-80.551536777,43.4839406080001],[-80.551411501,43.4838277010001],[-80.5496032739999,43.482198629],[-80.549428252,43.4820406590001],[-80.5486438249999,43.4823928610001],[-80.548555743,43.4823520470001],[-80.548350812,43.4822569340001],[-80.54740455,43.482699934],[-80.547058554,43.482726502],[-80.546776512,43.48290174],[-80.546443784,43.4835834780001],[-80.5464288169999,43.4836920340001],[-80.5464100679999,43.483800181],[-80.546381095,43.483938885],[-80.546344221,43.4841333640001],[-80.546314519,43.484275559],[-80.5462933539999,43.4843932140001],[-80.546266777,43.48448617],[-80.546272087,43.4845599010001],[-80.546316631,43.4846339860001],[-80.546370629,43.4847228310001],[-80.546474679,43.4848606040001],[-80.546842979,43.4854028950001],[-80.546956618,43.4855701610001],[-80.546853455,43.485590266],[-80.5467149309999,43.485611014],[-80.5465809359999,43.4856276840001],[-80.546437985,43.4856385850001],[-80.546290552,43.48564701],[-80.546145387,43.485652987],[-80.546001385,43.4856540530001],[-80.545858525,43.4856526670001],[-80.545711185,43.485648805],[-80.545570588,43.485645789],[-80.545427778,43.48563785],[-80.545287236,43.485627462],[-80.545154586,43.485614647],[-80.54501522,43.485597711],[-80.544884856,43.4855799900001],[-80.5447533889999,43.4855598090001],[-80.544629801,43.4855388390001],[-80.5445118439999,43.4855170720001],[-80.544388281,43.485492826],[-80.5442624679999,43.4854685710001],[-80.5440378169999,43.4854234430001],[-80.543239208,43.485259711],[-80.542856179,43.4851828220001],[-80.5424518149999,43.4851009320001],[-80.542284438,43.4850691360001],[-80.542150734,43.4850473050001],[-80.542015874,43.4850295630001],[-80.541883202,43.4850200220001],[-80.541735864,43.485016155],[-80.5415974809999,43.485018058],[-80.5414511979999,43.4850232050001],[-80.541325128,43.4850333480001],[-80.5411590419999,43.4850539780001],[-80.540985502,43.4850934180001],[-80.540783671,43.485154859],[-80.540570534,43.485223627],[-80.540422211,43.485280248],[-80.540826992,43.4857286650001],[-80.5409029799999,43.485816179],[-80.5409740329999,43.485904771],[-80.541040697,43.485995044],[-80.541108924,43.4860962330001],[-80.5411716739999,43.4861991830001],[-80.54122891,43.486303822],[-80.5412806109999,43.486410129],[-80.5413205739999,43.48650279],[-80.541356319,43.486596508],[-80.541387745,43.4866910440001],[-80.541414882,43.486786523],[-80.5414319559999,43.486856819],[-80.5414553859999,43.4869761570001],[-80.541471975,43.4870956550001],[-80.541481841,43.4872162730001],[-80.541483619,43.487257184],[-80.5414843139999,43.487378087],[-80.541474382,43.4878209390001],[-80.54146661,43.4881671890001],[-80.541456648,43.4886114600001],[-80.5414544129999,43.4887110020001],[-80.54144948,43.4887932940001],[-80.541438593,43.4888738000001],[-80.541421694,43.488953752],[-80.541398832,43.489032916],[-80.5413700779999,43.4891110550001],[-80.541335558,43.489187841],[-80.541292475,43.4892680680001],[-80.5412431239999,43.489346261],[-80.541187628,43.489422237],[-80.541126173,43.489495742],[-80.5410589639999,43.4895665280001],[-80.54098623,43.4896343570001],[-80.5409082159999,43.489699],[-80.5408251819999,43.4897602410001],[-80.540737408,43.4898178710001],[-80.5406451919999,43.4898716970001],[-80.540547093,43.489922445],[-80.539787882,43.49029146],[-80.539638138,43.4903642450001],[-80.5380791969999,43.4911117180001],[-80.537987935,43.4911585500001],[-80.5378990729999,43.4912104480001],[-80.537814807,43.4912662610001],[-80.5377354619999,43.491325772],[-80.537661342,43.4913887540001],[-80.5375927329999,43.4914549630001],[-80.5375299,43.491524145],[-80.537473085,43.4915960330001],[-80.537422508,43.4916703480001],[-80.5373792679999,43.4917452380001],[-80.5373084299999,43.4918792770001],[-80.5373055159999,43.491878505],[-80.537160134,43.491835188],[-80.537033809,43.491793681],[-80.536909593,43.491749037],[-80.5367875749999,43.4917012880001],[-80.53666777,43.4916504340001],[-80.536570693,43.4916056870001],[-80.5364155789999,43.4915292650001],[-80.5362943439999,43.4914635430001],[-80.536176605,43.49139453],[-80.536062536,43.4913223290001],[-80.5359522959999,43.491247038],[-80.535847086,43.491169536],[-80.534477964,43.4901226540001],[-80.533905594,43.4896848710001],[-80.533743214,43.4895581850001],[-80.533583683,43.4894289150001],[-80.533427532,43.489297476],[-80.5332748169999,43.4891639160001],[-80.533125591,43.4890282800001],[-80.532979908,43.488890618],[-80.532837819,43.4887509800001],[-80.5326993749999,43.4886094120001],[-80.532564626,43.4884659680001],[-80.532433622,43.488320699],[-80.532306403,43.488173654],[-80.532183402,43.488025345],[-80.532067995,43.4878832000001],[-80.531069999,43.4866540240001],[-80.530659531,43.48614845],[-80.530587666,43.4860642610001],[-80.530511694,43.4859835340001],[-80.530430848,43.485905356],[-80.5303452909999,43.4858298830001],[-80.5302551939999,43.4857572660001],[-80.5301607339999,43.48568765],[-80.5300621009999,43.485621173],[-80.5299594909999,43.4855579680001],[-80.52985311,43.4854981620001],[-80.529742873,43.48544172],[-80.529661104,43.4854033170001],[-80.5295771689999,43.485366651],[-80.5294908179999,43.485331655],[-80.529471933,43.4853243630001],[-80.5293660309999,43.4852857430001],[-80.529259247,43.4852505200001],[-80.529150662,43.48521835],[-80.529039449,43.485189022],[-80.52900813,43.485181411],[-80.528882766,43.4851537010001],[-80.528757055,43.4851301740001],[-80.528629542,43.4851105330001],[-80.528543187,43.485099592],[-80.528456099,43.4850904630001],[-80.528348103,43.485081689],[-80.528240527,43.4850757940001],[-80.528095666,43.485072302],[-80.527950886,43.4850738650001],[-80.5278319719999,43.4850789560001],[-80.527713104,43.4850875000001],[-80.527593265,43.485099624],[-80.5270925299999,43.485157621],[-80.526395838,43.4852327990001],[-80.526312707,43.485239316],[-80.5262245919999,43.4852398150001],[-80.526136846,43.4852339450001],[-80.526050335,43.485221761],[-80.525965909,43.485203384],[-80.525884406,43.4851789960001],[-80.5258091329999,43.485149807],[-80.525775773,43.485134637],[-80.5257091029999,43.4850996000001],[-80.525645324,43.4850587880001],[-80.525587198,43.48501372],[-80.5255352629999,43.4849648100001],[-80.525494732,43.484917985],[-80.524773006,43.483988809],[-80.5246045489999,43.48377185],[-80.524505651,43.4836444470001],[-80.523859493,43.482833484],[-80.522741111,43.4813656210001],[-80.5220378449999,43.4804578210001],[-80.5218742329999,43.4802559090001],[-80.5217045109999,43.480067095],[-80.520986901,43.4792723050001],[-80.520890348,43.4791681830001],[-80.520058395,43.478280754],[-80.519811606,43.478010054],[-80.520363013,43.477812167],[-80.5214056999999,43.477438921],[-80.52143971,43.4775912640001],[-80.5215553,43.4781395420001],[-80.522347955,43.4780524500001],[-80.522317766,43.4779045020001],[-80.522192468,43.477323502],[-80.522155976,43.47717034],[-80.5221871429999,43.477159183],[-80.5245032,43.476332949],[-80.5249572659999,43.4761693520001],[-80.5257424609999,43.4758864450001],[-80.52783117,43.4751198700001],[-80.529873234,43.4743935110001],[-80.5315302389999,43.473780135],[-80.532885562,43.4732733610001],[-80.5334146549999,43.4730800310001],[-80.5339646749999,43.4728765090001],[-80.533875339,43.472803293],[-80.533743559,43.472683793],[-80.533484093,43.4724485190001],[-80.533224637,43.4722132410001],[-80.532809505,43.4718368000001],[-80.532653836,43.4716956300001],[-80.531797981,43.470919511],[-80.532284332,43.4706356830001],[-80.534569623,43.469301409],[-80.5347701599999,43.4691843200001],[-80.534966738,43.4690695250001],[-80.5350538439999,43.4690160260001],[-80.535135077,43.4689609980001],[-80.535212541,43.46890316],[-80.535286055,43.468842646],[-80.535356382,43.468778752],[-80.535902213,43.468257296],[-80.535942451,43.4682224330001],[-80.5359891429999,43.468189013],[-80.536039978,43.468158972],[-80.536094953,43.46813236],[-80.5361630579999,43.4681063630001],[-80.5362352339999,43.468085957],[-80.5363100989999,43.468071579],[-80.536386708,43.4680634100001],[-80.53646409,43.4680615570001],[-80.5365412689999,43.4680660380001],[-80.53661727,43.4680768000001],[-80.5366878149999,43.4680929450001],[-80.539073301,43.4687484040001],[-80.540803277,43.465408186],[-80.541032507,43.46496555],[-80.541453557,43.4642236890001],[-80.5416432869999,43.4638657610001],[-80.541800983,43.4635612370001],[-80.5418584779999,43.463443086],[-80.541908531,43.4633249510001],[-80.541951845,43.463205413],[-80.541988347,43.463084673],[-80.542017974,43.4629629400001],[-80.542040675,43.4628404170001],[-80.5420564739999,43.4627168430001],[-80.542070967,43.4623531030001],[-80.5420712,43.462284557],[-80.542071554,43.4621843050001],[-80.5420691209999,43.4620927220001],[-80.5420613699999,43.4620030560001],[-80.542048246,43.461913601],[-80.54203126,43.461830913],[-80.542009652,43.461748678],[-80.541983478,43.461667151],[-80.541952909,43.4615867910001],[-80.541909744,43.461490333],[-80.5418603099999,43.46139585],[-80.541804579,43.4613032460001],[-80.541742686,43.461212743],[-80.541674778,43.4611245570001],[-80.541601021,43.461038902],[-80.541521589,43.460955981],[-80.541434975,43.460874394],[-80.541268053,43.460724736],[-80.541080794,43.460556775],[-80.5407174549999,43.460231073],[-80.54070681,43.460221527],[-80.5405456399999,43.4600770480001],[-80.5404405199999,43.4599757610001],[-80.5403406039999,43.459871385],[-80.540246428,43.459764486],[-80.5401656609999,43.4596652010001],[-80.5400897279999,43.459563985],[-80.5400186749999,43.4594609060001],[-80.5399547389999,43.459362793],[-80.5398953759999,43.45925822],[-80.5398286239999,43.4591349840001],[-80.5397748519999,43.459017138],[-80.539727173,43.458897908],[-80.539685655,43.4587774620001],[-80.5396503539999,43.4586559680001],[-80.539621322,43.4585335960001],[-80.53960324,43.458416776],[-80.539556994,43.458142497],[-80.539524765,43.4578406140001],[-80.539497705,43.4573124360001],[-80.539477721,43.456761655],[-80.5394713919999,43.4564261],[-80.5394666829999,43.4562775840001],[-80.539469448,43.4561275730001],[-80.539479732,43.455977735],[-80.539497517,43.455828271],[-80.539522785,43.45567938],[-80.539555497,43.4555312590001],[-80.539595611,43.455384108],[-80.539643075,43.4552381230001],[-80.539697824,43.4550934970001],[-80.5397597859999,43.4549504240001],[-80.539828369,43.4548101340001],[-80.53984897,43.4547708650001],[-80.5398970639999,43.4546835400001],[-80.53994765,43.4545974770001],[-80.539950463,43.454592829],[-80.540027331,43.454471749],[-80.5401103459999,43.4543514910001],[-80.540198722,43.45423328],[-80.540292084,43.454117587],[-80.540360704,43.4540377220001],[-80.540431502,43.4539593470001],[-80.540504748,43.4538821730001],[-80.540580386,43.4538062350001],[-80.540658402,43.4537315700001],[-80.540738731,43.453658218],[-80.540821334,43.453586237],[-80.5409061669999,43.453515644],[-80.540993199,43.453446485],[-80.541082366,43.4533787880001],[-80.541173635,43.4533125990001],[-80.541266723,43.453248096],[-80.541337999,43.4532006580001],[-80.541715112,43.4529540820001],[-80.541772148,43.4529163010001],[-80.541917409,43.4528154720001],[-80.542057148,43.4527117420001],[-80.542192026,43.452604653],[-80.542322482,43.4524938340001],[-80.542387342,43.4524358050001],[-80.542451332,43.452376476],[-80.5425171379999,43.452313164],[-80.542581309,43.452249024],[-80.542643961,43.452183909],[-80.542704968,43.4521179700001],[-80.542764495,43.4520509990001],[-80.542822278,43.4519832990001],[-80.542883318,43.45190861],[-80.542942013,43.4518334050001],[-80.5430227539999,43.4517238190001],[-80.543098946,43.4516129030001],[-80.543170628,43.451500627],[-80.543249245,43.451366744],[-80.543321708,43.4512309200001],[-80.543371092,43.4511294850001],[-80.543417593,43.451025847],[-80.543678304,43.4504192470001],[-80.543744998,43.4502376190001],[-80.543808414,43.450066248],[-80.543879695,43.4498817080001],[-80.543945783,43.449699034],[-80.544001545,43.4495125460001],[-80.544044336,43.449329778],[-80.5440846509999,43.449131913],[-80.544118054,43.4489147580001],[-80.544141735,43.4487836920001],[-80.544163351,43.448636573],[-80.5441787669999,43.4485021790001],[-80.5441901,43.448367444],[-80.54419733,43.4482326310001],[-80.5441910169999,43.4480667670001],[-80.544189746,43.4478913680001],[-80.544175759,43.4476857430001],[-80.543816823,43.447227888],[-80.543722856,43.4471153320001],[-80.543478904,43.44682312],[-80.5431649939999,43.446447102],[-80.542967604,43.4462159400001],[-80.542783298,43.4459951650001],[-80.5425941949999,43.4457633530001],[-80.5424191,43.4455534210001],[-80.54231533,43.4454327500001],[-80.542091715,43.445172332],[-80.5420813379999,43.445160247],[-80.541819201,43.4448550020001],[-80.541493976,43.4444762850001],[-80.541491371,43.444473251],[-80.541494745,43.444472069],[-80.5414356649999,43.444382739],[-80.541351892,43.444256071],[-80.541297168,43.4441733250001],[-80.5412103479999,43.444042048],[-80.541047765,43.4437961950001],[-80.540941548,43.4436355440001],[-80.5411620249999,43.4435581480001],[-80.5413655,43.443486643],[-80.542578808,43.44306025],[-80.542828616,43.4430743390001],[-80.543326037,43.4433243930001],[-80.543386856,43.4433549660001],[-80.5438218479999,43.443573633],[-80.544335605,43.4438318890001],[-80.544401598,43.4438650590001],[-80.544807793,43.4440692430001],[-80.5449015849999,43.444116389],[-80.5450067209999,43.4439134560001],[-80.54518627,43.444013016]]]},"properties":{"OBJECTID":6,"WARD_NAME":"CENTRAL-COLUMBIA WARD","WARD_NO":6,"WARD":"WARD 6","COUNCILLOR":"Jeff Henry","OFFICE":"519-747-8784","FAX":"519-747-8500","HOME":null,"MOBILE":"519-998-5883","EMAIL":"jeff.henry@waterloo.ca","WEBSITE":"https://www.waterloo.ca/en/government/city-council.aspx#Ward-6-councillor--","IMAGE_URL":"https://www.waterloo.ca/en/government/resources/Images/Council-2019-2022/Jeff.jpg","AREA_M":9888689.30409534,"Shape__Area":0.0011008367346221348,"Shape__Length":0.17775965487743714}},{"type":"Feature","id":7,"geometry":{"type":"Polygon","coordinates":[[[-80.5397748519999,43.459017138],[-80.5398286239999,43.4591349840001],[-80.5398953759999,43.45925822],[-80.5399547389999,43.459362793],[-80.5400186749999,43.4594609060001],[-80.5400897279999,43.459563985],[-80.5401656609999,43.4596652010001],[-80.540246428,43.459764486],[-80.5403406039999,43.459871385],[-80.5404405199999,43.4599757610001],[-80.5405456399999,43.4600770480001],[-80.54070681,43.460221527],[-80.5407174549999,43.460231073],[-80.541080794,43.460556775],[-80.541268053,43.460724736],[-80.541434975,43.460874394],[-80.541521589,43.460955981],[-80.541601021,43.461038902],[-80.541674778,43.4611245570001],[-80.541742686,43.461212743],[-80.541804579,43.4613032460001],[-80.5418603099999,43.46139585],[-80.541909744,43.461490333],[-80.541952909,43.4615867910001],[-80.541983478,43.461667151],[-80.542009652,43.461748678],[-80.54203126,43.461830913],[-80.542048246,43.461913601],[-80.5420613699999,43.4620030560001],[-80.5420691209999,43.4620927220001],[-80.542071554,43.4621843050001],[-80.5420712,43.462284557],[-80.542070967,43.4623531030001],[-80.5420564739999,43.4627168430001],[-80.542040675,43.4628404170001],[-80.542017974,43.4629629400001],[-80.541988347,43.463084673],[-80.541951845,43.463205413],[-80.541908531,43.4633249510001],[-80.5418584779999,43.463443086],[-80.541800983,43.4635612370001],[-80.5416432869999,43.4638657610001],[-80.541453557,43.4642236890001],[-80.541032507,43.46496555],[-80.540803277,43.465408186],[-80.539073301,43.4687484040001],[-80.5366878149999,43.4680929450001],[-80.53661727,43.4680768000001],[-80.5365412689999,43.4680660380001],[-80.53646409,43.4680615570001],[-80.536386708,43.4680634100001],[-80.5363100989999,43.468071579],[-80.5362352339999,43.468085957],[-80.5361630579999,43.4681063630001],[-80.536094953,43.46813236],[-80.536039978,43.468158972],[-80.5359891429999,43.468189013],[-80.535942451,43.4682224330001],[-80.535902213,43.468257296],[-80.535356382,43.468778752],[-80.535286055,43.468842646],[-80.535212541,43.46890316],[-80.535135077,43.4689609980001],[-80.5350538439999,43.4690160260001],[-80.534966738,43.4690695250001],[-80.5347701599999,43.4691843200001],[-80.534569623,43.469301409],[-80.532284332,43.4706356830001],[-80.531797981,43.470919511],[-80.532653836,43.4716956300001],[-80.532809505,43.4718368000001],[-80.533224637,43.4722132410001],[-80.533484093,43.4724485190001],[-80.533743559,43.472683793],[-80.533875339,43.472803293],[-80.5339646749999,43.4728765090001],[-80.5334146549999,43.4730800310001],[-80.532885562,43.4732733610001],[-80.5315302389999,43.473780135],[-80.529873234,43.4743935110001],[-80.52783117,43.4751198700001],[-80.5257424609999,43.4758864450001],[-80.5249572659999,43.4761693520001],[-80.5245032,43.476332949],[-80.5221871429999,43.477159183],[-80.522155976,43.47717034],[-80.522192468,43.477323502],[-80.522317766,43.4779045020001],[-80.522347955,43.4780524500001],[-80.5215553,43.4781395420001],[-80.52143971,43.4775912640001],[-80.5214056999999,43.477438921],[-80.520363013,43.477812167],[-80.519811606,43.478010054],[-80.519578215,43.477756931],[-80.519375759,43.4775332],[-80.518959243,43.4770416440001],[-80.518651044,43.476677883],[-80.517914939,43.475780866],[-80.517330422,43.4750657170001],[-80.517190082,43.474898232],[-80.5170643129999,43.474744936],[-80.51684227,43.474474274],[-80.516795101,43.4744167700001],[-80.516782421,43.47440132],[-80.516722581,43.4743283700001],[-80.516606741,43.4741871730001],[-80.516548824,43.474116569],[-80.516490903,43.474045968],[-80.5163750679999,43.4739047580001],[-80.5161163559999,43.473589399],[-80.51596963,43.473410528],[-80.515911704,43.4733399260001],[-80.515564253,43.4729163750001],[-80.5152746909999,43.4725633750001],[-80.515168215,43.4724335830001],[-80.514962818,43.472247624],[-80.514559106,43.4718821170001],[-80.5144730439999,43.471804203],[-80.514142512,43.4715049430001],[-80.5128395089999,43.4703251940001],[-80.5125329969999,43.470047735],[-80.5121393219999,43.4696909240001],[-80.512076701,43.469634146],[-80.511806327,43.4693891000001],[-80.511779976,43.4693652110001],[-80.511588874,43.469191999],[-80.511352943,43.4689781430001],[-80.51111205,43.4687597990001],[-80.510966706,43.468628053],[-80.510700426,43.468458453],[-80.510212618,43.468170473],[-80.5101961679999,43.4681607570001],[-80.509834406,43.4679471850001],[-80.5098325819999,43.4679461040001],[-80.509547189,43.4677776130001],[-80.509181634,43.4675613860001],[-80.5090031779999,43.4674558770001],[-80.5088596959999,43.4673711020001],[-80.508342635,43.46706548],[-80.507992279,43.466858426],[-80.5077523369999,43.4667166340001],[-80.507024782,43.4662866620001],[-80.506952472,43.4662439140001],[-80.50678379,43.4661442410001],[-80.506614597,43.4660442520001],[-80.50605547,43.4657138000001],[-80.505648158,43.4654730780001],[-80.505104541,43.465151776],[-80.504776411,43.46495772],[-80.5027827279999,43.4637733370001],[-80.502461351,43.46358279],[-80.501979932,43.4632972840001],[-80.501509213,43.463017075],[-80.501431772,43.462946398],[-80.5015015669999,43.462922921],[-80.501770331,43.4628300790001],[-80.501963831,43.462762179],[-80.502170572,43.4626902200001],[-80.5024215669999,43.462602858],[-80.502644698,43.4625251940001],[-80.50291455,43.4624312670001],[-80.503076108,43.4623750330001],[-80.503271199,43.462307126],[-80.503499327,43.46222772],[-80.503667169,43.4621692970001],[-80.503840877,43.462110969],[-80.504003126,43.462056827],[-80.504234605,43.461979387],[-80.504301071,43.461957404],[-80.504478171,43.461897148],[-80.50469155,43.4618216370001],[-80.504588465,43.4617791860001],[-80.504439095,43.461721337],[-80.504516875,43.461691767],[-80.504771889,43.4616005520001],[-80.5050537549999,43.46149933],[-80.5052815459999,43.46141779],[-80.505513262,43.4613350230001],[-80.505962341,43.4611743900001],[-80.50617886,43.4610971820001],[-80.506395218,43.461019853],[-80.506620025,43.4609392080001],[-80.506871275,43.4608490730001],[-80.506988851,43.460806899],[-80.507149093,43.4607496150001],[-80.507326249,43.4606862810001],[-80.507529678,43.4606135550001],[-80.507839722,43.4605028780001],[-80.5081631959999,43.460387423],[-80.508302293,43.4603377820001],[-80.508485336,43.4602724590001],[-80.5086634309999,43.460208901],[-80.5087672929999,43.460171835],[-80.5090689579999,43.4600641760001],[-80.509341078,43.4599670600001],[-80.5100531699999,43.4597128230001],[-80.51037983,43.4595962290001],[-80.510681577,43.4594885160001],[-80.511052572,43.459356083],[-80.511319666,43.4592607390001],[-80.511451447,43.4592136960001],[-80.511530807,43.459285515],[-80.5117125479999,43.4591788010001],[-80.511972957,43.459024641],[-80.512180302,43.45890322],[-80.512270281,43.458850528],[-80.512439769,43.4589052210001],[-80.5126113489999,43.458962043],[-80.512695069,43.458989796],[-80.512856058,43.458932249],[-80.5131515749999,43.4588265740001],[-80.5133275009999,43.4587636630001],[-80.51345345,43.458718624],[-80.513700434,43.4586303020001],[-80.51383098,43.4585848560001],[-80.51405048,43.4585053960001],[-80.514227992,43.4584411650001],[-80.514423552,43.4583703850001],[-80.514631878,43.4582950830001],[-80.5147948549999,43.4582363280001],[-80.514851791,43.4582158260001],[-80.515086294,43.4581311210001],[-80.515244152,43.458075679],[-80.515672454,43.4579252440001],[-80.515931064,43.4578341980001],[-80.5162354729999,43.4577273260001],[-80.516506922,43.457631931],[-80.516961575,43.4574719560001],[-80.517143451,43.4574079600001],[-80.517281124,43.4573595160001],[-80.5175208749999,43.457275155],[-80.51768406,43.457217735],[-80.517761343,43.457190541],[-80.5179173669999,43.4571356500001],[-80.518092195,43.457074172],[-80.518390067,43.4569694240001],[-80.51853821,43.456917327],[-80.518759782,43.45683941],[-80.518887842,43.4567943760001],[-80.5190914359999,43.456722858],[-80.519379175,43.4566220200001],[-80.5195556909999,43.456560161],[-80.519896151,43.456440845],[-80.520126193,43.4563602260001],[-80.5202011499999,43.456333957],[-80.520350805,43.456195419],[-80.520410351,43.4561406560001],[-80.520472024,43.4560836700001],[-80.5206005639999,43.4559648330001],[-80.5207708679999,43.455807742],[-80.520934054,43.455656801],[-80.5211798,43.455430091],[-80.521244634,43.4553705810001],[-80.5212945219999,43.455324268],[-80.5213516329999,43.4552712500001],[-80.521444923,43.455184457],[-80.521519116,43.4551158740001],[-80.5214506029999,43.4550539370001],[-80.521657854,43.4549804540001],[-80.521841981,43.4549151750001],[-80.52195118,43.4548764560001],[-80.52206052,43.454837685],[-80.522138946,43.454821764],[-80.5223048189999,43.4547875710001],[-80.5225105599999,43.4547548080001],[-80.5233639269999,43.4546189160001],[-80.523492695,43.4545985250001],[-80.5239895349999,43.454519847],[-80.5247142119999,43.454405079],[-80.52478375,43.454394074],[-80.5248414769999,43.45438032],[-80.524973753,43.4543488040001],[-80.5250918369999,43.454320669],[-80.5252380429999,43.4542858340001],[-80.525414192,43.454243863],[-80.525675357,43.454181636],[-80.525903187,43.4541273390001],[-80.52600473,43.454103129],[-80.5261203319999,43.4540755670001],[-80.526244789,43.454045895],[-80.5263902039999,43.454011226],[-80.526525855,43.453978885],[-80.526666307,43.453945377],[-80.52681226,43.4539106010001],[-80.526967927,43.4538734860001],[-80.527106015,43.4538413400001],[-80.527229876,43.4538125870001],[-80.5271832989999,43.4537631160001],[-80.527067643,43.453640277],[-80.527008612,43.4535775790001],[-80.5269027159999,43.453465104],[-80.526846125,43.4534049970001],[-80.5267727569999,43.453327071],[-80.526667087,43.4532148390001],[-80.526617668,43.453162352],[-80.526558573,43.4530995850001],[-80.526538678,43.453078455],[-80.526561162,43.453069869],[-80.526586031,43.4530615370001],[-80.526619382,43.4530504310001],[-80.526639231,43.453042528],[-80.526686028,43.4530258080001],[-80.526711602,43.4530166710001],[-80.526748089,43.453004294],[-80.5267825179999,43.4529913330001],[-80.526833303,43.4529731870001],[-80.5268820969999,43.452955753],[-80.52691943,43.4529428750001],[-80.526971697,43.4529237400001],[-80.5270125059999,43.4529091590001],[-80.527065485,43.45289052],[-80.52711607,43.4528721550001],[-80.527178321,43.452850072],[-80.527232398,43.4528306870001],[-80.527261199,43.4528203620001],[-80.527291471,43.4528095110001],[-80.527341141,43.452791706],[-80.5273970279999,43.4527717670001],[-80.5274763159999,43.45274325],[-80.527486889,43.45273946],[-80.527504527,43.4527331370001],[-80.52755566,43.4527148070001],[-80.5276162009999,43.452693106],[-80.52771117,43.452659522],[-80.527751301,43.4526451830001],[-80.527805123,43.4526259530001],[-80.52786171,43.452605733],[-80.5279201129999,43.4525848660001],[-80.5279946539999,43.4525582310001],[-80.528076636,43.4525289360001],[-80.528151178,43.4525023],[-80.528192168,43.452487654],[-80.528254376,43.4524654260001],[-80.528299906,43.452449157],[-80.5283369059999,43.4524359370001],[-80.5283724559999,43.452423234],[-80.528425956,43.4524041180001],[-80.528480912,43.4523844810001],[-80.528542398,43.452362512],[-80.5285988049999,43.452342356],[-80.528654121,43.4523225900001],[-80.528736206,43.452293259],[-80.5287943289999,43.4522724920001],[-80.528829873,43.4522597910001],[-80.5288712239999,43.4522450150001],[-80.528924546,43.4522259610001],[-80.5289499419999,43.452216886],[-80.529025211,43.452189989],[-80.529070007,43.452173982],[-80.5291071899999,43.4521606960001],[-80.529140017,43.452148967],[-80.5291842679999,43.4521331540001],[-80.529229265,43.452117077],[-80.529253631,43.4521083700001],[-80.5292992189999,43.4520920800001],[-80.529331106,43.4520806850001],[-80.52935216,43.452073162],[-80.529367888,43.4520675430001],[-80.5293810699999,43.452062412],[-80.529409299,43.4520527440001],[-80.529442603,43.4520408440001],[-80.529475078,43.4520292390001],[-80.5295135169999,43.4520155170001],[-80.5295531579999,43.452001421],[-80.529588813,43.451988742],[-80.529630773,43.45197382],[-80.5296589659999,43.4519637940001],[-80.5297168389999,43.451943214],[-80.5297699239999,43.451924337],[-80.5298030819999,43.4519125460001],[-80.529824637,43.45190488],[-80.529870911,43.4518884250001],[-80.529900433,43.451877928],[-80.5299667689999,43.451854338],[-80.530046038,43.4518261470001],[-80.530101426,43.45180645],[-80.5301457529999,43.451790687],[-80.5301810349999,43.45177814],[-80.530219342,43.4517645170001],[-80.530266768,43.451747653],[-80.5303206689999,43.451728485],[-80.5303747199999,43.4517092630001],[-80.5304173549999,43.451694102],[-80.530470268,43.4516752860001],[-80.530519016,43.45165795],[-80.5305861799999,43.4516340650001],[-80.530711394,43.451589536],[-80.530829135,43.4515476650001],[-80.530923334,43.451514167],[-80.5310498699999,43.4514691680001],[-80.531143895,43.451435728],[-80.531283536,43.4513860660001],[-80.531363308,43.451357697],[-80.531525654,43.4512999620001],[-80.531658497,43.4512527200001],[-80.531795152,43.451204123],[-80.531925825,43.451157649],[-80.532099789,43.4510957800001],[-80.532229403,43.4510496840001],[-80.532356012,43.4510046550001],[-80.532503929,43.450952047],[-80.53258038,43.4509248580001],[-80.5327753139999,43.4508559720001],[-80.532887178,43.4508157490001],[-80.532980717,43.450782481],[-80.5331521799999,43.4507215],[-80.533350887,43.4506510000001],[-80.53343798,43.4506199850001],[-80.533556497,43.4505777790001],[-80.5336265349999,43.450552837],[-80.533691499,43.4505297010001],[-80.5337847009999,43.4504965410001],[-80.533841121,43.450476474],[-80.533869524,43.450511761],[-80.533901411,43.450551369],[-80.5339401639999,43.4505995260001],[-80.533992343,43.450664352],[-80.534033305,43.450715401],[-80.53403651,43.4507205360001],[-80.534044637,43.450734072],[-80.5340689179999,43.450774509],[-80.5340869189999,43.4508044880001],[-80.534107494,43.4508407160001],[-80.5341245339999,43.4508719510001],[-80.5341364769999,43.45089384],[-80.534157831,43.4509338870001],[-80.534174524,43.450967807],[-80.534190552,43.450998772],[-80.534205812,43.4510313870001],[-80.534227829,43.4510905340001],[-80.5342460159999,43.451139396],[-80.534265311,43.451192645],[-80.534285723,43.4512522090001],[-80.5343009489999,43.4512966400001],[-80.53431576,43.451346877],[-80.534324773,43.451382021],[-80.5343860099999,43.4513602230001],[-80.534507914,43.451316816],[-80.5346089349999,43.4512808430001],[-80.534706663,43.451246043],[-80.534828939,43.451202503],[-80.534942664,43.451162008],[-80.535018247,43.4511350930001],[-80.5351192589999,43.4510991240001],[-80.535195387,43.4510720150001],[-80.535261149,43.451048599],[-80.5353247469999,43.4510259520001],[-80.5354488259999,43.4509817680001],[-80.535571282,43.450938163],[-80.5357258889999,43.450883108],[-80.535844163,43.4508409910001],[-80.536005314,43.450783605],[-80.5361412079999,43.450735213],[-80.536356134,43.450658677],[-80.536576697,43.4505801330001],[-80.536746931,43.450519512],[-80.536877009,43.45047319],[-80.536993103,43.4504318460001],[-80.537189129,43.450362039],[-80.53736405,43.450299747],[-80.537524328,43.4502426700001],[-80.537675301,43.4501889040001],[-80.537985422,43.4500784630001],[-80.538191072,43.450005225],[-80.538426341,43.449921439],[-80.538581313,43.449866248],[-80.5386161879999,43.4498538280001],[-80.53872683,43.4498144250001],[-80.538838739,43.44977457],[-80.5389570149999,43.449732447],[-80.53914086,43.449666973],[-80.5393959259999,43.4495761330001],[-80.539760003,43.4494464690001],[-80.539989269,43.4493648150001],[-80.5400786069999,43.4493329970001],[-80.540201189,43.4492893390001],[-80.5402568929999,43.4492695010001],[-80.540325864,43.4492449360001],[-80.5404401659999,43.4492042260001],[-80.540576672,43.4491556090001],[-80.5407127779999,43.449107133],[-80.540843975,43.4490604050001],[-80.5409300869999,43.4490297360001],[-80.540997046,43.4490058870001],[-80.5409119779999,43.4489275650001],[-80.5408264339999,43.4488510830001],[-80.5407574,43.4487893630001],[-80.540717034,43.4487532740001],[-80.540650564,43.448693845],[-80.540564924,43.448617278],[-80.540526658,43.448583066],[-80.5404097429999,43.448478535],[-80.5402459269999,43.448332071],[-80.540082024,43.4481855280001],[-80.539934202,43.448053363],[-80.539798809,43.4479323090001],[-80.53963786,43.4477884040001],[-80.539504439,43.447669112],[-80.5393652019999,43.44754462],[-80.539257433,43.4474482630001],[-80.539149762,43.4473519920001],[-80.539044903,43.4472582340001],[-80.538971134,43.4471922760001],[-80.538903697,43.4471319800001],[-80.538809908,43.44704812],[-80.538706407,43.446955577],[-80.53863838,43.446894752],[-80.538813811,43.4468325710001],[-80.539058395,43.4467458780001],[-80.539269398,43.4466709480001],[-80.539464594,43.4466016200001],[-80.5396821369999,43.4465243760001],[-80.5398247959999,43.4464737530001],[-80.539951743,43.446428704],[-80.540138516,43.4463624250001],[-80.5402902439999,43.446308581],[-80.540459498,43.44624852],[-80.5406543409999,43.4461793770001],[-80.540921205,43.4460846740001],[-80.541136513,43.4460082680001],[-80.5414470599999,43.4458980650001],[-80.541719227,43.445801481],[-80.541918374,43.4457308070001],[-80.542141207,43.4456517240001],[-80.542291086,43.4455985330001],[-80.5424187739999,43.4455532160001],[-80.5425941949999,43.4457633530001],[-80.542783298,43.4459951650001],[-80.542967604,43.4462159400001],[-80.5431649939999,43.446447102],[-80.543478904,43.44682312],[-80.543722856,43.4471153320001],[-80.543816823,43.447227888],[-80.544175759,43.4476857430001],[-80.544189746,43.4478913680001],[-80.5441910169999,43.4480667670001],[-80.54419733,43.4482326310001],[-80.5441901,43.448367444],[-80.5441787669999,43.4485021790001],[-80.544163351,43.448636573],[-80.544141735,43.4487836920001],[-80.544118054,43.4489147580001],[-80.5440846509999,43.449131913],[-80.544044336,43.449329778],[-80.544001545,43.4495125460001],[-80.543945783,43.449699034],[-80.543879695,43.4498817080001],[-80.543808414,43.450066248],[-80.543744998,43.4502376190001],[-80.543678304,43.4504192470001],[-80.543417593,43.451025847],[-80.543371092,43.4511294850001],[-80.543321708,43.4512309200001],[-80.543249245,43.451366744],[-80.543170628,43.451500627],[-80.543098946,43.4516129030001],[-80.5430227539999,43.4517238190001],[-80.542942013,43.4518334050001],[-80.542883318,43.45190861],[-80.542822278,43.4519832990001],[-80.542764495,43.4520509990001],[-80.542704968,43.4521179700001],[-80.542643961,43.452183909],[-80.542581309,43.452249024],[-80.5425171379999,43.452313164],[-80.542451332,43.452376476],[-80.542387342,43.4524358050001],[-80.542322482,43.4524938340001],[-80.542192026,43.452604653],[-80.542057148,43.4527117420001],[-80.541917409,43.4528154720001],[-80.541772148,43.4529163010001],[-80.541715112,43.4529540820001],[-80.541337999,43.4532006580001],[-80.541266723,43.453248096],[-80.541173635,43.4533125990001],[-80.541082366,43.4533787880001],[-80.540993199,43.453446485],[-80.5409061669999,43.453515644],[-80.540821334,43.453586237],[-80.540738731,43.453658218],[-80.540658402,43.4537315700001],[-80.540580386,43.4538062350001],[-80.540504748,43.4538821730001],[-80.540431502,43.4539593470001],[-80.540360704,43.4540377220001],[-80.540292084,43.454117587],[-80.540198722,43.45423328],[-80.5401103459999,43.4543514910001],[-80.540027331,43.454471749],[-80.539950463,43.454592829],[-80.53994765,43.4545974770001],[-80.5398970639999,43.4546835400001],[-80.53984897,43.4547708650001],[-80.539828369,43.4548101340001],[-80.5397597859999,43.4549504240001],[-80.539697824,43.4550934970001],[-80.539643075,43.4552381230001],[-80.539595611,43.455384108],[-80.539555497,43.4555312590001],[-80.539522785,43.45567938],[-80.539497517,43.455828271],[-80.539479732,43.455977735],[-80.539469448,43.4561275730001],[-80.5394666829999,43.4562775840001],[-80.5394713919999,43.4564261],[-80.539477721,43.456761655],[-80.539497705,43.4573124360001],[-80.539524765,43.4578406140001],[-80.539556994,43.458142497],[-80.53960324,43.458416776],[-80.539621322,43.4585335960001],[-80.5396503539999,43.4586559680001],[-80.539685655,43.4587774620001],[-80.539727173,43.458897908],[-80.5397748519999,43.459017138]]]},"properties":{"OBJECTID":7,"WARD_NAME":"UPTOWN WARD","WARD_NO":7,"WARD":"WARD 7","COUNCILLOR":"Tenille Bonoguore","OFFICE":"519-747-8784","FAX":"519-747-8500","HOME":null,"MOBILE":null,"EMAIL":"tenille.bonoguore@waterloo.ca","WEBSITE":"https://www.waterloo.ca/en/government/city-council.aspx#Ward-7-councillor--","IMAGE_URL":"https://www.waterloo.ca/en/government/resources/Images/Council-2019-2022/Tenille.jpg","AREA_M":5671500.56639618,"Shape__Area":0.00063127851240096788,"Shape__Length":0.13136767487817913}}]}