{"type":"FeatureCollection","crs":{"type":"name","properties":{"name":"EPSG:4326"}},"features":[{"type":"Feature","id":1,"geometry":{"type":"Polygon","coordinates":[[[-79.4769877581701,43.9218108975339],[-79.4768428450958,43.9214173129087],[-79.4766394171089,43.9209104048625],[-79.4765559184721,43.9207022097955],[-79.4764939340833,43.9205393200213],[-79.4763855318937,43.9202722716911],[-79.4762813931779,43.9200187844786],[-79.4761492954676,43.9196748882092],[-79.4760253787289,43.9193130956717],[-79.4758115236311,43.9186980029262],[-79.4756394040834,43.9181509947618],[-79.4756386960164,43.9181509691079],[-79.4748368658709,43.9149684347183],[-79.4729425614315,43.9071101536253],[-79.4717320401167,43.9021440039728],[-79.4699225883711,43.8950716306867],[-79.4687102952758,43.8902074272458],[-79.4676262179983,43.8853167440904],[-79.4674390055306,43.8842558218331],[-79.4674128644578,43.8841076794744],[-79.473945170862,43.8827725502939],[-79.4815934307205,43.8811765486711],[-79.4861439442789,43.8802741912029],[-79.4892598180896,43.8796202693045],[-79.4898288639674,43.8795140771238],[-79.4910010692418,43.8794096374894],[-79.492234349347,43.8793067121079],[-79.5023601388093,43.8768168781671],[-79.5062797321976,43.8760329277259],[-79.5108818367977,43.8750224745562],[-79.5129780027729,43.8745155927587],[-79.5153685279545,43.8740673295578],[-79.5165611783837,43.8733986390261],[-79.5164523646374,43.8728976773817],[-79.5163053827744,43.8722209785891],[-79.5161528548214,43.8715465205305],[-79.5158945651406,43.8704398656862],[-79.5157828457528,43.8699066613788],[-79.5157701435171,43.8698501158712],[-79.5156438778405,43.8692880198572],[-79.5154654965823,43.8684774495814],[-79.5153600600711,43.8679922272618],[-79.5152755984655,43.8675444613278],[-79.5150826910927,43.8667028191291],[-79.5149639585617,43.8662120204481],[-79.5148114055787,43.8655697907266],[-79.5147186335141,43.8651663048325],[-79.5146189227672,43.8646614363252],[-79.5144233757941,43.8638916970974],[-79.5141456615428,43.8626577444743],[-79.5138889528652,43.8615153598133],[-79.5137966958019,43.86101148851],[-79.5134818919451,43.8610507005642],[-79.5128304987912,43.8611494558636],[-79.5125237849257,43.8612185734082],[-79.5119171086876,43.8613654455776],[-79.5115289308124,43.8614527662344],[-79.5083711360656,43.862168967538],[-79.5081215930867,43.8617815247799],[-79.5078846975516,43.8613012411923],[-79.5076964413028,43.8608666094953],[-79.5075787824976,43.8605949645307],[-79.5073685714258,43.8600429985911],[-79.5070780280155,43.8592198743748],[-79.5069422361763,43.8586778835146],[-79.5067978269536,43.8579827184752],[-79.5067368980654,43.8574327011061],[-79.5067087929958,43.8570631866688],[-79.5066576082056,43.8566213407624],[-79.5065316921518,43.8561875216127],[-79.5063670899713,43.8557982146348],[-79.5061533099892,43.8553902563079],[-79.5059146561087,43.8549819740953],[-79.5055900616794,43.8545275483721],[-79.5050741078877,43.8537644952271],[-79.5047854907014,43.8533645586513],[-79.5045699278611,43.8530286946542],[-79.5036581883659,43.8516750389044],[-79.5025537961844,43.8500668386755],[-79.5016043774736,43.8487309495024],[-79.5011968501768,43.8481132689329],[-79.5009322571501,43.8477496528428],[-79.5006766679144,43.8473437418025],[-79.5004177726503,43.8469325754793],[-79.5002425370695,43.8466433704591],[-79.5000713218973,43.8463607995865],[-79.4999427018297,43.8460897126715],[-79.4997876122046,43.8457628346293],[-79.4995664416433,43.8451565983326],[-79.4993628998657,43.8443435987823],[-79.4985951057121,43.8402367701093],[-79.4984864429959,43.8395055066812],[-79.4984919005112,43.8394962155202],[-79.4999244589699,43.8391959424646],[-79.5003155343674,43.8391020361297],[-79.5009401885475,43.8389346632024],[-79.501432951213,43.8387835625716],[-79.5017115863387,43.8386791739391],[-79.5019259789193,43.8385919478176],[-79.5023356594627,43.8384352539225],[-79.5025434244752,43.8383344343085],[-79.5028282022784,43.8382031125311],[-79.5032354443055,43.8380193716256],[-79.5035598031763,43.8378570519735],[-79.5037889162917,43.8377430060142],[-79.5039491075979,43.8376741549163],[-79.5040631547664,43.8376250476842],[-79.5043910386438,43.837480779985],[-79.5045042056662,43.8374320209348],[-79.5046446570474,43.8373715539795],[-79.504943139786,43.8372539099162],[-79.5052082439982,43.8371628411208],[-79.5055028175096,43.8370721562656],[-79.5057440937533,43.8369987800318],[-79.5060266402099,43.8369214428942],[-79.5061524661301,43.8368842985509],[-79.5064355250482,43.8368007365799],[-79.5067686663178,43.8367195562298],[-79.5071273217522,43.8366477128082],[-79.5071680671159,43.836639871779],[-79.5073234297563,43.8366097576311],[-79.5080603589568,43.8364616782589],[-79.5080600097798,43.8364613648746],[-79.5078353402188,43.8353945607213],[-79.5077531324953,43.8349650037409],[-79.5075636915078,43.8342467388844],[-79.5074741851398,43.8338320341444],[-79.5077893584969,43.8337610584762],[-79.508020645439,43.8338533058218],[-79.5084706793698,43.8338522485641],[-79.5100285359908,43.8335525843604],[-79.5106872721023,43.8339817318758],[-79.5109653777791,43.8341671409768],[-79.5109057921496,43.8345274997304],[-79.5110976466326,43.834940296879],[-79.5113349973376,43.8351742429356],[-79.5117796729775,43.8353240939396],[-79.5123149788523,43.835255614443],[-79.5124234756254,43.8353393203414],[-79.5125127528858,43.8355071346649],[-79.5137488223647,43.8352574375351],[-79.5143086076875,43.835129662983],[-79.5156516877467,43.8348590021627],[-79.5166901613842,43.8346428943627],[-79.5173269024924,43.8345161048935],[-79.5183070484609,43.834299225474],[-79.5187537953018,43.8342149823188],[-79.5190618393683,43.8341515371102],[-79.520399545381,43.8338499591351],[-79.5204031700291,43.8338491957438],[-79.5213235993845,43.8336270161569],[-79.5220427761664,43.8334652516516],[-79.5229711370037,43.833238659528],[-79.52506010245,43.8327884498578],[-79.525862139061,43.8326097235262],[-79.5269708597431,43.83237642285],[-79.5290032902684,43.8319164093205],[-79.5300241358143,43.8316594375792],[-79.5313806599686,43.831280810624],[-79.5326822151045,43.830911455682],[-79.5326862224982,43.830910336669],[-79.5329233529191,43.8308413523622],[-79.5333515527758,43.8307152160842],[-79.5335529994904,43.8306558556197],[-79.5336483188949,43.8306030569991],[-79.5340716684001,43.8304869407596],[-79.5342087123713,43.830446921941],[-79.5344255561727,43.8303834365981],[-79.5348411962112,43.8302671276758],[-79.535519667412,43.8301138498507],[-79.5361054545364,43.8299733290391],[-79.5365885725117,43.8298574343556],[-79.5389523690465,43.8293789786671],[-79.5402646593454,43.8291166378177],[-79.5410272474189,43.828955398149],[-79.5428612890449,43.828655660416],[-79.5428677827239,43.8286545727516],[-79.542993790554,43.8286383523604],[-79.544345995443,43.8284619173322],[-79.5454287175699,43.8283046370336],[-79.545706517352,43.8282653157037],[-79.546069682083,43.8282137536403],[-79.5462699598099,43.8281811885292],[-79.5462816719362,43.8281794836857],[-79.5470834624304,43.8359724197597],[-79.5473193662015,43.8384044239141],[-79.5476220823925,43.8416671405751],[-79.5480770444653,43.8446294473608],[-79.5486452535946,43.8469456473818],[-79.5486455898722,43.8469455805246],[-79.5486728810509,43.8469401468493],[-79.5486728865054,43.8469401784314],[-79.5486729377587,43.846940168278],[-79.5487351439205,43.847271273761],[-79.5488234097736,43.8477406809201],[-79.5489902016716,43.8489027846096],[-79.5489919951543,43.8489152747114],[-79.549000957945,43.8489378435842],[-79.5494593739739,43.8500920410142],[-79.5508155579537,43.8564538333087],[-79.5517593631292,43.8604733194346],[-79.5525659397646,43.8639079634482],[-79.5525730233181,43.8639275441945],[-79.553049894385,43.8652454566433],[-79.5548920884985,43.86488386716],[-79.5597183187161,43.8639584614275],[-79.5637672768345,43.8632139602268],[-79.5647995263502,43.8630476691786],[-79.5669857014825,43.8626842622124],[-79.5697462375419,43.8622335566065],[-79.5730342352578,43.8616207342665],[-79.5775393067194,43.8607295495304],[-79.5814007547423,43.8599554370344],[-79.5869243329513,43.8588471993662],[-79.590558692695,43.8581103943099],[-79.5904574201206,43.8576080933955],[-79.5949104828864,43.8566557956665],[-79.5964269831238,43.856338689316],[-79.5972795867585,43.8561676455614],[-79.6024276572261,43.8550795273255],[-79.6024285115617,43.8550260148014],[-79.602430528888,43.8548946432114],[-79.6022063524512,43.8540383136406],[-79.6021745510766,43.853901346721],[-79.6019894265626,43.8531042619407],[-79.6018745479611,43.8525361676843],[-79.6017285343117,43.8518531327135],[-79.601635859275,43.851419709774],[-79.6015898089882,43.8512594045998],[-79.6015391096024,43.8510830178324],[-79.6013876965406,43.8503856337173],[-79.6013487544228,43.8501819368684],[-79.6011419478207,43.8491005704929],[-79.6010749734175,43.8486579203959],[-79.6010230335961,43.8483839772197],[-79.6009635780592,43.8481541210412],[-79.6008077899065,43.8477677238123],[-79.6007645244637,43.8476604360359],[-79.6007645167467,43.8476603936243],[-79.6007645015041,43.8476603538216],[-79.6007521453422,43.8475944741357],[-79.6006638547179,43.8471240268165],[-79.6004873120995,43.8464753131237],[-79.6003626389805,43.8458111179566],[-79.5996616320818,43.8459599638516],[-79.5996386733746,43.8459648406636],[-79.5996359627972,43.8459654160895],[-79.5995854735526,43.845976176095],[-79.5966191108684,43.8466037096053],[-79.5958890584019,43.8467588769673],[-79.5957099843332,43.8467969360309],[-79.595064396979,43.8469341583005],[-79.5948709898968,43.8469749281767],[-79.594055885976,43.8471468110306],[-79.5933843950469,43.847288285201],[-79.5930085686558,43.8473675016369],[-79.5918666372488,43.8476120197561],[-79.5901770170286,43.8479584160058],[-79.5901609083928,43.8479057152331],[-79.5901158746975,43.8477584308768],[-79.588810083219,43.8480392698834],[-79.5882845108411,43.8481523026121],[-79.5875973441388,43.8450992820288],[-79.5869217434214,43.8423767309444],[-79.5868853218767,43.8422027001269],[-79.586705995593,43.8413458461708],[-79.586278702473,43.8404764801489],[-79.5863051320055,43.8397247575756],[-79.5869675175254,43.8395716208752],[-79.5871851831488,43.8395145282219],[-79.5871857782791,43.8395143474042],[-79.5872970964004,43.839480578019],[-79.5875456395079,43.839405178458],[-79.5881640375084,43.8391975438681],[-79.58936223592,43.838762160143],[-79.590003433742,43.8385629903569],[-79.5902415809444,43.8384810244148],[-79.5906019275404,43.8383811174542],[-79.5913837960626,43.8381822334679],[-79.5922790689957,43.8379846530903],[-79.5935822290296,43.8377067314266],[-79.5947361317098,43.8374650447705],[-79.5967216810052,43.8370375535018],[-79.5995144186976,43.8364366995859],[-79.6006901619887,43.8361951303287],[-79.6028949175034,43.8357196152828],[-79.6050932217331,43.8352472201632],[-79.6071777773088,43.8347974359371],[-79.6086587329482,43.8344898161901],[-79.6089187333685,43.8344237436705],[-79.6101976387609,43.834155240839],[-79.6110059541216,43.8339745521561],[-79.6123380069557,43.8336928957658],[-79.6123794477075,43.8337026728038],[-79.6176284378279,43.8324894865159],[-79.6177685568618,43.8324379699376],[-79.6180196912048,43.8323456587763],[-79.6182144590489,43.8322690530102],[-79.6183750295308,43.8322058972618],[-79.6189123012182,43.8319647916171],[-79.618983908143,43.8319282990825],[-79.6191884271827,43.8318240692057],[-79.619210734449,43.8318126718223],[-79.61928533996,43.8317745505551],[-79.6193433608145,43.8317449092818],[-79.6194591870479,43.8316787812562],[-79.6196048989677,43.8315949167871],[-79.619876607006,43.8314407247643],[-79.6200852126155,43.8312991855127],[-79.6202870202993,43.8311395564573],[-79.620498689394,43.8309621287972],[-79.6207528632962,43.8307265999279],[-79.6209937309249,43.8304909098947],[-79.6212595493995,43.8301924046872],[-79.6213574222969,43.8300847312413],[-79.6214620546615,43.8299697562497],[-79.6216543814126,43.8297515765344],[-79.6219255397406,43.8294531341467],[-79.6222111574534,43.8291369481432],[-79.622515712212,43.8288029823545],[-79.6226644548628,43.8286247019504],[-79.6229477023035,43.8283084854822],[-79.6231814635551,43.8280456940612],[-79.6234414561425,43.8277562062429],[-79.6236759786708,43.8274979256895],[-79.6239570611027,43.8271726768961],[-79.6242478999286,43.8268610494694],[-79.6245650923303,43.8265227292854],[-79.6247363059516,43.8263402147518],[-79.6247853680118,43.8263021344529],[-79.624896228763,43.8262160879704],[-79.6249854911292,43.8261366908963],[-79.625031057256,43.8260961608388],[-79.625348227526,43.8258613795397],[-79.6256053081776,43.825697904012],[-79.6258779496312,43.8255391159689],[-79.6261751245206,43.8253896277184],[-79.6264465244768,43.8252848463449],[-79.6268652262042,43.8251233097511],[-79.6268674650856,43.8251226973948],[-79.6271589492093,43.8250428356534],[-79.6274009816563,43.8249766850881],[-79.6280376066611,43.8248402718498],[-79.628658197337,43.8247576846952],[-79.6292472144986,43.8247287374793],[-79.6300673117551,43.8246935533081],[-79.6313241490775,43.8246591853683],[-79.631302348484,43.8255097718481],[-79.631308551628,43.8261580208793],[-79.6313093689743,43.8264596538354],[-79.6313163928232,43.8270719879299],[-79.6313303566937,43.8275493499704],[-79.6313307071899,43.8279095011476],[-79.6313379695351,43.8283372626455],[-79.6313536260505,43.8287787193029],[-79.6313693690398,43.8291074527849],[-79.6313792765751,43.82949022752],[-79.6316796897282,43.8295748584087],[-79.6318490302304,43.8296534173455],[-79.6320435547957,43.8297728840912],[-79.6321464156705,43.8298325493046],[-79.6322557979373,43.8298789670523],[-79.6324111465637,43.8299167511125],[-79.6325607902755,43.8299320475476],[-79.6326757017475,43.8299379245045],[-79.6327773281317,43.8299481442211],[-79.6329535588599,43.829959256427],[-79.6330918232136,43.8299609105178],[-79.6332561338011,43.8299493704813],[-79.6333211370731,43.8299458262179],[-79.6333923654767,43.8299419962234],[-79.633532759711,43.8299211660749],[-79.6335703531889,43.8299135591556],[-79.633721807874,43.829882910182],[-79.6339150993001,43.8298221955264],[-79.6346663319282,43.8294665256457],[-79.634915106793,43.8293614538781],[-79.6351580972837,43.8292428051644],[-79.6355394455035,43.8290177676954],[-79.6355567872518,43.8290044692655],[-79.6357215739785,43.8288447471054],[-79.6358595990737,43.8287109635287],[-79.6361000400603,43.8285292584394],[-79.6363915964358,43.8283256536595],[-79.6369030420544,43.8279851144907],[-79.6373617786227,43.8277744977455],[-79.637914640122,43.8275920122184],[-79.6385454333495,43.82740595074],[-79.6395276157693,43.8271790516552],[-79.6408281668939,43.8268974076028],[-79.6425422182493,43.8265171194895],[-79.6467700169999,43.8255813639768],[-79.6487543201599,43.8251365650573],[-79.6595776711934,43.8227431015926],[-79.6597530896339,43.8234789596282],[-79.6639842973174,43.8225471077925],[-79.6658162688092,43.8221588448404],[-79.6664527814004,43.8220222159896],[-79.6698690109785,43.8212697091607],[-79.6730968576777,43.8205689347295],[-79.6731203692492,43.8205638190401],[-79.6752449462369,43.8201015367997],[-79.676973497713,43.8197254226994],[-79.6777326186254,43.8195602365416],[-79.6782386931338,43.8194490435207],[-79.6783604005755,43.8194279420383],[-79.6786778081133,43.8193460776888],[-79.6786806318154,43.8193506013831],[-79.6789396731756,43.819765648741],[-79.6789803208586,43.819834006517],[-79.6793075177242,43.8204024103],[-79.6798333527798,43.821307595352],[-79.6809401716017,43.8232247479581],[-79.6817238993583,43.8246420591857],[-79.6821368447688,43.8253681978699],[-79.682517338978,43.8260435401942],[-79.6831740762063,43.827176210788],[-79.683653302383,43.8279664934536],[-79.6838492822617,43.8282901815155],[-79.6844369829755,43.8292783505355],[-79.6850581157704,43.8303704443286],[-79.6871594921969,43.8340140849471],[-79.6875929360232,43.8347642081141],[-79.688149315964,43.8357284977715],[-79.6886313670746,43.8365434610511],[-79.6892972619398,43.8376942971648],[-79.6900269103315,43.8389058245321],[-79.6908020371193,43.8402460802947],[-79.6912728998739,43.8410355133621],[-79.6916027921724,43.8415934667778],[-79.6921876935498,43.8425847132185],[-79.6930490567284,43.8440762110722],[-79.6935666291846,43.844973942285],[-79.6937421807293,43.8452752309008],[-79.694221725964,43.8460978839428],[-79.6949798762135,43.8473578734391],[-79.6952487062513,43.8478151778305],[-79.6954916483031,43.8482332001876],[-79.69564488575,43.8484346505747],[-79.6957419850406,43.8485632506804],[-79.6959193807718,43.8487865852077],[-79.6960237490815,43.8489185093427],[-79.6961220677602,43.8490311865671],[-79.6962207364176,43.8491449481368],[-79.6965045316089,43.8493957863966],[-79.6967373781985,43.8495982334571],[-79.6968400569945,43.8496879104351],[-79.6967723136518,43.8497364778244],[-79.696640780098,43.8498520250219],[-79.6965892623826,43.8499324702316],[-79.6965891144724,43.8499335489825],[-79.6965643200542,43.8500323063126],[-79.6965916422643,43.8501316581428],[-79.6969279584025,43.8506390681946],[-79.6969875607708,43.8507415791735],[-79.6989139927412,43.8540556249473],[-79.7000360579995,43.8559501577455],[-79.7008955663731,43.8574185230679],[-79.7021939614424,43.8596166602377],[-79.7025149273901,43.8601651154427],[-79.7025890724409,43.8602921883458],[-79.7027118148722,43.8604907616183],[-79.7030424016314,43.8610263592655],[-79.7036498376635,43.8620801951434],[-79.7042102592036,43.8630534521734],[-79.7043449969953,43.8632789904679],[-79.7046168312609,43.8637362157672],[-79.7049832911095,43.8643810681258],[-79.7052526205978,43.864856720891],[-79.7056927798862,43.8656217040483],[-79.7060912698372,43.866294196484],[-79.7063178740892,43.8666746446083],[-79.7067582012555,43.8674618643123],[-79.7068638700257,43.8676513260779],[-79.7070938767694,43.8680245172561],[-79.7073195471968,43.8683911780831],[-79.7079042588054,43.8693745948659],[-79.7080298615111,43.8696152414244],[-79.7081444536749,43.8698355952339],[-79.7082286054222,43.869978713844],[-79.7088714009994,43.8710747871459],[-79.7091048009214,43.8714995140401],[-79.7091985541596,43.8716708316715],[-79.7097251648858,43.8726041524074],[-79.71017437348,43.8734106362472],[-79.7107341340781,43.874418426061],[-79.7107362904425,43.8744223219476],[-79.7107375951733,43.874425307863],[-79.7107126111671,43.874429527761],[-79.7105337684843,43.8744635240727],[-79.6985612268269,43.8770648811352],[-79.697379252605,43.8773620367028],[-79.6973301414655,43.8771138775123],[-79.693028463348,43.8780236377242],[-79.692843902191,43.8780620426895],[-79.6891201167985,43.8789107381507],[-79.6872090887351,43.8793119667217],[-79.6845853068563,43.8798310103351],[-79.6787349692907,43.8810960413638],[-79.6778378807469,43.8812747397219],[-79.6734407875923,43.8822501838463],[-79.6729674474718,43.882370737696],[-79.6729860096087,43.8824429820741],[-79.6727166215061,43.8824938746353],[-79.649301991167,43.8876711531097],[-79.6492777443476,43.8876753682649],[-79.6365698905191,43.8902795282387],[-79.6304832986423,43.8915077514319],[-79.6302987824039,43.8915460557001],[-79.6249221528179,43.8926204264847],[-79.62498437449,43.8928597700913],[-79.5997812841338,43.8981944164112],[-79.5997410563784,43.8979823396287],[-79.5743731288097,43.9034173921163],[-79.574410701431,43.903575333075],[-79.5728951308587,43.9039076409547],[-79.5679113558481,43.904930208486],[-79.5677267604158,43.9049684104987],[-79.5627958315402,43.9059869151247],[-79.5626581312341,43.9060166952824],[-79.558790220388,43.906836811668],[-79.5543715142526,43.907780380267],[-79.5506287687971,43.9085702910187],[-79.5506108564166,43.9085745655536],[-79.5491644943223,43.9088668299494],[-79.5418769640458,43.9104847275065],[-79.5356408442632,43.9118725447058],[-79.5330112332724,43.9124510505084],[-79.5282910137343,43.9134617645777],[-79.5242641422811,43.9143153061411],[-79.5242636620467,43.9143145796557],[-79.5209922545973,43.9149896776395],[-79.513572666703,43.9165331083156],[-79.5080174622095,43.9178066733593],[-79.5080071961757,43.9178031431648],[-79.5075962149076,43.917891253473],[-79.5070981071516,43.9179980405811],[-79.5067474352193,43.918073217224],[-79.5063831113505,43.9181513205252],[-79.5059908883203,43.9182354026111],[-79.5056575051554,43.9183068701464],[-79.5053422893605,43.9183744417689],[-79.5050483905642,43.9184374421627],[-79.5047600926314,43.9184992420037],[-79.5044692381853,43.9185615892776],[-79.5041276953014,43.9186348002509],[-79.5038469569082,43.9186949761885],[-79.5034380287568,43.918782629309],[-79.5029176080281,43.9188941775463],[-79.5024990507507,43.9189838898749],[-79.5020683110137,43.9190762113223],[-79.5017206723945,43.9191507208022],[-79.5015709229277,43.9191828162493],[-79.5016372950712,43.919434296961],[-79.4963762913825,43.9204365535028],[-79.4902029026817,43.9216940493594],[-79.4901628409925,43.9217026053725],[-79.4901576669617,43.9216999826981],[-79.4896493621544,43.9218002041204],[-79.4892597892845,43.9218770140449],[-79.4888592026148,43.9219559935629],[-79.4884659597472,43.9220335238329],[-79.4880742482068,43.9221107506862],[-79.4876381509939,43.92219672618],[-79.4873113120331,43.9222611598339],[-79.4868960393194,43.9223430271068],[-79.4864400498191,43.9224329184905],[-79.4860578101702,43.9225082696235],[-79.4856697644634,43.9225847642926],[-79.4853355801578,43.9226506399228],[-79.4849245712549,43.9227316579936],[-79.4845506068457,43.9228053725363],[-79.4841594851822,43.9228824677154],[-79.4837448025604,43.9229642043905],[-79.4832719879403,43.9230573981823],[-79.4828713872023,43.9231363564755],[-79.4825142339216,43.9232067492011],[-79.482108424443,43.9232867304547],[-79.4816701760299,43.9233731047157],[-79.481284254029,43.9234491634077],[-79.4807759204498,43.9235493439872],[-79.4802336121363,43.9236562191398],[-79.4802360024701,43.9236634636476],[-79.4777158829168,43.9241519361016],[-79.4777151522463,43.9241525007894],[-79.4776056798065,43.923741382484],[-79.4775618507562,43.9235697317851],[-79.4775002519168,43.9233573293717],[-79.477402212955,43.9230499035361],[-79.4773292058839,43.9228013331361],[-79.477243114768,43.9225480883331],[-79.4771976024973,43.9224034246555],[-79.4769877581701,43.9218108975339]]]},"properties":{"OBJECTID":1,"GEO_ID":0,"FCODE":0,"DESCRIP":"MAPLE/KLEINBURG","STATUS":"Marilyn Iafrate","ID":1,"FEATURE":"WARDS","WARD_NO":"Ward 1","CATEGORY":"ADMINISTRATIVE","GLOBALID":"145f38d7-50a6-40ce-98fe-d8b78a0b7b14","CREATED_USER":"Sylvia.Cardenas_vaughan","CREATED_DATE":1705935735724,"LAST_EDITED_USER":"Sylvia.Cardenas_vaughan","LAST_EDITED_DATE":1705935735724,"Shape__Area":224636307.23046875,"Shape__Length":89038.148126797052}},{"type":"Feature","id":2,"geometry":{"type":"Polygon","coordinates":[[[-79.4844533087271,43.7839041584128],[-79.484639501307,43.7848740732053],[-79.4848084917389,43.7860558013506],[-79.4851748417148,43.787789370944],[-79.4856267331678,43.790073297772],[-79.4861048808663,43.7923035395545],[-79.4863058260423,43.7932065718479],[-79.4866941555692,43.7950574738915],[-79.4870176503249,43.7967201036961],[-79.4880899830448,43.8023058900823],[-79.4881951097718,43.8027901307978],[-79.4875087920335,43.802922045934],[-79.4864352508367,43.8031464274076],[-79.48516866531,43.8034681832977],[-79.48412962738,43.8039840896058],[-79.4833717020891,43.8046161757811],[-79.4829544684586,43.8052357618641],[-79.4825755323879,43.8064782803335],[-79.481566527968,43.8062377133513],[-79.480029182357,43.8059277149788],[-79.4788220482608,43.8056618887466],[-79.4778600133806,43.8054576589276],[-79.4763615361976,43.8053611560677],[-79.4752159174889,43.8055273883133],[-79.4745970683532,43.8056340198696],[-79.4747924744739,43.8067634343807],[-79.4749313390492,43.8073987867122],[-79.4751348172968,43.8083238390726],[-79.4754261860288,43.8096650421557],[-79.4756000830095,43.8106097777559],[-79.4758145402075,43.8118127381964],[-79.4760059800532,43.8128407207119],[-79.4764320444279,43.8148517879982],[-79.4764898733051,43.8151398669939],[-79.476508944633,43.8157003294114],[-79.4770237753608,43.8174199598562],[-79.4771375119169,43.8179107348465],[-79.4772248420932,43.8183201248071],[-79.4772663939118,43.8185296535671],[-79.4775877171085,43.8201537839596],[-79.4776603504078,43.8204371064661],[-79.4777409253334,43.82080880749],[-79.4777609734708,43.8209011450969],[-79.4775727615034,43.8210260392583],[-79.4772568693166,43.8212621374679],[-79.476546257526,43.821660260579],[-79.4760075567613,43.8218849209059],[-79.4755055173577,43.8220615381212],[-79.47435555295,43.8224588276665],[-79.4730321010982,43.8229193329533],[-79.4720649896413,43.8232404391268],[-79.4705732935521,43.8237428738011],[-79.4679033075287,43.8246469947991],[-79.4665105602805,43.8251191901816],[-79.4639863669932,43.8259781768124],[-79.4598833976766,43.8274225944511],[-79.4563566408884,43.8286708959694],[-79.4545295140085,43.8292209740273],[-79.4509989164783,43.8298976027652],[-79.4462172383583,43.8305428846037],[-79.4444805446377,43.8308520288073],[-79.439575994186,43.8318826958494],[-79.4340992249413,43.833014525109],[-79.4309098626933,43.8344252412376],[-79.4290305701451,43.8359484612542],[-79.4286820889594,43.8343744141996],[-79.4281611725503,43.8324169914188],[-79.4278311745585,43.8305563510715],[-79.427385584917,43.828703213794],[-79.4270284162538,43.8271920784586],[-79.4267803400916,43.8261256030679],[-79.426521801255,43.8250600633179],[-79.4259800329537,43.822809523166],[-79.4254242387334,43.8202709387951],[-79.424479607305,43.8163394373981],[-79.4243967645271,43.8150687794679],[-79.4239738863627,43.8139482953428],[-79.4237267246211,43.8129454796509],[-79.4235104215739,43.8119562343901],[-79.4232941712288,43.8107620659154],[-79.4231453020228,43.8100976119689],[-79.4227797303026,43.8086111931984],[-79.4223751431256,43.8071481839922],[-79.4221703069311,43.8062490394037],[-79.4219676305704,43.8053908926581],[-79.4210849106805,43.8018344020707],[-79.4208364212577,43.8008854919552],[-79.4205874613715,43.7999546720543],[-79.4203047916751,43.7990156413746],[-79.4205775110884,43.7979285524543],[-79.4273431719573,43.7964633075704],[-79.4292848994514,43.7960396363778],[-79.4304228054998,43.7957780656318],[-79.432207791293,43.7953683233536],[-79.4339965002777,43.7949865146804],[-79.4365477014012,43.7944210777554],[-79.4383870709833,43.7940239703298],[-79.439664460686,43.7937481662427],[-79.4410385205321,43.7934580940185],[-79.4428692604475,43.7930528570701],[-79.445729829758,43.7924512844603],[-79.4529955255007,43.79088231074],[-79.4558092820932,43.7902550651139],[-79.4576260723634,43.789878600735],[-79.4597212143953,43.7894268749192],[-79.4631997326573,43.7886785949646],[-79.4669803734707,43.7879041659421],[-79.4700825079705,43.7872832637623],[-79.4747185758597,43.7862026206377],[-79.480997129722,43.784723801056],[-79.4844533087271,43.7839041584128]]]},"properties":{"OBJECTID":2,"GEO_ID":0,"FCODE":0,"DESCRIP":"THORNHILL","STATUS":"Gila Martow","ID":5,"FEATURE":"WARDS","WARD_NO":"Ward 5","CATEGORY":"ADMINISTRATIVE","GLOBALID":"99e0c0d9-5837-4b77-8cdc-53bf7bd426b1","CREATED_USER":"Sylvia.Cardenas_vaughan","CREATED_DATE":1705935735724,"LAST_EDITED_USER":"Sylvia.Cardenas_vaughan","LAST_EDITED_DATE":1705935735724,"Shape__Area":37226941.796875,"Shape__Length":26528.56383403467}},{"type":"Feature","id":3,"geometry":{"type":"Polygon","coordinates":[[[-79.4618772056545,43.861700215996],[-79.4616090985402,43.8605126333719],[-79.4612988192508,43.8591219009745],[-79.4608635370381,43.8572702998793],[-79.4608637654247,43.8572701282861],[-79.4608633286819,43.8572686773245],[-79.4604183105771,43.8553312591437],[-79.4604110758057,43.8553329308637],[-79.4603528327585,43.8550530351612],[-79.46031030786,43.8548633863913],[-79.4603089659292,43.8548574646434],[-79.4596177126742,43.8518063288036],[-79.4591807502055,43.8498691622336],[-79.458934771525,43.8488214256021],[-79.4588240586029,43.8484102678065],[-79.4586815281911,43.8477396763519],[-79.4586715502927,43.8476927382527],[-79.4586714837638,43.8476924231291],[-79.4545294201592,43.8292209961673],[-79.4563566408884,43.8286708959694],[-79.4598833976766,43.8274225944511],[-79.4639863669932,43.8259781768124],[-79.4665105602805,43.8251191901816],[-79.4679033075287,43.8246469947991],[-79.4705732935521,43.8237428738011],[-79.4720649896413,43.8232404391268],[-79.4730321010982,43.8229193329533],[-79.47435555295,43.8224588276665],[-79.4755055173577,43.8220615381212],[-79.4760075567613,43.8218849209059],[-79.476546257526,43.821660260579],[-79.4772568693166,43.8212621374679],[-79.4775727615034,43.8210260392583],[-79.4777609734708,43.8209011450969],[-79.4777409253334,43.82080880749],[-79.4776603504078,43.8204371064661],[-79.4775877171085,43.8201537839596],[-79.4772663939118,43.8185296535671],[-79.4772248420932,43.8183201248071],[-79.4771375119169,43.8179107348465],[-79.4770237753608,43.8174199598562],[-79.476508944633,43.8157003294114],[-79.4764898733051,43.8151398669939],[-79.4764320444279,43.8148517879982],[-79.4760059800532,43.8128407207119],[-79.4758145402075,43.8118127381964],[-79.4756000830095,43.8106097777559],[-79.4754261860288,43.8096650421557],[-79.4751348172968,43.8083238390726],[-79.4749313390492,43.8073987867122],[-79.4747924744739,43.8067634343807],[-79.4745970683532,43.8056340198696],[-79.4752159174889,43.8055273883133],[-79.4763615361976,43.8053611560677],[-79.4778600133806,43.8054576589276],[-79.4788220482608,43.8056618887466],[-79.480029182357,43.8059277149788],[-79.481566527968,43.8062377133513],[-79.4825755323879,43.8064782803335],[-79.4829544684586,43.8052357618641],[-79.4833717020891,43.8046161757811],[-79.48412962738,43.8039840896058],[-79.48516866531,43.8034681832977],[-79.4864352508367,43.8031464274076],[-79.4875087920335,43.802922045934],[-79.4881951097718,43.8027901307978],[-79.4880899830448,43.8023058900823],[-79.4870176503249,43.7967201036961],[-79.4866941555692,43.7950574738915],[-79.4863058260423,43.7932065718479],[-79.4861048808663,43.7923035395545],[-79.4856267331678,43.790073297772],[-79.4851748417148,43.787789370944],[-79.4848084917389,43.7860558013506],[-79.484639501307,43.7848740732053],[-79.4844533087271,43.7839041584128],[-79.4853390777701,43.7836998473028],[-79.4865463066601,43.7834187198129],[-79.4870309775528,43.7833006168154],[-79.4872647906378,43.7832443779273],[-79.4873869522612,43.7832148431551],[-79.487517722241,43.7831839798006],[-79.4882121585746,43.7830266908077],[-79.4886309202298,43.7829248160481],[-79.4890552553238,43.7828237337444],[-79.4897946041548,43.7826492916532],[-79.4898046039463,43.7826469928108],[-79.49007105506,43.7825874879926],[-79.4906764476778,43.7824470147591],[-79.4913450141349,43.7822849531454],[-79.4921919913741,43.7820800432922],[-79.4944899350296,43.7815396868407],[-79.4986950380214,43.7805416676598],[-79.5002388282022,43.7801891861761],[-79.5018770471713,43.7798166730532],[-79.5057912487747,43.778923342771],[-79.5088164982546,43.7782339201375],[-79.5100161503481,43.7779537966344],[-79.5121527706086,43.7774568994163],[-79.5136344120496,43.7771187345086],[-79.5149522808254,43.7768199274531],[-79.5159568608363,43.7766121171213],[-79.517058927908,43.7763862060084],[-79.5186186207332,43.7760904946172],[-79.5188809125984,43.7760410427506],[-79.51909293117,43.7759995823425],[-79.5202316217359,43.7757790663457],[-79.5206024286264,43.775702834036],[-79.5217208505991,43.7754471963083],[-79.5217482444072,43.7754398975195],[-79.5218651524185,43.7754104370026],[-79.522214388342,43.7753218554126],[-79.5222960288952,43.775301572348],[-79.523533996112,43.7749844365563],[-79.5239267538271,43.7748994733207],[-79.5243456221134,43.7748238496567],[-79.5249062120693,43.7747050353359],[-79.5250199810249,43.774681834576],[-79.525321429639,43.7746211684622],[-79.5259536439307,43.774500121992],[-79.526851121037,43.7743091107055],[-79.5279271988892,43.7740906818747],[-79.5283036869038,43.7740150379278],[-79.5297739502266,43.7737233352441],[-79.5298902584878,43.7736978204239],[-79.5318091408027,43.77332182483],[-79.5327391887725,43.7731286655297],[-79.5327883937046,43.7731184928377],[-79.5329630379018,43.7730852612785],[-79.5336110485098,43.7729622133537],[-79.5337921465395,43.7729241103874],[-79.5344033643992,43.7727964459447],[-79.5347392196491,43.772725300792],[-79.5348248823278,43.7727078523885],[-79.5348583542375,43.7727008084568],[-79.534968275857,43.7726826562629],[-79.5353312747645,43.7742430647498],[-79.5356395377194,43.7755165433237],[-79.5357849018413,43.7761486675453],[-79.5358981527485,43.7766048972878],[-79.5362229971078,43.7779280149638],[-79.536530001575,43.7792239836139],[-79.5367071957342,43.7800140792154],[-79.5372425685652,43.7822043368851],[-79.5372425663702,43.7822044268943],[-79.5377069679246,43.7843711755715],[-79.538356322673,43.7870175738602],[-79.5388261596216,43.7889998979409],[-79.5391679441916,43.7903368187298],[-79.5394339389707,43.7914741466951],[-79.5397498110193,43.7928247789032],[-79.5399909686572,43.7939263131138],[-79.5403443431604,43.7955244831612],[-79.5407817280347,43.7973488190031],[-79.5410576011432,43.7984913101709],[-79.5415277379334,43.8004376086377],[-79.5421913442025,43.8032372232735],[-79.5427115203799,43.8053372175145],[-79.5429236721767,43.8061682627084],[-79.5432017219845,43.8071936386819],[-79.5433787457056,43.8079973120975],[-79.5435773478034,43.8087471498136],[-79.5437571845421,43.8095327761986],[-79.5437583021629,43.8095378199016],[-79.5439464223202,43.8104565701122],[-79.5439920342209,43.8106792236286],[-79.5439920320557,43.8106793127375],[-79.5443305465943,43.8121601417186],[-79.5445089137053,43.8129097186455],[-79.5446575114473,43.8134158184563],[-79.5448066594035,43.8138994140392],[-79.5448832433293,43.8144271046357],[-79.5449270092963,43.8146981145053],[-79.5449757649754,43.8150000164825],[-79.5450258470223,43.8152878715674],[-79.5450536487392,43.815447973343],[-79.5450542095158,43.8154511992985],[-79.5451181444718,43.8157626411768],[-79.5451456220409,43.816100628952],[-79.5451891432706,43.816515352226],[-79.5451891410849,43.8165154422349],[-79.5452037201487,43.8167500799961],[-79.5452148891903,43.8169298482448],[-79.5452587392031,43.8173310701094],[-79.5452883106974,43.8175880513459],[-79.5453472016413,43.8181380261543],[-79.5453819485387,43.8185301274303],[-79.5454554676003,43.8191793287244],[-79.5455106509498,43.8196977423581],[-79.5455752338636,43.8202387847454],[-79.5456273293481,43.8208742066483],[-79.5456973868483,43.8216764249637],[-79.5457485072838,43.8223148072651],[-79.545748510161,43.822314842416],[-79.5457486293039,43.822316337641],[-79.5458121050025,43.8229338967498],[-79.5458713206288,43.8237269730443],[-79.5459129899799,43.8240595585348],[-79.5459181965146,43.8241012208279],[-79.5459935990764,43.8246784158449],[-79.5460242915202,43.8252685464333],[-79.5460689842171,43.8257328029168],[-79.5460807857653,43.8258825138365],[-79.5460945613672,43.826057261145],[-79.5461307329181,43.8264268715656],[-79.5462106199174,43.8272652285633],[-79.5462567353742,43.8276709791328],[-79.5462731210517,43.8279232909962],[-79.5462816719362,43.8281794836857],[-79.5462699598099,43.8281811885292],[-79.546069682083,43.8282137536403],[-79.545706517352,43.8282653157037],[-79.5454287175699,43.8283046370336],[-79.544345995443,43.8284619173322],[-79.542993790554,43.8286383523604],[-79.5428677827239,43.8286545727516],[-79.5428612890449,43.828655660416],[-79.5410272474189,43.828955398149],[-79.5402646593454,43.8291166378177],[-79.5389523690465,43.8293789786671],[-79.5365885725117,43.8298574343556],[-79.5361054545364,43.8299733290391],[-79.535519667412,43.8301138498507],[-79.5348411962112,43.8302671276758],[-79.5344255561727,43.8303834365981],[-79.5342087123713,43.830446921941],[-79.5340716684001,43.8304869407596],[-79.5336483188949,43.8306030569991],[-79.5335529994904,43.8306558556197],[-79.5333515527758,43.8307152160842],[-79.5329233529191,43.8308413523622],[-79.5326862224982,43.830910336669],[-79.5326822151045,43.830911455682],[-79.5313806599686,43.831280810624],[-79.5300241358143,43.8316594375792],[-79.5290032902684,43.8319164093205],[-79.5269708597431,43.83237642285],[-79.525862139061,43.8326097235262],[-79.52506010245,43.8327884498578],[-79.5229711370037,43.833238659528],[-79.5220427761664,43.8334652516516],[-79.5213235993845,43.8336270161569],[-79.5204031700291,43.8338491957438],[-79.520399545381,43.8338499591351],[-79.5190618393683,43.8341515371102],[-79.5187537953018,43.8342149823188],[-79.5183070484609,43.834299225474],[-79.5173269024924,43.8345161048935],[-79.5166901613842,43.8346428943627],[-79.5156516877467,43.8348590021627],[-79.5143086076875,43.835129662983],[-79.5137488223647,43.8352574375351],[-79.5125127528858,43.8355071346649],[-79.5124234756254,43.8353393203414],[-79.5123149788523,43.835255614443],[-79.5117796729775,43.8353240939396],[-79.5113349973376,43.8351742429356],[-79.5110976466326,43.834940296879],[-79.5109057921496,43.8345274997304],[-79.5109653777791,43.8341671409768],[-79.5106872721023,43.8339817318758],[-79.5100285359908,43.8335525843604],[-79.5084706793698,43.8338522485641],[-79.508020645439,43.8338533058218],[-79.5077893584969,43.8337610584762],[-79.5074741851398,43.8338320341444],[-79.5075636915078,43.8342467388844],[-79.5077531324953,43.8349650037409],[-79.5078353402188,43.8353945607213],[-79.5080600097798,43.8364613648746],[-79.5080603589568,43.8364616782589],[-79.5073234297563,43.8366097576311],[-79.5071680671159,43.836639871779],[-79.5071273217522,43.8366477128082],[-79.5067686663178,43.8367195562298],[-79.5064355250482,43.8368007365799],[-79.5061524661301,43.8368842985509],[-79.5060266402099,43.8369214428942],[-79.5057440937533,43.8369987800318],[-79.5055028175096,43.8370721562656],[-79.5052082439982,43.8371628411208],[-79.504943139786,43.8372539099162],[-79.5046446570474,43.8373715539795],[-79.5045042056662,43.8374320209348],[-79.5043910386438,43.837480779985],[-79.5040631547664,43.8376250476842],[-79.5039491075979,43.8376741549163],[-79.5037889162917,43.8377430060142],[-79.5035598031763,43.8378570519735],[-79.5032354443055,43.8380193716256],[-79.5028282022784,43.8382031125311],[-79.5025434244752,43.8383344343085],[-79.5023356594627,43.8384352539225],[-79.5019259789193,43.8385919478176],[-79.5017115863387,43.8386791739391],[-79.501432951213,43.8387835625716],[-79.5009401885475,43.8389346632024],[-79.5003155343674,43.8391020361297],[-79.4999244589699,43.8391959424646],[-79.4984919005112,43.8394962155202],[-79.4984864429959,43.8395055066812],[-79.4985951057121,43.8402367701093],[-79.4993628998657,43.8443435987823],[-79.4995664416433,43.8451565983326],[-79.4997876122046,43.8457628346293],[-79.4999427018297,43.8460897126715],[-79.5000713218973,43.8463607995865],[-79.5002425370695,43.8466433704591],[-79.5004177726503,43.8469325754793],[-79.5006766679144,43.8473437418025],[-79.5009322571501,43.8477496528428],[-79.5011968501768,43.8481132689329],[-79.5016043774736,43.8487309495024],[-79.5025537961844,43.8500668386755],[-79.5036581883659,43.8516750389044],[-79.5045699278611,43.8530286946542],[-79.5047854907014,43.8533645586513],[-79.5050741078877,43.8537644952271],[-79.5055900616794,43.8545275483721],[-79.5059146561087,43.8549819740953],[-79.5061533099892,43.8553902563079],[-79.5063670899713,43.8557982146348],[-79.5065316921518,43.8561875216127],[-79.5066576082056,43.8566213407624],[-79.5067087929958,43.8570631866688],[-79.5067368980654,43.8574327011061],[-79.5067978269536,43.8579827184752],[-79.5069422361763,43.8586778835146],[-79.5070780280155,43.8592198743748],[-79.5073685714258,43.8600429985911],[-79.5075787824976,43.8605949645307],[-79.5076964413028,43.8608666094953],[-79.5078846975516,43.8613012411923],[-79.5081215930867,43.8617815247799],[-79.5083711360656,43.862168967538],[-79.5115289308124,43.8614527662344],[-79.5119171086876,43.8613654455776],[-79.5125237849257,43.8612185734082],[-79.5128304987912,43.8611494558636],[-79.5134818919451,43.8610507005642],[-79.5137966958019,43.86101148851],[-79.5138889528652,43.8615153598133],[-79.5141456615428,43.8626577444743],[-79.5144233757941,43.8638916970974],[-79.5146189227672,43.8646614363252],[-79.5147186335141,43.8651663048325],[-79.5148114055787,43.8655697907266],[-79.5149639585617,43.8662120204481],[-79.5150826910927,43.8667028191291],[-79.5152755984655,43.8675444613278],[-79.5153600600711,43.8679922272618],[-79.5154654965823,43.8684774495814],[-79.5156438778405,43.8692880198572],[-79.5157701435171,43.8698501158712],[-79.5157828457528,43.8699066613788],[-79.5158945651406,43.8704398656862],[-79.5161528548214,43.8715465205305],[-79.5163053827744,43.8722209785891],[-79.5164523646374,43.8728976773817],[-79.5165611783837,43.8733986390261],[-79.5153685279545,43.8740673295578],[-79.5129780027729,43.8745155927587],[-79.5108818367977,43.8750224745562],[-79.5062797321976,43.8760329277259],[-79.5023601388093,43.8768168781671],[-79.492234349347,43.8793067121079],[-79.4910010692418,43.8794096374894],[-79.4898288639674,43.8795140771238],[-79.4892598180896,43.8796202693045],[-79.4861439442789,43.8802741912029],[-79.4815934307205,43.8811765486711],[-79.473945170862,43.8827725502939],[-79.4674128644578,43.8841076794744],[-79.4665351565247,43.8790938263659],[-79.4647799786393,43.874100282079],[-79.4635820246391,43.8693435239129],[-79.4628649631676,43.8662525930565],[-79.4628428593236,43.8662510234685],[-79.462784805435,43.8659070480728],[-79.4627834607963,43.865899083413],[-79.4627826569251,43.8658951596372],[-79.4625865392851,43.8649375513788],[-79.4624809069883,43.8644768576194],[-79.4623857547936,43.8640344902263],[-79.4618772056545,43.861700215996]]]},"properties":{"OBJECTID":3,"GEO_ID":0,"FCODE":0,"DESCRIP":"CONCORD/THORNHILL NORTH","STATUS":"Chris Ainsworth","ID":4,"FEATURE":"WARDS","WARD_NO":"Ward 4","CATEGORY":"ADMINISTRATIVE","GLOBALID":"b0ef1082-dea5-465b-baaf-d31a878bb105","CREATED_USER":"Sylvia.Cardenas_vaughan","CREATED_DATE":1705935735724,"LAST_EDITED_USER":"Sylvia.Cardenas_vaughan","LAST_EDITED_DATE":1705935735724,"Shape__Area":97638386.58203125,"Shape__Length":51493.401811708332}},{"type":"Feature","id":4,"geometry":{"type":"Polygon","coordinates":[[[-79.5488234097736,43.8477406809201],[-79.5487351439205,43.847271273761],[-79.5486729377587,43.846940168278],[-79.5486728865054,43.8469401784314],[-79.5486728810509,43.8469401468493],[-79.5486455898722,43.8469455805246],[-79.5486452535946,43.8469456473818],[-79.5480770444653,43.8446294473608],[-79.5476220823925,43.8416671405751],[-79.5473193662015,43.8384044239141],[-79.5470834624304,43.8359724197597],[-79.5462816720017,43.8281794809854],[-79.5462731210517,43.8279232909962],[-79.5462567353742,43.8276709791328],[-79.5462106199174,43.8272652285633],[-79.5461307329181,43.8264268715656],[-79.5460945613672,43.826057261145],[-79.5460807857653,43.8258825138365],[-79.5460689842171,43.8257328029168],[-79.5460242915202,43.8252685464333],[-79.5459935990764,43.8246784158449],[-79.5459181965146,43.8241012208279],[-79.5459129899799,43.8240595585348],[-79.5458713206288,43.8237269730443],[-79.5458121050025,43.8229338967498],[-79.5457486293039,43.822316337641],[-79.545748510161,43.822314842416],[-79.5457485072838,43.8223148072651],[-79.5456973868483,43.8216764249637],[-79.5456273293481,43.8208742066483],[-79.5455752338636,43.8202387847454],[-79.5455106509498,43.8196977423581],[-79.5454554676003,43.8191793287244],[-79.5453819485387,43.8185301274303],[-79.5453472016413,43.8181380261543],[-79.5452883106974,43.8175880513459],[-79.5452587392031,43.8173310701094],[-79.5452148891903,43.8169298482448],[-79.5452037201487,43.8167500799961],[-79.5451891410849,43.8165154422349],[-79.5451891432706,43.816515352226],[-79.5451456220409,43.816100628952],[-79.5451181444718,43.8157626411768],[-79.5450542095158,43.8154511992985],[-79.5450536487392,43.815447973343],[-79.5450258470223,43.8152878715674],[-79.5449757649754,43.8150000164825],[-79.5449270092963,43.8146981145053],[-79.5448832433293,43.8144271046357],[-79.5448066594035,43.8138994140392],[-79.5446575114473,43.8134158184563],[-79.5445089137053,43.8129097186455],[-79.5443305465943,43.8121601417186],[-79.5439920320557,43.8106793127375],[-79.5439920342209,43.8106792236286],[-79.5439464223202,43.8104565701122],[-79.5437583021629,43.8095378199016],[-79.5437571845421,43.8095327761986],[-79.5435773478034,43.8087471498136],[-79.5433787457056,43.8079973120975],[-79.5432017219845,43.8071936386819],[-79.5429236721767,43.8061682627084],[-79.5427115203799,43.8053372175145],[-79.5421913442025,43.8032372232735],[-79.5415277379334,43.8004376086377],[-79.5410576011432,43.7984913101709],[-79.5407817280347,43.7973488190031],[-79.5403443431604,43.7955244831612],[-79.5399909686572,43.7939263131138],[-79.5397498110193,43.7928247789032],[-79.5394339389707,43.7914741466951],[-79.5391679441916,43.7903368187298],[-79.5388261596216,43.7889998979409],[-79.538356322673,43.7870175738602],[-79.5377069679246,43.7843711755715],[-79.5372425663702,43.7822044268943],[-79.5372425685652,43.7822043368851],[-79.5367071957342,43.7800140792154],[-79.536530001575,43.7792239836139],[-79.5362229971078,43.7779280149638],[-79.5358981527485,43.7766048972878],[-79.5357849018413,43.7761486675453],[-79.5356395377194,43.7755165433237],[-79.5353312747645,43.7742430647498],[-79.534968275857,43.7726826562629],[-79.5351271875818,43.7726524592316],[-79.5351611694474,43.7726448824243],[-79.5351722772654,43.7726428639181],[-79.5354070230618,43.772600854176],[-79.5369329178274,43.7722872619448],[-79.5371982017137,43.7722310543477],[-79.5377938185915,43.7721056021269],[-79.537909173027,43.7720832173304],[-79.538178528998,43.7720330920613],[-79.5397801092007,43.7717024233363],[-79.5400463394835,43.7716427988836],[-79.5400590880288,43.7716397195142],[-79.5402799899732,43.7715893294634],[-79.5404692731567,43.7715464584293],[-79.5406344013787,43.7715107526041],[-79.5432023341532,43.7709717805303],[-79.5432440270999,43.7709637584943],[-79.5433818240967,43.7709380536659],[-79.5433895239557,43.7709381518163],[-79.5463612420545,43.7703366386197],[-79.5465111654863,43.7703026207486],[-79.5494202759851,43.7697183271923],[-79.549570197146,43.7696842161326],[-79.5520798333061,43.7691758181737],[-79.5524792522299,43.7690998447324],[-79.5540376401051,43.7687504211017],[-79.5549546935327,43.7685594372121],[-79.5569619185315,43.7681751308193],[-79.5570368773547,43.7681579798456],[-79.5570869905315,43.768140696074],[-79.5571493100795,43.7681324792173],[-79.557798860099,43.7679876142398],[-79.5603713249302,43.7674438117139],[-79.5605711323972,43.7674013109057],[-79.5617758603692,43.7671546507992],[-79.5636163194747,43.7667782133456],[-79.5647652346466,43.7665938427613],[-79.5647537138782,43.7666054245519],[-79.5649398699061,43.7667656199179],[-79.5651038865722,43.7669207442813],[-79.565211266136,43.7670076282382],[-79.565333003888,43.7670811867283],[-79.5654480938311,43.7671366541257],[-79.5655609458402,43.7671920924142],[-79.5656099835669,43.7672197201267],[-79.5658065590148,43.7673122249855],[-79.5661889514681,43.7674382987861],[-79.5667434249449,43.7676211024067],[-79.5671562893214,43.7677613372012],[-79.5674263499941,43.7678412550378],[-79.5675855353752,43.767897273073],[-79.5678167038106,43.7679722005846],[-79.5680473358946,43.7680696302887],[-79.5681955366308,43.7681435173281],[-79.5682954373529,43.7682064870409],[-79.5683048416078,43.7682124149871],[-79.5684417894657,43.7682996663487],[-79.5685344031433,43.7683548490548],[-79.5686328123621,43.768432613661],[-79.5687087246214,43.7685055945267],[-79.5687704942457,43.7685829000853],[-79.5688452383548,43.7686423606003],[-79.5689158946013,43.7687377848791],[-79.568988489885,43.7688196377302],[-79.569036454006,43.7688923584183],[-79.569084205761,43.7689739901403],[-79.5691321722638,43.769046620779],[-79.5691679326007,43.7691100948093],[-79.5692154700927,43.7692007275422],[-79.5692266033618,43.7692548894468],[-79.5692499429805,43.7693182079318],[-79.5692728534436,43.7693995285401],[-79.5692978078893,43.7694628672322],[-79.5693339895772,43.7695712751979],[-79.569377132742,43.7697159653814],[-79.5693897724394,43.7697746480006],[-79.5693993985165,43.7698242891392],[-79.5694037966348,43.7698378498257],[-79.5695719822525,43.7704026896235],[-79.5696617531957,43.7707178424845],[-79.5696981023065,43.7708454511034],[-79.5698019558374,43.7711798905549],[-79.5698591283326,43.7713876923069],[-79.5700933844988,43.772376534181],[-79.5702430640307,43.7730041674178],[-79.5702771119935,43.7731396487026],[-79.5704327916001,43.773776361332],[-79.5704569983762,43.7738712034808],[-79.5704674784498,43.7739163533091],[-79.5705094434075,43.7740429307029],[-79.5705660951948,43.7742102086473],[-79.5705958752294,43.7743006186049],[-79.5706147122066,43.7743548766956],[-79.570892142171,43.7753892752285],[-79.5709574715721,43.7756827138563],[-79.5710240608376,43.7759806700588],[-79.5711151789134,43.7762609254463],[-79.5712038545778,43.7766176820051],[-79.5715248961551,43.7778462043196],[-79.5715426864627,43.7779184566209],[-79.571681033312,43.7784333990443],[-79.5717655131876,43.7787630913896],[-79.5718621044055,43.7792730997961],[-79.572089147073,43.7801447076152],[-79.5723910847829,43.7813106219394],[-79.5725956064647,43.7821003426836],[-79.573096958175,43.784141448367],[-79.5731076691069,43.7842136119525],[-79.5736957108205,43.786660963595],[-79.5742225251838,43.7886483574723],[-79.574481758027,43.7896690123605],[-79.5753238114175,43.7929073473912],[-79.57544101718,43.7933364851745],[-79.5755581188662,43.7937701233696],[-79.5758260751571,43.7948178942832],[-79.5760549396621,43.7957796419922],[-79.5761899417613,43.796245015432],[-79.5763729573628,43.7970441241932],[-79.5765523263822,43.7977666556005],[-79.5768971650826,43.7991170043885],[-79.5769318801813,43.7992569951039],[-79.5773128230592,43.8006843243553],[-79.5775632682313,43.8016238275915],[-79.577794867339,43.8025405863213],[-79.5780435064547,43.803619713169],[-79.5781627951672,43.8040622888821],[-79.5785290195082,43.8055884705549],[-79.5787474567344,43.8064375353222],[-79.5789478942807,43.8073539025334],[-79.5792531745218,43.8086361342836],[-79.5793190942221,43.8088396261443],[-79.5802013735682,43.8128257227812],[-79.5803276699621,43.8133360003669],[-79.5803542502379,43.8134578803869],[-79.5803487973813,43.8135253402951],[-79.5803136547195,43.8135654202647],[-79.5810747453089,43.8166361267877],[-79.5821322336012,43.8211781044476],[-79.5863051294759,43.8397247593451],[-79.586278702473,43.8404764801489],[-79.586705995593,43.8413458461708],[-79.5868853218767,43.8422027001269],[-79.5869217434214,43.8423767309444],[-79.5875973441388,43.8450992820288],[-79.5882845108411,43.8481523026121],[-79.588810083219,43.8480392698834],[-79.5901158746975,43.8477584308768],[-79.5901609083928,43.8479057152331],[-79.5901770170286,43.8479584160058],[-79.5918666372488,43.8476120197561],[-79.5930085686558,43.8473675016369],[-79.5933843950469,43.847288285201],[-79.594055885976,43.8471468110306],[-79.5948709898968,43.8469749281767],[-79.595064396979,43.8469341583005],[-79.5957099843332,43.8467969360309],[-79.5958890584019,43.8467588769673],[-79.5966191108684,43.8466037096053],[-79.5995854735526,43.845976176095],[-79.5996359627972,43.8459654160895],[-79.5996386733746,43.8459648406636],[-79.5996616320818,43.8459599638516],[-79.6003626389805,43.8458111179566],[-79.6004873120995,43.8464753131237],[-79.6006638547179,43.8471240268165],[-79.6007521453422,43.8475944741357],[-79.6007645015041,43.8476603538216],[-79.6007645167467,43.8476603936243],[-79.6007645244637,43.8476604360359],[-79.6008077899065,43.8477677238123],[-79.6009635780592,43.8481541210412],[-79.6010230335961,43.8483839772197],[-79.6010749734175,43.8486579203959],[-79.6011419478207,43.8491005704929],[-79.6013487544228,43.8501819368684],[-79.6013876965406,43.8503856337173],[-79.6015391096024,43.8510830178324],[-79.6015898089882,43.8512594045998],[-79.601635859275,43.851419709774],[-79.6017285343117,43.8518531327135],[-79.6018745479611,43.8525361676843],[-79.6019894265626,43.8531042619407],[-79.6021745510766,43.853901346721],[-79.6022063524512,43.8540383136406],[-79.602430528888,43.8548946432114],[-79.6024285115617,43.8550260148014],[-79.6024276572261,43.8550795273255],[-79.5972795867585,43.8561676455614],[-79.5964269831238,43.856338689316],[-79.5949104828864,43.8566557956665],[-79.5904574201206,43.8576080933955],[-79.590558692695,43.8581103943099],[-79.5869243329513,43.8588471993662],[-79.5814007547423,43.8599554370344],[-79.5775393067194,43.8607295495304],[-79.5730342352578,43.8616207342665],[-79.5697462375419,43.8622335566065],[-79.5669857014825,43.8626842622124],[-79.5647995263502,43.8630476691786],[-79.5637672768345,43.8632139602268],[-79.5597183187161,43.8639584614275],[-79.5548920884985,43.86488386716],[-79.553049894385,43.8652454566433],[-79.5525730233181,43.8639275441945],[-79.5525659397646,43.8639079634482],[-79.5517593631292,43.8604733194346],[-79.5508155579537,43.8564538333087],[-79.5494593739739,43.8500920410142],[-79.549000957945,43.8489378435842],[-79.5489919951543,43.8489152747114],[-79.5489902016716,43.8489027846096],[-79.5488234097736,43.8477406809201]]]},"properties":{"OBJECTID":4,"GEO_ID":0,"FCODE":0,"DESCRIP":"WOODBRIDGE/VELLORE","STATUS":"Rosanna DeFrancesca","ID":3,"FEATURE":"WARDS","WARD_NO":"Ward 3","CATEGORY":"ADMINISTRATIVE","GLOBALID":"2a224d5a-599c-46fe-89a1-4751d341b1b8","CREATED_USER":"Sylvia.Cardenas_vaughan","CREATED_DATE":1705935735724,"LAST_EDITED_USER":"Sylvia.Cardenas_vaughan","LAST_EDITED_DATE":1705935735724,"Shape__Area":60527127.44140625,"Shape__Length":39585.010909616722}},{"type":"Feature","id":5,"geometry":{"type":"Polygon","coordinates":[[[-79.5863051307407,43.8397247584604],[-79.5821322336012,43.8211781044476],[-79.5810747453089,43.8166361267877],[-79.5803136547195,43.8135654202647],[-79.5803487973813,43.8135253402951],[-79.5803542502379,43.8134578803869],[-79.5803276699621,43.8133360003669],[-79.5802013735682,43.8128257227812],[-79.5793190942221,43.8088396261443],[-79.5792531745218,43.8086361342836],[-79.5789478942807,43.8073539025334],[-79.5787474567344,43.8064375353222],[-79.5785290195082,43.8055884705549],[-79.5781627951672,43.8040622888821],[-79.5780435064547,43.803619713169],[-79.577794867339,43.8025405863213],[-79.5775632682313,43.8016238275915],[-79.5773128230592,43.8006843243553],[-79.5769318801813,43.7992569951039],[-79.5768971650826,43.7991170043885],[-79.5765523263822,43.7977666556005],[-79.5763729573628,43.7970441241932],[-79.5761899417613,43.796245015432],[-79.5760549396621,43.7957796419922],[-79.5758260751571,43.7948178942832],[-79.5755581188662,43.7937701233696],[-79.57544101718,43.7933364851745],[-79.5753238114175,43.7929073473912],[-79.574481758027,43.7896690123605],[-79.5742225251838,43.7886483574723],[-79.5736957108205,43.786660963595],[-79.5731076691069,43.7842136119525],[-79.573096958175,43.784141448367],[-79.5725956064647,43.7821003426836],[-79.5723910847829,43.7813106219394],[-79.572089147073,43.7801447076152],[-79.5718621044055,43.7792730997961],[-79.5717655131876,43.7787630913896],[-79.571681033312,43.7784333990443],[-79.5715426864627,43.7779184566209],[-79.5715248961551,43.7778462043196],[-79.5712038545778,43.7766176820051],[-79.5711151789134,43.7762609254463],[-79.5710240608376,43.7759806700588],[-79.5709574715721,43.7756827138563],[-79.570892142171,43.7753892752285],[-79.5706147122066,43.7743548766956],[-79.5705958752294,43.7743006186049],[-79.5705660951948,43.7742102086473],[-79.5705094434075,43.7740429307029],[-79.5704674784498,43.7739163533091],[-79.5704569983762,43.7738712034808],[-79.5704327916001,43.773776361332],[-79.5702771119935,43.7731396487026],[-79.5702430640307,43.7730041674178],[-79.5700933844988,43.772376534181],[-79.5698591283326,43.7713876923069],[-79.5698019558374,43.7711798905549],[-79.5696981023065,43.7708454511034],[-79.5696617531957,43.7707178424845],[-79.5695719822525,43.7704026896235],[-79.5694037966348,43.7698378498257],[-79.5693993985165,43.7698242891392],[-79.5693897724394,43.7697746480006],[-79.569377132742,43.7697159653814],[-79.5693339895772,43.7695712751979],[-79.5692978078893,43.7694628672322],[-79.5692728534436,43.7693995285401],[-79.5692499429805,43.7693182079318],[-79.5692266033618,43.7692548894468],[-79.5692154700927,43.7692007275422],[-79.5691679326007,43.7691100948093],[-79.5691321722638,43.769046620779],[-79.569084205761,43.7689739901403],[-79.569036454006,43.7688923584183],[-79.568988489885,43.7688196377302],[-79.5689158946013,43.7687377848791],[-79.5688452383548,43.7686423606003],[-79.5687704942457,43.7685829000853],[-79.5687087246214,43.7685055945267],[-79.5686328123621,43.768432613661],[-79.5685344031433,43.7683548490548],[-79.5684417894657,43.7682996663487],[-79.5683048416078,43.7682124149871],[-79.5682954373529,43.7682064870409],[-79.5681955366308,43.7681435173281],[-79.5680473358946,43.7680696302887],[-79.5678167038106,43.7679722005846],[-79.5675855353752,43.767897273073],[-79.5674263499941,43.7678412550378],[-79.5671562893214,43.7677613372012],[-79.5667434249449,43.7676211024067],[-79.5661889514681,43.7674382987861],[-79.5658065590148,43.7673122249855],[-79.5656099835669,43.7672197201267],[-79.5655609458402,43.7671920924142],[-79.5654480938311,43.7671366541257],[-79.565333003888,43.7670811867283],[-79.565211266136,43.7670076282382],[-79.5651038865722,43.7669207442813],[-79.5649398699061,43.7667656199179],[-79.5647537138782,43.7666054245519],[-79.5647600967506,43.7665990085112],[-79.5647652346466,43.7665938427613],[-79.5672251672431,43.7660368114064],[-79.5674283984393,43.7659910092192],[-79.5684768515397,43.7657880581531],[-79.5689141363758,43.7656854001912],[-79.5690163920682,43.7656642613856],[-79.56915140529,43.7656344388681],[-79.5710752570632,43.7651903165529],[-79.5712570578542,43.7651520728305],[-79.5745844224342,43.7644238047953],[-79.5747594946993,43.7643809696781],[-79.576695900306,43.7639279053204],[-79.5767536241112,43.7639193503993],[-79.5769476048837,43.7638910634002],[-79.5772803337445,43.763806069187],[-79.5773701998971,43.7637832379972],[-79.5774600318499,43.7637618469126],[-79.5775670922205,43.7637316664512],[-79.5776836806491,43.7636926007211],[-79.5777191508086,43.7636794465209],[-79.5777771493774,43.76365927965],[-79.5778373659126,43.7636346384724],[-79.577914089568,43.7636054306955],[-79.5780588353113,43.7635577112235],[-79.5780773488125,43.7635523592602],[-79.5781030892448,43.7635461068047],[-79.5792142381869,43.7632996286406],[-79.5800150089717,43.7631228439791],[-79.5802584382023,43.7630679744336],[-79.5808470393201,43.7629373481076],[-79.5810697163737,43.7628878914784],[-79.5812684906761,43.7628457908567],[-79.5823050631957,43.7626155538465],[-79.585171733479,43.7619776907236],[-79.5865788013027,43.7616653851591],[-79.5878426993356,43.7613812756159],[-79.5900247324968,43.7608923037634],[-79.5903817530156,43.7607976668806],[-79.590398376354,43.7607933700517],[-79.592906593255,43.760235345586],[-79.5931207615513,43.7601876514385],[-79.5931958226968,43.7601705679866],[-79.5933495822783,43.7601349150668],[-79.5946731921795,43.7598285952265],[-79.5946963171446,43.7598224869348],[-79.5947379108845,43.7598128241722],[-79.5950073036833,43.7597514895842],[-79.5952937732815,43.7596876631447],[-79.595566882113,43.759642669737],[-79.5958786096729,43.7595930180521],[-79.596040640723,43.7595594439658],[-79.596223845034,43.7595235186557],[-79.5973289260079,43.7592804809453],[-79.6020374182704,43.7581991114147],[-79.6020622658534,43.758193652966],[-79.6025712266315,43.7580808481268],[-79.602928680756,43.7580033744517],[-79.603379538555,43.75791569648],[-79.6034098606298,43.7579098544558],[-79.6069319159291,43.7571244970167],[-79.6075688145594,43.7569791951466],[-79.6081057356274,43.7568596833451],[-79.6083429403388,43.7568085496397],[-79.6141076425772,43.755528040649],[-79.6141638366894,43.7555152164676],[-79.617058391457,43.7548614932627],[-79.6194559340201,43.7543142406266],[-79.6198431711938,43.7542198764967],[-79.6250005024524,43.7530304312041],[-79.6295496732237,43.7520182186372],[-79.6297321143566,43.7519757476116],[-79.6301381712654,43.751882654626],[-79.6308295062198,43.7517201378748],[-79.6309717433289,43.7516867271817],[-79.631002080262,43.7516799776197],[-79.6311152210485,43.7516588234827],[-79.6313036379749,43.7516211034939],[-79.6314336407871,43.7515958291784],[-79.6315772340591,43.7515682864336],[-79.6319096662763,43.7515062689346],[-79.6321544999714,43.7514619298634],[-79.6325298577412,43.7513966427584],[-79.6325479873873,43.7513968597015],[-79.6327471132045,43.7513797040717],[-79.6327783427737,43.7513773765735],[-79.6332638595645,43.7513399661328],[-79.6337170740892,43.7513301692131],[-79.6338257305225,43.751325885897],[-79.6341816383411,43.7513128529249],[-79.6346363556623,43.75129703778],[-79.6349517083028,43.7512867592181],[-79.6354952205216,43.7512387772994],[-79.6355894320292,43.7512306282736],[-79.6359102042524,43.7511895287743],[-79.6360072420942,43.7511717790861],[-79.6362821000688,43.7511232876268],[-79.6365763191598,43.7510481051704],[-79.6369339616983,43.7509585521025],[-79.637173848264,43.7508747066538],[-79.6373945414062,43.7507991854452],[-79.6376514201778,43.7506889804165],[-79.6378503230909,43.7506048250253],[-79.6382170684705,43.7504203864373],[-79.6386109187973,43.7502236642612],[-79.6392534390809,43.7498839505369],[-79.6393215540651,43.7499530103318],[-79.6393750417187,43.7500098308474],[-79.6394175863761,43.7500562567286],[-79.6395501169712,43.7501822669573],[-79.6397622488385,43.7503857567748],[-79.639970375754,43.7505961314488],[-79.6400983422482,43.7507373031213],[-79.640244220474,43.7508993064567],[-79.6403769169534,43.7510455762149],[-79.6404783279254,43.7511912035123],[-79.6405210898712,43.7512445644787],[-79.6405226572848,43.7512466539969],[-79.6405609734311,43.7512988816044],[-79.6407110992734,43.7515257621475],[-79.6407425901273,43.7515777284315],[-79.6408567800014,43.7517679860985],[-79.6410171893694,43.752056484409],[-79.6410418816374,43.7521015268779],[-79.6411568478586,43.7523728275602],[-79.6412435310825,43.7526260543709],[-79.6418148304531,43.754172493305],[-79.6420391208665,43.754827933238],[-79.6423687051851,43.7557052163352],[-79.6425447725553,43.756186489275],[-79.6429424921769,43.7572759886687],[-79.6432450396799,43.7580755153282],[-79.643464590576,43.7585131844105],[-79.643662006868,43.7589080024544],[-79.6438117916074,43.7591843053679],[-79.6439458815045,43.7594240465674],[-79.6439969743284,43.7595159511613],[-79.6441340647977,43.7597604096978],[-79.6442782396798,43.7600102643366],[-79.644580165664,43.7605305726427],[-79.6446254367522,43.7606053007134],[-79.6447658850022,43.7608388136708],[-79.6449644982279,43.7611923161925],[-79.6454238091065,43.7619945957228],[-79.6461798028873,43.7632704755085],[-79.6463771419969,43.7636040620176],[-79.6469890539409,43.764538517086],[-79.6474157818896,43.7652287556831],[-79.6475878833005,43.7654644404188],[-79.6477711635086,43.7657333910403],[-79.6479122094871,43.765963485598],[-79.648043283518,43.7662171419116],[-79.6482818424483,43.7666521448872],[-79.6485077026816,43.76710500469],[-79.6485195154752,43.7671321556987],[-79.6486752337539,43.7673951064654],[-79.6489977075695,43.7679662466902],[-79.6492301220456,43.7684154008822],[-79.6493541768228,43.7686446624629],[-79.6493789838381,43.7686906947907],[-79.6493906029577,43.7687099201003],[-79.6495786201168,43.7690231321693],[-79.6496733996286,43.7692007259642],[-79.6497271433649,43.7693025633307],[-79.6498808680667,43.7695607168199],[-79.6499268389013,43.7696380620513],[-79.6516189780305,43.7726122653838],[-79.6518975062465,43.7731066166017],[-79.6521883904608,43.7736042641547],[-79.6522877820355,43.7737763277288],[-79.6532884537812,43.7755350339465],[-79.6541489150314,43.7770488883252],[-79.6545432054064,43.7777468203915],[-79.6552845099058,43.7790520864031],[-79.6575079150923,43.7829768518593],[-79.6578503254292,43.783575211248],[-79.6581143884715,43.7840595625406],[-79.6586024969017,43.7849565738427],[-79.6599968340685,43.7873184074695],[-79.6604979744137,43.7881908027825],[-79.6606554004883,43.7884654612929],[-79.662130962954,43.7909875857557],[-79.6646526409689,43.7953051983624],[-79.6653828094074,43.7965659670332],[-79.6654305160362,43.7966564714358],[-79.6656576157864,43.7970642911821],[-79.6658009327955,43.7973270726503],[-79.6662085155703,43.7979981064134],[-79.668527465857,43.8020045250878],[-79.6686888284949,43.8022786776195],[-79.6691563734166,43.8030739299625],[-79.6704219282818,43.8053936134608],[-79.6708363482439,43.806114229899],[-79.6715637822909,43.8073697031116],[-79.672021204286,43.8081539309633],[-79.6722894450162,43.8086166873933],[-79.6727484105623,43.80941065413],[-79.6733914305306,43.8105120715701],[-79.6740038339178,43.8115765748933],[-79.6740346024577,43.8116301438314],[-79.6743015170395,43.8120699204659],[-79.674419269561,43.8122775613919],[-79.6745251568048,43.8124651663718],[-79.6747316963851,43.8128016894198],[-79.6748220590954,43.8129492276521],[-79.6753507166912,43.813855817613],[-79.6757992133278,43.8146263305372],[-79.6758137175623,43.8146508086117],[-79.6764090058929,43.8156608077499],[-79.6765940744586,43.8159626844381],[-79.6770022289012,43.8166300830086],[-79.6772399472948,43.8170199940818],[-79.6786778081133,43.8193460776888],[-79.6783604005755,43.8194279420383],[-79.6782386931338,43.8194490435207],[-79.6777326186254,43.8195602365416],[-79.6773032536755,43.8196536677376],[-79.676973497713,43.8197254226994],[-79.6763279281687,43.81986589496],[-79.6752449462369,43.8201015367997],[-79.6731203692492,43.8205638190401],[-79.6730968576777,43.8205689347295],[-79.6698690109785,43.8212697091607],[-79.6664527814004,43.8220222159896],[-79.6658162688092,43.8221588448404],[-79.6639842973174,43.8225471077925],[-79.6597530896339,43.8234789596282],[-79.6595776711934,43.8227431015926],[-79.6487543201599,43.8251365650573],[-79.6467700169999,43.8255813639768],[-79.6425422182493,43.8265171194895],[-79.6408281668939,43.8268974076028],[-79.6395276157693,43.8271790516552],[-79.6385454333495,43.82740595074],[-79.637914640122,43.8275920122184],[-79.6373617786227,43.8277744977455],[-79.6369030420544,43.8279851144907],[-79.6367544771796,43.8280840347253],[-79.6363915964358,43.8283256536595],[-79.6361000400603,43.8285292584394],[-79.6358595990737,43.8287109635287],[-79.6357215739785,43.8288447471054],[-79.6355567872518,43.8290044692655],[-79.6355394455035,43.8290177676954],[-79.6351580972837,43.8292428051644],[-79.634915106793,43.8293614538781],[-79.6346663319282,43.8294665256457],[-79.6339150993001,43.8298221955264],[-79.633721807874,43.829882910182],[-79.6335703531889,43.8299135591556],[-79.633532759711,43.8299211660749],[-79.6333923654767,43.8299419962234],[-79.6333211370731,43.8299458262179],[-79.6332561338011,43.8299493704813],[-79.6330918232136,43.8299609105178],[-79.6329535588599,43.829959256427],[-79.6327773281317,43.8299481442211],[-79.6326757017475,43.8299379245045],[-79.6325607902755,43.8299320475476],[-79.6324111465637,43.8299167511125],[-79.6322557979373,43.8298789670523],[-79.6321464156705,43.8298325493046],[-79.6320435547957,43.8297728840912],[-79.6318490302304,43.8296534173455],[-79.6316796897282,43.8295748584087],[-79.6313792765751,43.82949022752],[-79.6313693690398,43.8291074527849],[-79.6313536260505,43.8287787193029],[-79.6313379695351,43.8283372626455],[-79.6313307071899,43.8279095011476],[-79.6313303566937,43.8275493499704],[-79.6313163928232,43.8270719879299],[-79.6313093689743,43.8264596538354],[-79.631308551628,43.8261580208793],[-79.631302348484,43.8255097718481],[-79.6313241490775,43.8246591853683],[-79.6300673117551,43.8246935533081],[-79.6292472144986,43.8247287374793],[-79.628658197337,43.8247576846952],[-79.6280376066611,43.8248402718498],[-79.6274009816563,43.8249766850881],[-79.6271589492093,43.8250428356534],[-79.6268674650856,43.8251226973948],[-79.6268652262042,43.8251233097511],[-79.6264465244768,43.8252848463449],[-79.6261751245206,43.8253896277184],[-79.6258779496312,43.8255391159689],[-79.6256053081776,43.825697904012],[-79.625348227526,43.8258613795397],[-79.625031057256,43.8260961608388],[-79.6249854911292,43.8261366908963],[-79.624896228763,43.8262160879704],[-79.6247853680118,43.8263021344529],[-79.6247363059516,43.8263402147518],[-79.6245650923303,43.8265227292854],[-79.6242478999286,43.8268610494694],[-79.6239570611027,43.8271726768961],[-79.6236759786708,43.8274979256895],[-79.6234414561425,43.8277562062429],[-79.6231814635551,43.8280456940612],[-79.6229477023035,43.8283084854822],[-79.6226644548628,43.8286247019504],[-79.622515712212,43.8288029823545],[-79.6222111574534,43.8291369481432],[-79.6219255397406,43.8294531341467],[-79.6216543814126,43.8297515765344],[-79.6214620546615,43.8299697562497],[-79.6213574222969,43.8300847312413],[-79.6212595493995,43.8301924046872],[-79.6209937309249,43.8304909098947],[-79.6207528632962,43.8307265999279],[-79.620498689394,43.8309621287972],[-79.6202870202993,43.8311395564573],[-79.6200852126155,43.8312991855127],[-79.619876607006,43.8314407247643],[-79.6196048989677,43.8315949167871],[-79.6194591870479,43.8316787812562],[-79.6193433608145,43.8317449092818],[-79.61928533996,43.8317745505551],[-79.619210734449,43.8318126718223],[-79.6191884271827,43.8318240692057],[-79.618983908143,43.8319282990825],[-79.6189123012182,43.8319647916171],[-79.6183750295308,43.8322058972618],[-79.6182144590489,43.8322690530102],[-79.6180196912048,43.8323456587763],[-79.6177685568618,43.8324379699376],[-79.6176284378279,43.8324894865159],[-79.6123794477075,43.8337026728038],[-79.6123380069557,43.8336928957658],[-79.6110059541216,43.8339745521561],[-79.6101976387609,43.834155240839],[-79.6089187333685,43.8344237436705],[-79.6086587329482,43.8344898161901],[-79.6071777773088,43.8347974359371],[-79.6050932217331,43.8352472201632],[-79.6028949175034,43.8357196152828],[-79.6006901619887,43.8361951303287],[-79.5995144186976,43.8364366995859],[-79.5967216810052,43.8370375535018],[-79.5947361317098,43.8374650447705],[-79.5935822290296,43.8377067314266],[-79.5922790689957,43.8379846530903],[-79.5913837960626,43.8381822334679],[-79.5906019275404,43.8383811174542],[-79.5902415809444,43.8384810244148],[-79.590003433742,43.8385629903569],[-79.58936223592,43.838762160143],[-79.5881640375084,43.8391975438681],[-79.5875456395079,43.839405178458],[-79.5872970964004,43.839480578019],[-79.5871857782791,43.8395143474042],[-79.5871851831488,43.8395145282219],[-79.5869675175254,43.8395716208752],[-79.5863051307407,43.8397247584604]]]},"properties":{"OBJECTID":5,"GEO_ID":0,"FCODE":0,"DESCRIP":"WOODBRIDGE WEST","STATUS":"Adriano Volpentesta","ID":2,"FEATURE":"WARDS","WARD_NO":"Ward 2","CATEGORY":"ADMINISTRATIVE","GLOBALID":"1073aa85-b423-43f5-a516-40dc829a89ea","CREATED_USER":"Sylvia.Cardenas_vaughan","CREATED_DATE":1705935735724,"LAST_EDITED_USER":"Sylvia.Cardenas_vaughan","LAST_EDITED_DATE":1705935735724,"Shape__Area":107346008.75390625,"Shape__Length":44196.226409676281}}]}